main_category,name,mid_category,district,address,green_area,green_length,lat,lon
green,간촌인근,공원,서울특별시 노원구,서울특별시 노원구 상계5동 156-66,41,,37.6543741,127.0563321
green,우남아파트앞,공원,서울특별시 노원구,서울특별시 노원구 월계1동 494-9,43,,37.6543741,127.0563321
green,도원극장옆마을마당,공원,서울특별시 은평구,서울특별시 은평구 녹번동 74-5,48.8,,37.60152,126.9299
green,한옥마을소공원,공원,서울특별시 은평구,서울특별시 은평구 진관동 211-34,58.7,,37.64262,126.9396
green,계상초인근,공원,서울특별시 노원구,서울특별시 노원구 상계5 434-8,62,,37.6543741,127.0563321
green,삼청,공원,서울특별시 성북구,서울특별시 성북동 산25-52,73.6,,37.58944,127.0168
green,두레어린이공원,공원,서울특별시 송파구,서울특별시 송파구 마천동 364-5 일대,75,,37.49433,127.1561
green,상계3,공원,서울특별시 노원구,서울특별시 노원구 상계3 107-1861,76,,37.6543741,127.0563321
green,순복음교회뒤,공원,서울특별시 노원구,서울특별시 노원구 상계2동 178-18,76,,37.655879,127.0688362
green,순복음목재소,공원,서울특별시 노원구,서울특별시 노원구 상계2 330-41,77,,37.6543741,127.0563321
green,신당제11구역2공원,공원,서울특별시 중구,서울특별시 중구 신당동 85-288,77,,37.56331,127.0251
green,도곡동426-9(로덴하우스)소공원,공원,서울특별시 강남구,서울특별시 강남구 도곡동 462-9,80,,37.4855986,127.046055
green,구의가로휴식공원,공원,서울특별시 광진구,서울특별시 광진구 구의동 589-4,95.2,,37.5364654,127.0932814
green,돌무데기,공원,서울특별시 송파구,서울특별시 송파구 마천동 375,97.6,,37.49204,127.1551
green,오장골,공원,서울특별시 노원구,서울특별시 노원구 상계5 445-2,99,,37.6543741,127.0563321
green,공릉2(산업대앞),공원,서울특별시 노원구,서울특별시 노원구 공릉2 462-14,103,,37.6543741,127.0563321
green,중계본동보호수근처,공원,서울특별시 노원구,서울특별시 노원구 중계본 58-35,105,,37.6543741,127.0563321
green,쌍문4동(1),공원,서울특별시 도봉구,서울특별시 도봉구 쌍문동 259-6,108,,37.6569194,127.0280233
green,월계현대아파트앞,공원,서울특별시 노원구,서울특별시 노원구 월계1 76-1,108,,37.6543741,127.0563321
green,현대초입,공원,서울특별시 노원구,서울특별시 노원구 상계3동 107-1798,110,,37.6675385,127.0791867
green,목련1,공원,서울특별시 노원구,서울특별시 노원구 하계 167-12,112,,37.6543741,127.0563321
green,산성미소지움앞,공원,서울특별시 노원구,서울특별시 노원구 공릉2 224-18,113,,37.6543741,127.0563321
green,서소문제5지구공원,공원,서울특별시 중구,서울특별시 중구 서소문동 119,117.5,,37.56285,126.9753
green,삼육,공원,서울특별시 관악구,서울특별시 관악구 봉천동 661-118,119,,37.4879683,126.9343051
green,도로개설잔여부휴게공원,공원,서울특별시 도봉구,서울특별시 도봉구 방학1동 725-31,121,,37.6613732,127.0504859
green,샘터어린이공원2,공원,서울특별시 마포구,서울특별시 마포구 중동 36-34,123,,37.569909,126.9067405
green,대조동청사옆마을마당,공원,서울특별시 은평구,서울특별시 은평구 대조 214-8,130.3,,37.60277,126.9289
green,별빛1,공원,서울특별시 노원구,서울특별시 노원구 공릉 690-1,132.5,,37.6543741,127.0563321
green,구산초교앞마을마당,공원,서울특별시 은평구,서울특별시 은평구 구산동 153-2,135,,37.61179,126.91
green,상계5동쌈지마당,공원,서울특별시 노원구,서울특별시 노원구 상계5 167-18,137,,37.6543741,127.0563321
green,오손길마을마당,공원,서울특별시 은평구,서울특별시 은평구 응암동 365-30,139,,37.59187,126.9183
green,학골,공원,서울특별시 도봉구,서울특별시 도봉구 방학동 735-4,149,,37.6617933,127.0367323
green,연천내,공원,서울특별시 노원구,서울특별시 노원구 월계 411-50,152,,37.6543741,127.0563321
green,구산동마을공원확대,공원,서울특별시 은평구,서울특별시 은평구 구산동 345-6,157,,37.6149,126.9078
green,미성2,공원,서울특별시 관악구,서울특별시 관악구 신림동 762-2,159,,37.4771579,126.9137687
green,무수울소공원,공원,서울특별시 도봉구,서울특별시 도봉구 도봉동 470,161,,37.6778347,127.0338156
green,월계2동쌈지(신화연립),공원,서울특별시 노원구,서울특별시 노원구 월계2 912-1,164,,37.6543741,127.0563321
green,자투리(녹번)마을마당,공원,서울특별시 은평구,서울특별시 은평구 녹번 103-23,165,,37.60277,126.9289
green,성사천어린이공원,공원,서울특별시 마포구,서울특별시 마포구 성산동 199-11,166,,37.5653865,126.904871
green,천암공원,공원,서울특별시 강동구,서울특별시 강동구 천호1동 231-14,166,,37.5478482,127.1368943
green,묵동소공원,공원,서울특별시 중랑구,서울특별시 중랑구 묵동 164-26,167,,37.61538,127.0781
green,쌍림동공원,공원,서울특별시 중구,서울특별시 중구 쌍림동 292-2,169,,37.56351,127.0031
green,천호삼거리공원,공원,서울특별시 강동구,서울특별시 강동구 천호1동 21-194,170,,37.5455081,127.1384943
green,신일어린이공원,공원,서울특별시 영등포구,서울특별시 영등포구 신길1동 455-1,173,,37.51006,126.9222
green,신사2동마을마당,공원,서울특별시 은평구,서울특별시 은평구 신사 200-170,175,,37.60277,126.9289
green,장군봉,공원,서울특별시 관악구,서울특별시 관악구 신림동 94-252,175,,37.478117,126.9389901
green,나누리,공원,서울특별시 노원구,서울특별시 노원구 상계5 456-145,178,,37.6543741,127.0563321
green,다우리,공원,서울특별시 노원구,서울특별시 노원구 상계5 430-19,180,,37.6543741,127.0563321
green,쌍문1동,공원,서울특별시 도봉구,서울특별시 도봉구 쌍문동 490-27,180,,37.6545787,127.0163016
green,반달6,공원,서울특별시 동작구,서울특별시 동작구 사당동 233-12,182,,37.4835094,126.9679501
green,후암어린이공원,공원,서울특별시 용산구,서울특별시 용산구 후암동 406-80,182,,37.54721,126.9837
green,서계가로어린이공원,공원,서울특별시 용산구,서울특별시 용산구 서계동 276-7,183,,37.55129,126.9642
green,대조마을마당,공원,서울특별시 은평구,서울특별시 은평구 대조 48-42,183.5,,37.60277,126.9289
green,안골2,공원,서울특별시 중랑구,서울특별시 중랑구 신내1 474-33,184,,37.60674,127.0929
green,미림,공원,서울특별시 관악구,서울특별시 관악구 신림동 254-256,185,,37.4665503,126.9352988
green,천상병공원,공원,서울특별시 노원구,서울특별시 노원구 상계동 996-27,197,,37.674346,127.059159
green,아랫바람,공원,서울특별시 송파구,서울특별시 송파구 풍납동 306-9,198,,37.53235,127.1122
green,열림2,공원,서울특별시 성동구,서울특별시 성동구 성수2가1동 327-3,198,,37.53952,127.0568
green,주민소통공간,공원,서울특별시 노원구,"서울특별시 노원구 상계5동 156-147,16",198,,37.6628638,127.0713445
green,저동2공원,공원,서울특별시 중구,서울특별시 중구 을지로2가 203-4,200,,37.56526,126.9889
green,방학1동,공원,서울특별시 도봉구,서울특별시 도봉구 방학동 265-4,203,,37.6614631,127.037122
green,신사마을마당,공원,서울특별시 은평구,서울특별시 은평구 불광1 247,203,,37.60277,126.9289
green,꽃담길,공원,서울특별시 동작구,서울특별시 동작구 상도동 25-8,206,,37.5054645,126.9420981
green,영락,공원,서울특별시 관악구,서울특별시 관악구 봉천동 1555-16,206,,37.4768265,126.9438021
green,저동1공원,공원,서울특별시 중구,서울특별시 중구 을지로2가 203-1,210,,37.56597,126.9896
green,흰구름1,공원,서울특별시 강북구,서울특별시 강북구 수유2동 252-16,214,,37.6459638,127.020506
green,이화2,공원,서울특별시 중랑구,서울특별시 중랑구 면목3·8 30-38,215,,37.60674,127.0929
green,공평공원,공원,서울특별시 종로구,서울특별시 종로구 인사동 275,219.9,,37.57121,126.9855
green,화랑공원4,공원,서울특별시 강동구,서울특별시 강동구 천호2동 431-2,220,,37.5400435,127.1232244
green,학다리,공원,서울특별시 관악구,서울특별시 관악구 봉천동 647-175,221,,37.4887728,126.9375956
green,오성,공원,서울특별시 관악구,서울특별시 관악구 신림동 655-104,225,,37.4679419,126.9208318
green,역촌동마을마당,공원,서울특별시 은평구,서울특별시 은평구 역촌 2-108,230.1,,37.60277,126.9289
green,비콘과대망사이,공원,서울특별시 노원구,서울특별시 노원구 상계1 1116-120,231,,37.6543741,127.0563321
green,새푸리공원,공원,서울특별시 용산구,서울특별시 용산구 이촌동 399,231,,37.5216,126.9678
green,소방파출소,공원,서울특별시 노원구,서울특별시 노원구 상계2 197-11,233,,37.6543741,127.0563321
green,천일골목공원,공원,서울특별시 강동구,서울특별시 강동구 천호1동 21-192,233,,37.545614,127.1381875
green,자투리(신사)마을마당,공원,서울특별시 은평구,서울특별시 은평구 신사2 300-153,236,,37.60277,126.9289
green,송정4,공원,서울특별시 성동구,서울특별시 성동구 송정동 90-4,236.4,,37.5552,127.0705
green,남일공원,공원,서울특별시 광진구,서울특별시 광진구 군자동 159-1,238,,37.5559834,127.0737137
green,난우1,공원,서울특별시 관악구,서울특별시 관악구 신림동 652-160,241,,37.4664558,126.9218932
green,칸나,공원,서울특별시 동작구,서울특별시 동작구 신대방동 698,241,,37.4855709,126.9046803
green,구로동(다울)소공원,공원,서울특별시 구로구,서울특별시 구로구 구로동 1286-1,243,,37.4925814,126.8883279
green,잿말소공원,공원,서울특별시 은평구,서울특별시 은평구 진관동 195-16,245.1,,37.63694,126.9323
green,본동1,공원,서울특별시 중랑구,서울특별시 중랑구 중화1 131-20,248,,37.60674,127.0929
green,가람어린이공원2,공원,서울특별시 은평구,서울특별시 은평구 불광 448-51,249,,37.60277,126.9289
green,갈현동마을마당,공원,서울특별시 은평구,서울특별시 은평구 갈현 526-6,249.9,,37.60277,126.9289
green,거북이소공원,공원,서울특별시 은평구,서울특별시 은평구 구산동 309-38,250,,37.61815,126.9053
green,노원역역사문화마당,공원,서울특별시 노원구,서울특별시 노원구 상계2동 839-1,250,,37.6560028,127.0639841
green,단군,공원,서울특별시 금천구,서울특별시 금천구 시흥4동 169-21,250,,37.4556929,126.908654
green,동부,공원,서울특별시 성동구,서울특별시 성동구 성수동1가 656-1735,251,,37.54498,127.0474
green,목련4,공원,서울특별시 강서구,서울특별시 강서구 방화동 616-1,251,,37.5649961,126.8078374
green,연주대,공원,서울특별시 관악구,서울특별시 관악구 신림동 231-6,251,,37.4692595,126.9419867
green,개나리4,공원,서울특별시 강서구,서울특별시 강서구 방화동 569-14,252,,37.5731318,126.8122585
green,긴등,공원,서울특별시 강서구,서울특별시 강서구 방화동 247-201,253,,37.5680358,126.8162221
green,성화공원,공원,서울특별시 광진구,서울특별시 광진구 자양4동 199-4,253,,37.5362017,127.0618288
green,문성1,공원,서울특별시 강서구,서울특별시 강서구 방화동 608-112,254,,37.5648836,126.815457
green,상계1,공원,서울특별시 노원구,서울특별시 노원구 상계1 1119-12,254,,37.6543741,127.0563321
green,서달,공원,서울특별시 동작구,서울특별시 동작구 흑석동 339-4,254.8,,37.5011627,126.9599262
green,공작,공원,서울특별시 노원구,서울특별시 노원구 공릉로58나길 14,255,,37.6362663,127.0737604
green,참새3,공원,서울특별시 강서구,서울특별시 강서구 화곡동 56-638,256,,37.5397154,126.847063
green,신창동어린이공원,공원,서울특별시 용산구,서울특별시 용산구 신창동 100,257,,37.53669,126.9541
green,안산1,공원,서울특별시 노원구,서울특별시 노원구 상계5 169-53,258,,37.6543741,127.0563321
green,별님1,공원,서울특별시 동작구,서울특별시 동작구 상도4동 211-415,259,,37.4989305,126.944961
green,달님2,공원,서울특별시 서초구,서울특별시 서초구 방배동 424-30,259.5,,37.48359,126.9864
green,창5동,공원,서울특별시 도봉구,서울특별시 도봉구 창동 700-87,262,,37.6519971,127.0386948
green,배밭골,공원,서울특별시 성북구,서울특별시 성북구 정릉로10길 46,263,,37.6078,126.9987
green,외주목어린이공원,공원,서울특별시 마포구,서울특별시 마포구 성산동 587-18 일대,263,,37.5627106,126.9078078
green,골목어린이공원,공원,서울특별시 구로구,서울특별시 구로구 고척동 224-3,266,,37.5070712,126.8535597
green,팜스퀘어소공원,공원,서울특별시 은평구,서울특별시 은평구 대조동 240-3,268.8,,37.60909,126.9294
green,단풍소공원,공원,서울특별시 마포구,서울특별시 마포구 공덕동 470-3,274,,37.5487244,126.9533356
green,당현,공원,서울특별시 노원구,서울특별시 노원구 중계 154-7,274,,37.6543741,127.0563321
green,동구물어린이공원,공원,서울특별시 서대문구,서울특별시 서대문구 연희동 109-2,275,,37.57136,126.9281
green,대원,공원,서울특별시 강서구,서울특별시 강서구 화곡동 1022,276.9,,37.5448952,126.8359273
green,신당제11구역1공원,공원,서울특별시 중구,서울특별시 중구 신당동 85-549,277,,37.56278,127.0244
green,이태원어린이놀이터,공원,서울특별시 용산구,서울특별시 용산구 이태원동 190-11,278,,37.53567,126.9899
green,남천,공원,서울특별시 송파구,서울특별시 송파구 마천동 344,282.9,,37.50131,127.1527
green,개나리5,공원,서울특별시 강서구,서울특별시 강서구 화곡동75-3,285,,37.5483904,126.8441002
green,두레2,공원,서울특별시 성북구,서울특별시 성북구 길음1동 1284-8,287,,37.60657,127.0177
green,전주동,공원,서울특별시 노원구,서울특별시 노원구 중계 154-9,288,,37.6543741,127.0563321
green,윗바람,공원,서울특별시 송파구,서울특별시 송파구 풍납동 295-4,291,,37.5343,127.1121
green,풍납타이어,공원,서울특별시 송파구,서울특별시 송파구 풍납동 483-4,291,,37.53598,127.1216
green,당곡1,공원,서울특별시 관악구,서울특별시 관악구 봉천동 662-122,294,,37.4887276,126.933582
green,상암곡어린이공원,공원,서울특별시 서대문구,서울특별시 서대문구 홍제동 322-72,294,,37.5829,126.9422
green,샛별9,공원,서울특별시 강서구,서울특별시 강서구 방화동 558,294,,37.5727165,126.8094917
green,양산,공원,서울특별시 관악구,서울특별시 관악구 신림동 395-35,297,,37.473671,126.9325636
green,비계,공원,서울특별시 동작구,서울특별시 동작구 흑석동 335-7,298.4,,37.5054544,126.966404
green,햇살6,공원,서울특별시 성북구,서울특별시 성북구 상월곡동 97-37,300,,37.60592,127.0486
green,당인동문화공원,공원,서울특별시 마포구,서울특별시 마포구 당인동 27-9,301,,37.5453979,126.9201236
green,대치에스케이뷰1소공원,공원,서울특별시 강남구,서울특별시 강남구 대치동 1029-2,302,,37.4957711,127.0594963
green,잔버들,공원,서울특별시 송파구,서울특별시 송파구 거여동 135-46,303,,37.4974,127.1443
green,약수3,공원,서울특별시 관악구,서울특별시 관악구 봉천동 1510-19,304,,37.4740078,126.9622811
green,방학,공원,서울특별시 도봉구,서울특별시 도봉구 방학동 304-20,305,,37.6630901,127.0322499
green,궁마을공원,공원,서울특별시 강남구,서울특별시 강남구 수서동 465-15,306,,37.484855,127.0994121
green,언남,공원,서울특별시 서초구,서울특별시 서초구 염곡동 53-3,306,,37.46385,127.0547
green,응봉새말,공원,서울특별시 성동구,서울특별시 성동구 응봉동 228-23,311,,37.55176,127.0358
green,신흥1,공원,서울특별시 금천구,서울특별시 금천구 시흥4동 4-128,312,,37.4598749,126.9078019
green,서울북부지방검찰청주변녹지,공원,서울특별시 도봉구,서울특별시 도봉구 도봉2동 626-22,314,,37.6756587,127.0465402
green,도봉2동,공원,서울특별시 도봉구,서울특별시 도봉구 도봉동 630-1,316,,37.6768142,127.0490421
green,꽃동네2,공원,서울특별시 도봉구,서울특별시 도봉구 쌍문동 286-32,317,,37.6506245,127.0229719
green,역촌동소공원,공원,서울특별시 은평구,"서울특별시 은평구 역촌동85-34,36",318,,37.59953,126.9155
green,소망9,공원,서울특별시 강북구,서울특별시 강북구 삼양동 791-1467,320,,37.6258195,127.0154233
green,불광동마을마당,공원,서울특별시 은평구,서울특별시 은평구 불광 331-106,324,,37.60277,126.9289
green,평강공원,공원,서울특별시 광진구,서울특별시 광진구 광장동 387-1,325,,37.5480644,127.1006779
green,도레미어린이공원,공원,서울특별시 구로구,서울특별시 구로구 고척동 331-1,326,,37.5080504,126.8523345
green,벼루1,공원,서울특별시 노원구,서울특별시 노원구 광운로1길 24,327,,37.6207797,127.0558394
green,관동어린이공원,공원,서울특별시 은평구,서울특별시 은평구 불광 270-11,331,,37.60277,126.9289
green,샛말1,공원,서울특별시 노원구,서울특별시 노원구 상계동 1116-50,331,,37.6761637,127.057802
green,샛별4,공원,서울특별시 도봉구,서울특별시 도봉구 쌍문동 315-362,331,,37.648063,127.029204
green,수른어린이공원,공원,서울특별시 구로구,서울특별시 구로구 궁동 279-6,332,,37.4979341,126.8296112
green,가린열어린이공원,공원,서울특별시 구로구,서울특별시 구로구 개봉동 458-4,333,,37.500653,126.8542007
green,새싹10,공원,서울특별시 강서구,서울특별시 강서구 방화동 448-5,334,,37.5748312,126.8127976
green,구산동청사앞소공원,공원,서울특별시 은평구,서울특별시 은평구 구산동 27-7,335.9,,37.61148,126.9103
green,이슬,공원,서울특별시 동대문구,서울특별시 동대문구 장안동 190-62,336,,37.5677972,127.0635721
green,노루,공원,서울특별시 동작구,서울특별시 동작구 사당동 316-23,337,,37.4818249,126.9742033
green,마루공원3,공원,서울특별시 중구,서울특별시 중구 다산동 432-1918,337,,37.55118,127.0044
green,사우촌,공원,서울특별시 관악구,서울특별시 관악구 신림동 1555-1,339,,37.4675494,126.9341768
green,장미원,공원,서울특별시 강북구,서울특별시 강북구 수유2동 276-10,340,,37.6464737,127.01574
green,옹달샘3,공원,서울특별시 노원구,서울특별시 노원구 공릉 270-4,341,,37.6543741,127.0563321
green,초록6,공원,서울특별시 송파구,서울특별시 송파구 마천동 360,343.9,,37.49569,127.157
green,샛별11,공원,서울특별시 동작구,서울특별시 동작구 사당동 1144,344.7,,37.4874068,126.9654088
green,태양3,공원,서울특별시 관악구,서울특별시 관악구 신림동 1542-1,345,,37.4684892,126.9364809
green,목화1,공원,서울특별시 관악구,서울특별시 관악구 신림동 1716-1,347,,37.4679017,126.9422998
green,연천초교앞마을마당,공원,서울특별시 은평구,서울특별시 은평구 불광2 137-5,347,,37.60277,126.9289
green,오금어린이공원,공원,서울특별시 구로구,서울특별시 구로구 고척동 57-22,348,,37.5049769,126.8662252
green,돌뫼,공원,서울특별시 성북구,서울특별시 성북구 석관동 산1-77,350,,37.60509,127.0528
green,서마장,공원,서울특별시 성동구,서울특별시 성동구 마장동 450-67,350.3,,37.57167,127.0373
green,이삭,공원,서울특별시 동대문구,서울특별시 동대문구 전농동 675,354.2,,37.5788035,127.0494976
green,능골어린이공원,공원,서울특별시 구로구,서울특별시 구로구 고척동 220-3,357,,37.5068977,126.8542523
green,꾸러기,공원,서울특별시 금천구,서울특별시 금천구 시흥3동 943-16,359.4,,37.4431966,126.9058634
green,의주공원,공원,서울특별시 종로구,서울특별시 종로구 무악동 46-71,364,,37.57383,126.9603
green,섬굴,공원,서울특별시 송파구,서울특별시 송파구 마천동 128-2,368,,37.49689,127.1492
green,절골어린이공원,공원,서울특별시 구로구,서울특별시 구로구 개봉동 312-25,369,,37.4828598,126.8516571
green,해당화,공원,서울특별시 동작구,서울특별시 동작구 신대방동 719-3,374,,37.4868709,126.9059278
green,강변복지공원,공원,서울특별시 용산구,서울특별시 용산구 이촌동 421,377,,37.52112,126.9659
green,중동어린이공원2,공원,서울특별시 마포구,서울특별시 마포구 중동 228,377,,37.5684566,126.9104519
green,인헌,공원,서울특별시 관악구,서울특별시 관악구 봉천동 196-240,379,,37.4753889,126.9625672
green,무너미,공원,서울특별시 강북구,서울특별시 강북구 수유동 281-2,380,,37.6460703,127.0127424
green,원암유치원,공원,서울특별시 노원구,서울특별시 노원구 중계본 90-37,380,,37.6543741,127.0563321
green,기차길옆소공원,공원,서울특별시 서대문구,서울특별시 서대문구 합동 118-1,381.3,,37.56225,126.9653
green,길섶,공원,서울특별시 성북구,서울특별시 성북구 길음1동 1285-10,383,,37.61056,127.0186
green,아래방죽마을공원,공원,서울특별시 강남구,서울특별시 강남구 율현동 194-1,386,,37.4732981,127.1082108
green,구산마을마당,공원,서울특별시 은평구,서울특별시 은평구 구산 산173-23,387,,37.60277,126.9289
green,대협,공원,서울특별시 관악구,서울특별시 관악구 신림동 746-32,391,,37.4748208,126.9133956
green,도덕,공원,서울특별시 관악구,서울특별시 관악구 신림동 241-13,394,,37.4693695,126.9381755
green,파밀리에소공원,공원,서울특별시 영등포구,서울특별시 영등포구 대림1동 1124-3,395,,37.495,126.9034
green,역촌2동마을마당,공원,서울특별시 은평구,서울특별시 은평구 역촌2 62-21,395.7,,37.60277,126.9289
green,(가칭)당산4구역소공원,공원,서울특별시 영등포구,서울특별시 영등포구 당산동4가 99-1,396,,37.52877,126.9037
green,느티나무6,공원,서울특별시 서초구,서울특별시 서초구 염곡동 56-3,396,,37.46386,127.0545
green,새마을공원5,공원,서울특별시 종로구,서울특별시 종로구 평창동 327-1,397,,37.60644,126.9647
green,송정3,공원,서울특별시 강서구,서울특별시 강서구 공항동42-11,397,,37.56067,126.8112906
green,작은언덕,공원,서울특별시 동대문구,서울특별시 동대문구 회기동 351-6,400,,37.5893191,127.0540403
green,행운동,공원,서울특별시 관악구,서울특별시 관악구 봉천동 28-82,401,,37.4833745,126.9597544
green,남가좌동소공원,공원,서울특별시 서대문구,서울특별시 남가좌동 388-7,402,,37.5807597,126.9197149
green,명우공원,공원,서울특별시 강동구,서울특별시 강동구 명일1동 312-206,403,,37.5515489,127.1414804
green,문정동136소공원,공원,서울특별시 송파구,서울특별시 송파구 문정동 123 일대,407.5,,37.48797,127.1333
green,꽃사슴1,공원,서울특별시 노원구,서울특별시 노원구 상계 71-4,410,,37.6543741,127.0563321
green,장미10,공원,서울특별시 동작구,서울특별시 동작구 상도동 380-2,410.5,,37.4936515,126.936045
green,불암초,공원,서울특별시 노원구,서울특별시 노원구 중계본 107-8,412,,37.6543741,127.0563321
green,산성어린이공원,공원,서울특별시 영등포구,서울특별시 영등포구 대림3동 752-60,413,,37.49694,126.9026
green,석계역굴다리,공원,서울특별시 노원구,서울특별시 노원구 월계1 66-11,413,,37.6543741,127.0563321
green,해바라기2,공원,서울특별시 관악구,서울특별시 관악구 신림동 321-5,416,,37.4619992,126.9302202
green,당산역소공원,공원,서울특별시 영등포구,서울특별시 영등포구 당산2동 9-29,417,,37.52126,126.8945
green,동산11,공원,서울특별시 성북구,서울특별시 성북구 하월곡동 96-165,417,,37.6063,127.0345
green,상계5,공원,서울특별시 노원구,서울특별시 노원구 상계5 155-23,417,,37.6543741,127.0563321
green,호박골,공원,서울특별시 관악구,서울특별시 관악구 신림동 1580-22,417,,37.4819725,126.9239429
green,늘푸른공원11,공원,서울특별시 중구,서울특별시 중구 다산동 432-917,423,,37.55109,127.0057
green,장미7,공원,서울특별시 관악구,서울특별시 관악구 봉천동 148-103,423,,37.4791358,126.9624023
green,강북6구역,공원,서울특별시 강북구,서울특별시 강북구 송중동 71-1,424.4,,37.6137628,127.0305449
green,도란도란2,공원,서울특별시 성북구,서울특별시 성북구 석관동 410-4,426,,37.6057,127.0654
green,새뜰근린공원,공원,서울특별시 강남구,서울특별시 강남구 역삼동 765-30,427.6,,37.4966043,127.0510154
green,연지소공원,공원,서울특별시 구로구,서울특별시 구로구 천왕동 7-37,431,,37.4822218,126.8435148
green,한남공원,공원,서울특별시 용산구,서울특별시 용산구 한남동 15-5,432,,37.53725,127.0139
green,아름다운소공원,공원,서울특별시 서대문구,서울특별시 서대문구 홍제동 469-1,441.5,,37.58476,126.9472
green,흑석2,공원,서울특별시 동작구,서울특별시 동작구 흑석동 186-135,442,,37.5091816,126.9578468
green,은천,공원,서울특별시 관악구,서울특별시 관악구 봉천동 635-309,443,,37.4882985,126.9429847
green,송죽2,공원,서울특별시 양천구,서울특별시 양천구 신월5동 65,444.9,,37.53941,126.8339
green,옹달샘4,공원,서울특별시 동작구,서울특별시 동작구 상도동 299-193,445,,37.4951792,126.9296113
green,무쇠막소공원,공원,서울특별시 마포구,서울특별시 마포구 노고산동 123-1일원,449.1,,37.5525806,126.9341666
green,개나리8,공원,서울특별시 동작구,서울특별시 동작구 사당동 1138-1,454,,37.4861928,126.9656857
green,국사봉,공원,서울특별시 관악구,서울특별시 관악구 봉천동 1511-5,454,,37.4899936,126.9340841
green,간촌,공원,서울특별시 노원구,서울특별시 노원구 상계5 154-3,455,,37.6543741,127.0563321
green,돌무데기놀이터,공원,서울특별시 송파구,서울특별시 송파구 마천동 277-52,455,,37.49204,127.1572
green,서광3,공원,서울특별시 관악구,서울특별시 관악구 신림동 98-402,459,,37.4752036,126.942683
green,응봉개나리,공원,서울특별시 성동구,서울특별시 성동구 응봉동 270,462,,37.54846,127.0319
green,한강대로공원,공원,서울특별시 용산구,서울특별시 용산구 한강로3가 65-587,466,,37.5241,126.9636
green,동산10,공원,서울특별시 동작구,서울특별시 동작구 사당동 1000,466.1,,37.4793803,126.9697481
green,쟁골공원1,공원,서울특별시 강남구,서울특별시 강남구 자곡동 233-2,468,,37.4819379,127.1020816
green,독서당공원,공원,서울특별시 용산구,서울특별시 용산구 한남동 1-32,469,,37.5345,127.0125
green,신록어린이공원,공원,서울특별시 은평구,서울특별시 은평구 녹번 20-6,469,,37.60277,126.9289
green,옥인공원,공원,서울특별시 종로구,서울특별시 종로구 옥인동 187-2,472.1,,37.58234,126.9624
green,연지1공원,공원,서울특별시 종로구,서울특별시 종로구 연지동 136-92,474.2,,37.57417,127.001
green,온수어린이공원,공원,서울특별시 구로구,서울특별시 구로구 온수동 73-5,475,,37.4947068,126.8176972
green,빨래골,공원,서울특별시 강북구,서울특별시 강북구 수유1동 475-115,476,,37.6294551,127.0148769
green,한라,공원,서울특별시 관악구,서울특별시 관악구 신림동 750-39,479,,37.4756711,126.9147399
green,새싹어린이공원8,공원,서울특별시 용산구,서울특별시 용산구 이촌2동 206-1,480,,37.52693,126.9545
green,대치에스케이뷰2소공원,공원,서울특별시 강남구,서울특별시 강남구 대치동 1029-3,481,,37.4960661,127.0614716
green,잔월,공원,서울특별시 성북구,서울특별시 성북구 하월곡동 230-1,481,,37.60408,127.0315
green,장미11,공원,서울특별시 성동구,서울특별시 성동구 송정동 107,485.4,,37.55228,127.0689
green,신정,공원,서울특별시 양천구,서울특별시 양천구 신정2동 128-198,487,,37.52048,126.8748
green,"우체국옆(엠코,태릉입구5번출구)",공원,서울특별시 노원구,서울특별시 노원구 공릉1동 670-20외,487.7,,37.6185547,127.0764042
green,도봉1동(1),공원,서울특별시 도봉구,서울특별시 도봉구 도봉동 282-275,489,,37.6875129,127.0428057
green,소담공원5,공원,서울특별시 종로구,서울특별시 종로구 행촌동 211-4,491.4,,37.57218,126.9617
green,자양공원,공원,서울특별시 광진구,서울특별시 광진구 자양3동 792-1,494.8,,37.533598,127.0698382
green,불광어린이공원,공원,서울특별시 은평구,서울특별시 은평구 불광 236-5,496,,37.60277,126.9289
green,사근,공원,서울특별시 성동구,서울특별시 성동구 사근동 291-10,496,,37.56343,127.0476
green,새벽,공원,서울특별시 동작구,서울특별시 동작구 상도동 335-141,496,,37.500726,126.9301994
green,효봉,공원,서울특별시 금천구,서울특별시 금천구 시흥4동 4-28,503,,37.4606747,126.9104918
green,다솜3,공원,서울특별시 강서구,서울특별시 강서구 공항동 4,511,,37.5620835,126.8156711
green,신라,공원,서울특별시 관악구,서울특별시 관악구 신림동 744-1,514,,37.4735882,126.912622
green,내길,공원,서울특별시 동대문구,서울특별시 동대문구 휘경동 368-4,514.9,,37.5903173,127.0651017
green,소막골어린이공원,공원,서울특별시 구로구,서울특별시 구로구 개봉동 271-17,516,,37.4885248,126.8523167
green,응암3동마을마당,공원,서울특별시 은평구,서울특별시 은평구 응암3동 337-52,518,,37.58891,126.9196
green,효창어린이공원,공원,서울특별시 용산구,서울특별시 용산구 효창동 5-712,525,,37.54281,126.9586
green,호연어린이공원,공원,서울특별시 은평구,서울특별시 은평구 녹번동 95-44,528,,37.6055044,126.930999
green,환경어린이공원,공원,서울특별시 구로구,서울특별시 구로구 구로동 797-1,528,,37.4850225,126.8884174
green,모랫재어린이공원,공원,서울특별시 서대문구,서울특별시 서대문구 홍제동 156-363,529,,37.58299,126.9447
green,뒤뜰어린이공원,공원,서울특별시 마포구,서울특별시 마포구 성산동 588-8,530,,37.5632115,126.9093625
green,약수4,공원,서울특별시 관악구,서울특별시 관악구 신림동 1685,533,,37.4731724,126.9124698
green,산새2,공원,서울특별시 강서구,서울특별시 강서구 화곡동 772,539,,37.5462805,126.8504133
green,구현초교앞마을마당,공원,서울특별시 은평구,서울특별시 은평구 구산동 산41-19,541,,37.60936,126.9066
green,고명공원,공원,서울특별시 강동구,서울특별시 강동구 명일1동 312-30,545,,37.5525087,127.1433708
green,청탑공원,공원,서울특별시 용산구,서울특별시 용산구 이촌동 425,546,,37.5178,126.9774
green,명성공원1,공원,서울특별시 광진구,서울특별시 광진구 구의1동 249-25,548.4,,37.5414428,127.0867258
green,모슬,공원,서울특별시 송파구,서울특별시 송파구 거여동 28-7,550,,37.49241,127.1455
green,봉선화,공원,서울특별시 강서구,서울특별시 강서구 방화동 645-13,552,,37.5665377,126.8070318
green,원터2,공원,서울특별시 서초구,서울특별시 서초구 원지동 419-7,553,,37.44362,127.0552
green,남현,공원,서울특별시 관악구,서울특별시 관악구 남현동 602-333,554,,37.4718751,126.9812355
green,도곡햇살공원,공원,서울특별시 강남구,서울특별시 강남구 도곡동 538-4,558.5,,37.4957512,127.0524963
green,망원새싹어린이공원,공원,서울특별시 마포구,서울특별시 마포구 망원2동 509-1,559,,37.5590743,126.8985233
green,무궁화5,공원,서울특별시 노원구,서울특별시 노원구 상계 135-77,561,,37.6543741,127.0563321
green,월계2동쌈지(신우빌라),공원,서울특별시 노원구,서울특별시 노원구 월계2 877-4,561,,37.6543741,127.0563321
green,아현역소공원,공원,서울특별시 서대문구,서울특별시 서대문구 북아현동136-3,563,,37.55772,126.956
green,양지마을마당,공원,서울특별시 노원구,서울특별시 노원구 중계1 580-2,563.7,,37.6543741,127.0563321
green,미래3,공원,서울특별시 강북구,서울특별시 강북구 삼양동 791-1712,564,,37.6246224,127.0144988
green,나비2,공원,서울특별시 동작구,서울특별시 동작구 상도동 535-3,564.1,,37.5032966,126.9435085
green,꿈나무5,공원,서울특별시 금천구,서울특별시 금천구 독산2동 378-434,567,,37.4635519,126.9049564
green,양지9,공원,서울특별시 동작구,서울특별시 동작구 사당동 316-37,568,,37.479886,126.974015
green,무교1공원,공원,서울특별시 중구,서울특별시 중구 무교동 97-2,570,,37.56839,126.9791
green,역삼미소공원,공원,서울특별시 강남구,서울특별시 강남구 역삼동 711-5,576,,37.5014224,127.0439876
green,신창,공원,서울특별시 도봉구,서울특별시 도봉구 창동 449-103,579,,37.6400579,127.0408428
green,다래어린이공원,공원,서울특별시 은평구,서울특별시 은평구 응암동751-22,584.9,,37.58714,126.919
green,쌍문2동,공원,서울특별시 도봉구,서울특별시 도봉구 쌍문동 69-59,585,,37.6553264,127.0348326
green,한사랑,공원,서울특별시 금천구,서울특별시 금천구 독산4동 925-2,585.9,,37.46772,126.9045565
green,천호큰골목공원,공원,서울특별시 강동구,서울특별시 강동구 천호1동 21-197,586,,37.5450582,127.1385787
green,민들레2,공원,서울특별시 강서구,서울특별시 강서구 방화동 648-13,589,,37.5672557,126.8067487
green,거여3(거마재정비),공원,서울특별시 송파구,서울특별시 송파구 마천동 363-2 일대,591,,37.4949,127.1555
green,햇님1,공원,서울특별시 중랑구,서울특별시 중랑구 망우동 3 474-11,593,,37.5995683,127.10631
green,다람쥐어린이공원2,공원,서울특별시 서대문구,서울특별시 서대문구 연희동 151-49,595,,37.57608,126.9344
green,탑골3,공원,서울특별시 관악구,서울특별시 관악구 봉천동 1510,597,,37.4744479,126.9610992
green,밤골2,공원,서울특별시 성북구,서울특별시 성북구 하월곡동 산2-140,600,,37.60773,127.0396
green,다솜소공원,공원,서울특별시 강남구,서울특별시 강남구 역삼동 763-18,604.1,,37.4957774,127.0479046
green,한전변전소자투리땅휴게공원,공원,서울특별시 도봉구,서울특별시 도봉구 쌍문3동 346-3,606,,37.6482147,127.0268336
green,대치청실아파트소공원2,공원,서울특별시 강남구,서울특별시 강남구 대치동 610,610,,37.4950435,127.0609077
green,거여6(거마재정비),공원,서울특별시 송파구,서울특별시 송파구 마천동 586 일대,612,,37.49754,127.1548
green,아현새싹소공원,공원,서울특별시 마포구,서울특별시 마포구 아현동 786,613,,37.5518426,126.9544124
green,꿈동산9,공원,서울특별시 동작구,서울특별시 동작구 상도동 426,613.8,,37.5033475,126.9542861
green,바람산어린이공원,공원,서울특별시 서대문구,서울특별시 서대문구 창천동 4-54,627.1,,37.55828,126.9402
green,연지2,공원,서울특별시 강서구,서울특별시 강서구 화곡동1109,629.1,,37.5546969,126.8532719
green,방학동공원,공원,서울특별시 도봉구,서울특별시 도봉구 방학1동 714-15,631,,37.6644683,127.0454706
green,긴고랑공원,공원,서울특별시 광진구,서울특별시 광진구 중곡4동 68-19,633,,37.5589649,127.0909715
green,응암1동마을마당,공원,서울특별시 은평구,서울특별시 은평구 응암 97-17,635.3,,37.60277,126.9289
green,성메어린이공원,공원,서울특별시 마포구,서울특별시 마포구 성산동 667-1,640,,37.5681092,126.9148038
green,군자공원,공원,서울특별시 광진구,서울특별시 광진구 군자동 115-1,642,,37.554382,127.0728734
green,늘푸른3,공원,서울특별시 강북구,서울특별시 강북구 삼양동 797-9,646,,37.6254406,127.0196878
green,물방울2,공원,서울특별시 도봉구,서울특별시 도봉구 창동 458-6,646,,37.6375657,127.0412828
green,용담,공원,서울특별시 관악구,서울특별시 관악구 봉천동 850-8,646,,37.4755,126.9435833
green,역삼나들이소공원,공원,서울특별시 강남구,서울특별시 강남구 역삼동 716-5,650,,37.5007266,127.0504543
green,새싹3,공원,서울특별시 강북구,서울특별시 강북구 수유3동 134-40,651,,37.636108,127.019593
green,봉천,공원,서울특별시 관악구,서울특별시 관악구 봉천동 1707-2,652,,37.4692516,126.9644947
green,개웅소공원,공원,서울특별시 구로구,서울특별시 구로구 개봉동 345-14,657,,37.4880978,126.8547431
green,시내어린이공원,공원,서울특별시 은평구,서울특별시 은평구 불광 444-15,659,,37.60277,126.9289
green,낙산공원2,공원,서울특별시 종로구,서울특별시 종로구 창신동 611-19,660,,37.57965,127.0102
green,무궁화3,공원,서울특별시 관악구,서울특별시 관악구 신림동 645-1,660,,37.4696699,126.9235767
green,연희어린이공원,공원,서울특별시 서대문구,서울특별시 서대문구 연희동 446-182,661,,37.56775,126.9215
green,청암,공원,서울특별시 강북구,서울특별시 강북구 삼양동 776-17,661,,37.6241039,127.0171452
green,양명,공원,서울특별시 양천구,서울특별시 양천구 신정1동 1050-3,667.4,,37.51926,126.8545
green,무궁화소공원3,공원,서울특별시 서대문구,서울특별시 서대문구 홍제동 451-1,672,,37.58491,126.9402
green,은행나무터,공원,서울특별시 성동구,서울특별시 성동구 성수동2가 316-9,675.4,,37.54372,127.0535
green,산장,공원,서울특별시 금천구,서울특별시 금천구 시흥4동 3-17,678,,37.4609096,126.9125231
green,도장골,공원,서울특별시 성동구,서울특별시 성동구 행당동 346-2,678.3,,37.55471,127.0271
green,반달근린공원,공원,서울특별시 강남구,서울특별시 강남구 삼성동 7-4,679.3,,37.5162266,127.0428712
green,으뜸1,공원,서울특별시 강북구,서울특별시 강북구 미아동 309-43,681,,37.6236917,127.0261112
green,난곡,공원,서울특별시 관악구,서울특별시 관악구 신림동 1563-56,695,,37.4740994,126.915294
green,들꽃,공원,서울특별시 강서구,서울특별시 강서구 방화동 890-1,705,,37.5706087,126.8212188
green,복자기소공원,공원,서울특별시 마포구,서울특별시 마포구 신수동 460,707,,37.545917,126.9366153
green,백석3,공원,서울특별시 양천구,서울특별시 양천구 목3동 646-23,708.4,,37.54522,126.865
green,창신공원2,공원,서울특별시 종로구,서울특별시 종로구 창신동 23-362,710,,37.57804,127.013
green,연신초교옆마을마당,공원,서울특별시 은평구,서울특별시 은평구 불광3동 69,711,,37.62682,126.9288
green,옥정,공원,서울특별시 성동구,서울특별시 성동구 옥수동 562-1,711.76,,37.54579,127.0153
green,동자어린이공원,공원,서울특별시 용산구,서울특별시 용산구 동자동 24-11,712,,37.55011,126.9738
green,진달래공원5,공원,서울특별시 중구,서울특별시 중구 정동 1-73,713,,37.56788,126.9748
green,산사나무소공원,공원,서울특별시 마포구,서울특별시 마포구 상암동 1618-1,714,,37.5752811,126.8963034
green,꿈빛3,공원,서울특별시 성북구,서울특별시 성북구 정릉동 1039,719,,37.60224,127.0116
green,현화소공원,공원,서울특별시 구로구,서울특별시 구로구 고척동 342-1,720,,37.5042691,126.8600945
green,이음소공원,공원,서울특별시 영등포구,서울특별시 영등포구 당산동4가 1-4,732,,37.52766,126.9026
green,방학3동가로공원,공원,서울특별시 도봉구,서울특별시 도봉구 방학3동 443,735,,37.6634213,127.0275985
green,오구,공원,서울특별시 양천구,서울특별시 양천구 신정4동 888-1,738.4,,37.52732,126.862
green,용머리2,공원,서울특별시 동대문구,서울특별시 동대문구 용두동 696-8,738.5,,37.5727699,127.036567
green,꼭지,공원,서울특별시 강북구,서울특별시 강북구 삼각산동 811-7,746,,37.6187984,127.0173283
green,홍은3소공원,공원,서울특별시 서대문구,서울특별시 서대문구 홍은동 산1-549,747,,37.59965,126.9434
green,못골공원,공원,서울특별시 강남구,서울특별시 강남구 자곡동 447-23,749,,37.4735884,127.1001578
green,갈월,공원,서울특별시 노원구,서울특별시 노원구 덕릉로 126가길,751,,37.6703174,127.0842873
green,녹번동마을마당,공원,서울특별시 은평구,서울특별시 은평구 녹번동 104-7,754,,37.60611,126.9276
green,거여2,공원,서울특별시 송파구,서울특별시 송파구 거여동 593-1,756.6,,37.49266,127.1428
green,국화원,공원,서울특별시 동작구,서울특별시 동작구 상도동 529-1 상도두산위브아파트,757,,37.5049109,126.9436667
green,꿈돌이2,공원,서울특별시 동작구,서울특별시 동작구 사당동 300-26,761,,37.4803375,126.9699837
green,월계롯데캐슬옆,공원,서울특별시 노원구,서울특별시 노원구 월계2동 865-5,764,,37.6253176,127.0498119
green,한마음어린이공원3,공원,서울특별시 마포구,서울특별시 마포구 망원동 381-1,770,,37.5545675,126.9080511
green,잔다리어린이공원,공원,서울특별시 마포구,서울특별시 마포구 서교동 479-1,774,,37.5546023,126.9127927
green,중동소어린이공원,공원,서울특별시 마포구,서울특별시 마포구 중동 36-27,779,,37.5706734,126.9065821
green,새싹12,공원,서울특별시 동작구,서울특별시 동작구 사당동 316-33,780,,37.4799596,126.9731547
green,신사동(새절)소공원,공원,서울특별시 은평구,서울특별시 은평구 신사동372-1,782.6,,37.59855,126.9079
green,마장2,공원,서울특별시 양천구,서울특별시 양천구 목4동 791-22,785.4,,37.53351,126.8647
green,구둘공원,공원,서울특별시 광진구,서울특별시 광진구 구의2동 60-8,788.1,,37.5482339,127.0922108
green,창동공원,공원,서울특별시 도봉구,서울특별시 도봉구 창4동 181-38,792,,37.6601606,127.0453671
green,쌍문4동(2),공원,서울특별시 도봉구,서울특별시 도봉구 쌍문동 245-2,793,,37.6590424,127.0286984
green,해담는어린이공원,공원,서울특별시 서대문구,서울특별시 서대문구 북가좌동 325-20,793,,37.58242,126.9105
green,청송,공원,서울특별시 성동구,서울특별시 성동구 성수동2가 277-23,798.7,,37.54551,127.0585
green,노원골만남의광장,공원,서울특별시 노원구,서울특별시 노원구 상계1 1001,800,,37.6543741,127.0563321
green,아크로힐스소공원,공원,서울특별시 강남구,서울특별시 강남구 논현동 276-2,800,,37.5100006,127.0395687
green,언덕배기공원,공원,서울특별시 광진구,서울특별시 광진구 자양2동 686-52,800.4,,37.5320177,127.0878704
green,삼각지어린이공원,공원,서울특별시 용산구,서울특별시 용산구 용산동3가 1-96,803,,37.53443,126.9754
green,요산소공원,공원,서울특별시 은평구,서울특별시 은평구 불광동 13-33외 3,805,,37.61838,126.9329
green,불광3동마을숲마을마당,공원,서울특별시 은평구,서울특별시 은평구 불광3 480-181,807,,37.60277,126.9289
green,송월,공원,서울특별시 강북구,서울특별시 강북구 송중동 92-7,807,,37.6163706,127.0321081
green,호돌이1,공원,서울특별시 강서구,서울특별시 강서구 화곡동 906-26,811.6,,37.5282263,126.8460406
green,교체,공원,서울특별시 관악구,서울특별시 관악구 봉천동 196-193,813,,37.4733024,126.9640431
green,소곶네,공원,서울특별시 노원구,서울특별시 노원구 월계 411-47,814,,37.6543741,127.0563321
green,토끼,공원,서울특별시 동작구,서울특별시 동작구 사당동 1000-13,821.7,,37.4781226,126.9701837
green,빙수골,공원,서울특별시 동작구,서울특별시 동작구 상도동 296-6,822,,37.4966895,126.9322134
green,보람3,공원,서울특별시 성동구,서울특별시 성동구 마장동 827,823.3,,37.56616,127.0387
green,봉화,공원,서울특별시 중랑구,서울특별시 중랑구 중화2 302-57,825,,37.60674,127.0929
green,상계10,공원,서울특별시 노원구,서울특별시 노원구 상계10 675,825.2,,37.6543741,127.0563321
green,약초원공원2,공원,서울특별시 광진구,서울특별시 광진구 자양4동 74-21,826,,37.5329401,127.0663955
green,도렴공원,공원,서울특별시 종로구,서울특별시 종로구 신문로1가 240-2,832.8,,37.57087,126.9739
green,구름,공원,서울특별시 강서구,서울특별시 강서구 화곡동 98-22,833,,37.5433259,126.8440313
green,미리내6,공원,서울특별시 동대문구,서울특별시 동대문구 장안동 93-29,833,,37.5808273,127.0716964
green,금남1,공원,서울특별시 성동구,서울특별시 성동구 금호동3가 701,834,,37.54928,127.0217
green,세일1,공원,서울특별시 강북구,서울특별시 강북구 미아동 159-71,839.7,,37.6338483,127.0252649
green,새싹13,공원,서울특별시 서초구,서울특별시 서초구 서초동 1686-10,840,,37.49752,127.0183
green,해오름공원8,공원,서울특별시 광진구,서울특별시 광진구 중곡4동 100-16,840,,37.5568288,127.0920726
green,문배어린이공원,공원,서울특별시 용산구,서울특별시 용산구 문배동 24-1,842,,37.53662,126.9698
green,종열,공원,서울특별시 서초구,서울특별시 서초구 양재동 103-4,847.8,,37.47404,127.0337
green,신화,공원,서울특별시 관악구,서울특별시 관악구 신림동 408-10,850,,37.4767085,126.9356748
green,청룡4,공원,서울특별시 관악구,서울특별시 관악구 봉천동 1557-34,853,,37.4776549,126.9447401
green,능안2,공원,서울특별시 강서구,서울특별시 강서구 등촌동 517-1,853.9,,37.5464912,126.860063
green,무수골소공원,공원,서울특별시 도봉구,서울특별시 도봉구 도봉동 429-3,854,,37.6787112,127.0396312
green,묵1동소공원,공원,서울특별시 중랑구,서울특별시 중랑구 묵동 396-2,854,,37.61469,127.0825
green,박석어린이공원,공원,서울특별시 은평구,서울특별시 은평구 갈현 416-3,856.9,,37.60277,126.9289
green,월계,공원,서울특별시 노원구,서울특별시 노원구 월계동 429-44,858,,37.6203988,127.0611796
green,샛강,공원,서울특별시 강북구,서울특별시 강북구 번1동 472-44,858.2,,37.6395163,127.0329863
green,세모꼴공원,공원,서울특별시 광진구,서울특별시 광진구 자양1동 859-1,862,,37.5383754,127.0815808
green,힐링숲,공원,서울특별시 노원구,서울특별시 노원구 상계5 441-3,862,,37.66156615,127.0676569
green,아리수,공원,서울특별시 강서구,서울특별시 강서구 염창동 299-3,862.5,,37.551701,126.8752844
green,아래반고개공원,공원,서울특별시 강남구,서울특별시 강남구 세곡동 129-13,863,,37.4638917,127.107113
green,예솔,공원,서울특별시 강서구,서울특별시 강서구 마곡동 397-1,864,,37.5635511,126.8227675
green,은행4,공원,서울특별시 금천구,서울특별시 금천구 시흥5동 836,865,,37.4521005,126.9069995
green,응달마을,공원,서울특별시 강북구,서울특별시 강북구 송천동 707-73,866,,37.6184601,127.0243444
green,이태원마을숲,공원,서울특별시 용산구,서울특별시 용산구 이태원2동 260-87,867,,37.54126,126.9915
green,햇살7,공원,서울특별시 중랑구,서울특별시 중랑구 면목동 2 137-14,867,,37.5823374,127.089191
green,보등골,공원,서울특별시 강북구,서울특별시 강북구 인수동 605-209,869,,37.6350617,127.0183831
green,덕수공원,공원,서울특별시 종로구,서울특별시 종로구 신문로1가 174-7,869.2,,37.56928,126.9748
green,방학3동,공원,서울특별시 도봉구,서울특별시 도봉구 방학동 306-24,874,,37.6633088,127.0292548
green,새빛3,공원,서울특별시 관악구,서울특별시 관악구 신사로10길 29,875,,37.48635,126.9152
green,해님4,공원,서울특별시 동작구,서울특별시 동작구 상도1동 424,876,,37.5015996,126.9512569
green,돌마루,공원,서울특별시 성북구,서울특별시 성북구 삼선동3가 116-1,877,,37.58829,127.0124
green,등서,공원,서울특별시 강서구,서울특별시 강서구 등촌동 639-2,879.7,,37.5591611,126.8546183
green,응암9구역소공원,공원,서울특별시 은평구,서울특별시 은평구 응암동 761-7,880.8,,37.58764,126.9257
green,만리재소공원,공원,서울특별시 마포구,서울특별시 마포구 신공덕동 176,883,,37.544443,126.9551948
green,남문,공원,서울특별시 금천구,서울특별시 금천구 독산3동 160-6,883.6,,37.4723212,126.9003403
green,궁말어린이공원1,공원,서울특별시 서대문구,서울특별시 서대문구 연희동 86-3,886.9,,37.57108,126.9336
green,비상공원,공원,서울특별시 용산구,서울특별시 용산구 이촌동 417,889,,37.52234,126.9714
green,오류동소공원,공원,서울특별시 구로구,서울특별시 구로구 오류동 332-36,895,,37.4934888,126.8430131
green,도곡단비소공원,공원,서울특별시 강남구,서울특별시 강남구 도곡동 539-6,896.5,,37.4939247,127.0472156
green,한마음공원11,공원,서울특별시 광진구,서울특별시 광진구 중곡2동 51-6,897.8,,37.5595869,127.0840143
green,쌍둥이어린이공원,공원,서울특별시 마포구,서울특별시 마포구 성산동 200-335,905,,37.5657462,126.9067447
green,마장1,공원,서울특별시 성동구,서울특별시 성동구 마장동 399-102,911,,37.56218,127.0413
green,희망어린이공원5,공원,서울특별시 구로구,서울특별시 구로구 구로동 745-74,911,,37.486975,126.8862061
green,발음,공원,서울특별시 강서구,서울특별시 강서구 내발산동 697,913.6,,37.5522114,126.8331766
green,산마루공원2,공원,서울특별시 광진구,서울특별시 광진구 구의2동 560-5,917,,37.555059,127.0951047
green,은모루,공원,서울특별시 강북구,서울특별시 강북구 수유3동 172-209,918,,37.6423939,127.0268189
green,늘푸른9,공원,서울특별시 송파구,서울특별시 송파구 마천동 578,921,,37.49861,127.1557
green,무지개17,공원,서울특별시 도봉구,서울특별시 도봉구 도봉동 570-13,921,,37.6856477,127.0450179
green,서원1,공원,서울특별시 도봉구,서울특별시 도봉구 도봉동 576-13,921,,37.6838318,127.0433065
green,휴암어린이공원,공원,서울특별시 마포구,서울특별시 마포구 상암동 14-5,921,,37.5771135,126.895699
green,남성,공원,서울특별시 동작구,서울특별시 동작구 사당동 1131-17(영아),924.1,,37.4849605,126.9721251
green,돌다리1,공원,서울특별시 양천구,서울특별시 양천구 신월1동 119,925.1,,37.53204,126.8358
green,까치5,공원,서울특별시 금천구,서울특별시 금천구 시흥3동 959-2,925.3,,37.4396115,126.9050002
green,군아파트,공원,서울특별시 관악구,서울특별시 관악구 남현동 602-143,926,,37.4718372,126.978941
green,방아다리2,공원,서울특별시 양천구,서울특별시 양천구 신월5동 56-1,927.3,,37.53868,126.8284
green,박장,공원,서울특별시 강서구,서울특별시 강서구 화곡동 56-25,929,,37.5407354,126.8490953
green,신오,공원,서울특별시 양천구,서울특별시 양천구 신월5동 73-2,932.4,,37.53821,126.8316
green,푸른동산공원,공원,서울특별시 광진구,서울특별시 광진구 구의3동 227-13,933.2,,37.5428731,127.0910877
green,구룡2,공원,서울특별시 금천구,서울특별시 금천구 독산3동 964,934.9,,37.4778941,126.9027573
green,윗방죽마을공원,공원,서울특별시 강남구,서울특별시 강남구 율현동 308-29,935,,37.4702889,127.1046855
green,동덕,공원,서울특별시 서초구,서울특별시 서초구 방배동 593-43,936,,37.47556,126.9937
green,한아름공원2,공원,서울특별시 광진구,서울특별시 광진구 화양동 12-55,936.2,,37.5444072,127.0705527
green,샘말공원1,공원,서울특별시 노원구,서울특별시 노원구 공릉1 517-11,937.4,,37.6543741,127.0563321
green,신흥어린이공원,공원,서울특별시 은평구,서울특별시 은평구 신사 31-2,937.9,,37.60277,126.9289
green,느티나무4,공원,서울특별시 금천구,서울특별시 금천구 시흥4동 817,939.2,,37.4561797,126.9067254
green,백합4,공원,서울특별시 강서구,서울특별시 강서구 염창동 267-24,939.3,,37.5511497,126.8694531
green,불광위령탑마을마당,공원,서울특별시 은평구,서울특별시 은평구 불광1 247-4,940,,37.60277,126.9289
green,진주,공원,서울특별시 양천구,서울특별시 양천구 신정4동 920-3,940.5,,37.52656,126.8551
green,소나무2,공원,서울특별시 강서구,서울특별시 강서구 화곡동 29-31,942,,37.5470754,126.8478436
green,중화리,공원,서울특별시 중랑구,서울특별시 중랑구 중화1 280-16,942,,37.60674,127.0929
green,큰길어린이공원,공원,서울특별시 마포구,서울특별시 마포구 성산동 200-50,942,,37.5677242,126.9082213
green,부장천,공원,서울특별시 금천구,서울특별시 금천구 시흥1동 893,944,,37.4531372,126.9041363
green,곰달래1,공원,서울특별시 양천구,서울특별시 양천구 신월1동 234-11외 4,945.1,,37.52874,126.8379
green,청룡3,공원,서울특별시 서초구,서울특별시 서초구 반포동 86-1,945.1,,37.49588,126.9997
green,대무,공원,서울특별시 강서구,서울특별시 강서구 화곡동409-84,946,,37.5380986,126.8475857
green,초롱4,공원,서울특별시 강서구,서울특별시 강서구 화곡동1088-16,946,,37.5380865,126.8362369
green,반곡,공원,서울특별시 양천구,서울특별시 양천구 신월1동 230-1,946.7,,37.5292,126.8355
green,사도감,공원,서울특별시 서초구,서울특별시 서초구 서초동 1359-12,946.7,,37.48574,127.0313
green,송록,공원,서울특별시 금천구,서울특별시 금천구 시흥4동 791-35,947.1,,37.4612921,126.906131
green,아랫말2,공원,서울특별시 양천구,서울특별시 양천구 신정4동 990-1,947.7,,37.52505,126.8619
green,별빛누리,공원,서울특별시 성북구,서울특별시 성북구 정릉동 1053-2,949,,37.60763,127.0162
green,역마을어린이공원,공원,서울특별시 은평구,서울특별시 은평구 역촌 39-2,949.1,,37.60277,126.9289
green,샛별3,공원,서울특별시 중랑구,서울특별시 중랑구 망우3 416-1,950,,37.60674,127.0929
green,일신,공원,서울특별시 성북구,서울특별시 성북구 종암동 134-8,950,,37.59999,127.0396
green,용강소공원,공원,서울특별시 마포구,서울특별시 마포구 용강동 507,951,,37.5430219,126.9403115
green,색동3,공원,서울특별시 관악구,서울특별시 관악구 신림동 1418-1,952,,37.4864578,126.9326757
green,돌곶이,공원,서울특별시 노원구,서울특별시 노원구 광운로 20,954,,37.6195584,127.0597402
green,참다래어린이공원,공원,서울특별시 은평구,서울특별시 은평구 응암 120-22,954.4,,37.60277,126.9289
green,새록어린이공원,공원,서울특별시 은평구,서울특별시 은평구 녹번 158-1,956,,37.60277,126.9289
green,연서어린이공원2,공원,서울특별시 은평구,서울특별시 은평구 역촌 32-36,956,,37.60277,126.9289
green,논현까치공원,공원,서울특별시 강남구,서울특별시 강남구 논현동 162-11,956.7,,37.5085124,127.0250986
green,옛시장,공원,서울특별시 성북구,서울특별시 성북구 종암동 135-4,958,,37.60238,127.0339
green,주흥,공원,서울특별시 서초구,서울특별시 서초구 잠원동 33-6,959.2,,37.51218,127.0167
green,해오라기,공원,서울특별시 노원구,서울특별시 노원구 공릉동 503-17,959.7,,37.6254583,127.076305
green,개나리7,공원,서울특별시 도봉구,서울특별시 도봉구 방학동 638-12,960,,37.6673289,127.0371369
green,난우2,공원,서울특별시 관악구,서울특별시 관악구 난곡로61길 1,960,,37.48041,126.914
green,소귀,공원,서울특별시 강북구,서울특별시 강북구 수유3동 25-1,961,,37.6385782,127.0186768
green,새뚝,공원,서울특별시 양천구,서울특별시 양천구 신정4동 955-1,961.3,,37.52411,126.8578
green,해태,공원,서울특별시 도봉구,서울특별시 도봉구 도봉동 614-37,962,,37.6720112,127.0411912
green,해태2,공원,서울특별시 금천구,서울특별시 금천구 시흥1동 871-24,962.6,,37.4577744,126.9018532
green,까치산4,공원,서울특별시 관악구,서울특별시 관악구 봉천동 1728-2,964,,37.4831277,126.9603797
green,한글1,공원,서울특별시 강서구,서울특별시 강서구 화곡동 56-3,965,,37.5385236,126.8505098
green,홍연어린이공원,공원,서울특별시 서대문구,서울특별시 서대문구 홍은동 408-4,965.1,,37.58011,126.9268
green,역말어린이공원,공원,서울특별시 은평구,서울특별시 은평구 역촌 47-1,966.3,,37.60277,126.9289
green,미리내5,공원,서울특별시 강서구,서울특별시 강서구 화곡동 1008-32,967.5,,37.5476859,126.8347636
green,장안1,공원,서울특별시 서초구,서울특별시 서초구 서초동 1556-5,969,,37.49168,127.0115
green,새말6,공원,서울특별시 강서구,서울특별시 강서구 화곡동994-5,969.6,,37.5519357,126.8463768
green,사슴1,공원,서울특별시 도봉구,서울특별시 도봉구 방학동 681-13,970,,37.664447,127.0417305
green,생잇들,공원,서울특별시 도봉구,서울특별시 도봉구 방학동 644-28,970,,37.6689673,127.0391674
green,등마루2,공원,서울특별시 강서구,서울특별시 강서구 등촌동 641-5,970.9,,37.5560346,126.8574163
green,홍남어린이공원,공원,서울특별시 서대문구,서울특별시 서대문구 홍은동 405-3,970.9,,37.57803,126.9292
green,별장길,공원,서울특별시 금천구,서울특별시 금천구 시흥5동 925-32,971.4,,37.4481595,126.9085826
green,가중나무공원,공원,서울특별시 광진구,서울특별시 광진구 화양동 32-1,971.6,,37.5463866,127.0679026
green,대궐재어린이공원,공원,서울특별시 서대문구,서울특별시 서대문구 연희동 73-8,971.9,,37.57408,126.9371
green,배나무터공원,공원,서울특별시 광진구,서울특별시 광진구 중곡3동 695,971.9,,37.568478,127.0802604
green,무지개15,공원,서울특별시 금천구,서울특별시 금천구 독산2동 1063-14,972.1,,37.4629477,126.9010202
green,상산2,공원,서울특별시 강북구,서울특별시 강북구 수유3동 224-4,972.9,,37.6383238,127.0238581
green,갈대밭,공원,서울특별시 도봉구,서울특별시 도봉구 도봉동 625-123,973,,37.6743373,127.045809
green,소망3,공원,서울특별시 도봉구,서울특별시 도봉구 방학동 694-9,973,,37.6635068,127.0369255
green,개미1,공원,서울특별시 노원구,서울특별시 노원구 공릉 589-4,973.5,,37.6543741,127.0563321
green,범바위2,공원,서울특별시 강서구,서울특별시 강서구 화곡동1061-36,973.6,,37.5431215,126.8415563
green,두산2,공원,서울특별시 금천구,서울특별시 금천구 독산1동 298-1,974.9,,37.4730836,126.8941677
green,신중,공원,서울특별시 서초구,서울특별시 서초구 서초동 1484-14,974.9,,37.48233,127.0107
green,다솜어린이공원2,공원,서울특별시 마포구,서울특별시 마포구 성산동 113-2,975,,37.5624562,126.9153951
green,겸재,공원,서울특별시 중랑구,서울특별시 중랑구 면목본 70-3,976,,37.60674,127.0929
green,달빛4,공원,서울특별시 강서구,서울특별시 강서구 화곡동783-1,976.2,,37.5312015,126.8629432
green,무지개14,공원,서울특별시 강서구,서울특별시 강서구 화곡동806-10,976.2,,37.5339699,126.8613058
green,바탕골,공원,서울특별시 강서구,서울특별시 강서구 화곡동 1016-34,976.6,,37.5445775,126.834778
green,희망1,공원,서울특별시 강북구,서울특별시 강북구 수유3동 194-41,976.9,,37.6407701,127.024404
green,중앙6,공원,서울특별시 관악구,서울특별시 관악구 봉천로41길 35,977,,37.4845,126.9483
green,푸른골,공원,서울특별시 금천구,서울특별시 금천구 독산2동 1038-9,977.3,,37.4665455,126.9032397
green,골말1,공원,서울특별시 강서구,서울특별시 강서구 화곡동 865-1,977.9,,37.5332528,126.8561008
green,동교어린이공원,공원,서울특별시 마포구,서울특별시 마포구 동교동 197-17,978,,37.5601679,126.923306
green,미도2,공원,서울특별시 관악구,서울특별시 관악구 신림동 675-200,978,,37.4628452,126.9152871
green,새들2,공원,서울특별시 관악구,서울특별시 관악구 신림동 1441-42,979,,37.4886566,126.9257467
green,양지2,공원,서울특별시 중랑구,서울특별시 중랑구 면목본 98-20,980,,37.60674,127.0929
green,동방3,공원,서울특별시 성북구,서울특별시 성북구 장위1동 219-223,982,,37.61664,127.0435
green,아까시아어린이공원,공원,서울특별시 은평구,서울특별시 은평구 신사 200-27,982,,37.60277,126.9289
green,역말,공원,서울특별시 강서구,서울특별시 강서구 화곡동978-18,982.1,,37.5496707,126.8487995
green,성원,공원,서울특별시 성동구,서울특별시 성동구 성수동1가 13-21,982.5,,37.55021,127.0501
green,쌈지2,공원,서울특별시 금천구,서울특별시 금천구 독산4동 189-1,982.8,,37.4708954,126.9039788
green,궁뜰어린이공원,공원,서울특별시 서대문구,서울특별시 서대문구 연희동 123-5,983.8,,37.56901,126.9304
green,신장,공원,서울특별시 양천구,서울특별시 양천구 신월2동 486,983.8,,37.52424,126.8428
green,희망6,공원,서울특별시 노원구,서울특별시 노원구 상계 111-201,984,,37.67247519,127.0787569
green,아남,공원,서울특별시 성동구,서울특별시 성동구 성수동2가 280-12,984.1,,37.5469,127.0647
green,무궁화8,공원,서울특별시 양천구,서울특별시 양천구 목3동 712-1,984.6,,37.54177,126.8643
green,새말1,공원,서울특별시 서초구,서울특별시 서초구 방배동 794-16,984.8,,37.49331,126.9886
green,마산말,공원,서울특별시 서초구,서울특별시 서초구 서초동 1343-8,984.9,,37.48716,127.0267
green,수명산2,공원,서울특별시 강서구,서울특별시 강서구 화곡동 1044-31,984.9,,37.5408439,126.8344401
green,달동산,공원,서울특별시 중랑구,서울특별시 중랑구 망우3 520-6,985,,37.60674,127.0929
green,비둘기6,공원,서울특별시 금천구,서울특별시 금천구 시흥3동 947-4,985.2,,37.4415154,126.9062721
green,궁현,공원,서울특별시 서초구,서울특별시 서초구 서초동 1547-2,985.5,,37.4884,127.0104
green,목화2,공원,서울특별시 금천구,서울특별시 금천구 독산3동 883-9,985.8,,37.4774312,126.9072525
green,백련어린이공원,공원,서울특별시 서대문구,서울특별시 서대문구 홍은동 421-1,985.8,,37.58238,126.9242
green,동자공원3,공원,서울특별시 광진구,서울특별시 광진구 자양3동 582-19,985.9,,37.5320118,127.0743837
green,논현목련공원,공원,서울특별시 강남구,서울특별시 강남구 논현동 137-18,986,,37.5108684,127.0267081
green,두레1,공원,서울특별시 강서구,서울특별시 강서구 화곡동 792-9,986.1,,37.5312119,126.8593565
green,한두,공원,서울특별시 양천구,서울특별시 양천구 목3동 611-1,986.1,,37.54922,126.8655
green,장미공원4,공원,서울특별시 광진구,서울특별시 광진구 구의3동 590-2,986.5,,37.5363877,127.0902046
green,역삼까치공원,공원,서울특별시 강남구,서울특별시 강남구 역삼동 824-10,987.2,,37.4972507,127.0307413
green,역삼소나무공원,공원,서울특별시 강남구,서울특별시 강남구 역삼동 836-21,987.3,,37.4909856,127.0337058
green,정목,공원,서울특별시 양천구,서울특별시 양천구 목4동 767-1,987.3,,37.53698,126.8684
green,포수동어린이공원,공원,서울특별시 은평구,서울특별시 은평구 응암동 115-25,987.8,,37.5980819,126.919478
green,향림2,공원,서울특별시 성동구,서울특별시 성동구 성수동2가 289-28,987.8,,37.54677,127.0534
green,다람쥐5,공원,서울특별시 도봉구,서울특별시 도봉구 창동 624-16,988,,37.6452085,127.0349069
green,등나무2,공원,서울특별시 중랑구,서울특별시 중랑구 망우본 492-6,988,,37.60674,127.0929
green,문성2,공원,서울특별시 관악구,서울특별시 관악구 시흥대로164길 27,988,,37.48202,126.9029
green,봉림,공원,서울특별시 관악구,서울특별시 관악구 신림동 1510-2,988,,37.4827099,126.935714
green,미도1,공원,서울특별시 서초구,서울특별시 서초구 반포동 53-1,988.3,,37.50172,127.0107
green,개나리공원6,공원,서울특별시 광진구,서울특별시 광진구 구의3동 216-5,988.8,,37.5380353,127.0923684
green,모세미,공원,서울특별시 양천구,서울특별시 양천구 목4동 772-1,988.9,,37.53526,126.8687
green,정말공원,공원,서울특별시 광진구,서울특별시 광진구 자양1동 619-20,989.4,,37.5332412,127.0783399
green,목련공원3,공원,서울특별시 광진구,서울특별시 광진구 구의3동 223-4,989.8,,37.540598,127.0905155
green,보람공원4,공원,서울특별시 강동구,서울특별시 강동구 성내3동 444-6,989.9,,37.5248575,127.1313215
green,남부1,공원,서울특별시 관악구,서울특별시 관악구 신림동 483-14,990,,37.4849692,126.9205643
green,창고개,공원,서울특별시 도봉구,서울특별시 도봉구 창동 608-5,990,,37.6447309,127.039321
green,벼루2,공원,서울특별시 노원구,서울특별시 노원구 월계동 949-3,990.2,,37.6206679,127.0542549
green,신곡2,공원,서울특별시 양천구,서울특별시 양천구 신월2동 459,990.4,,37.52627,126.8451
green,양재2,공원,서울특별시 서초구,서울특별시 서초구 양재동 9-29,990.4,,37.48335,127.0393
green,반수,공원,서울특별시 금천구,서울특별시 금천구 독산3동 980-44,990.6,,37.4741509,126.9023372
green,홍익,공원,서울특별시 양천구,서울특별시 양천구 신정4동 896-22,990.8,,37.52857,126.8623
green,새숲,공원,서울특별시 관악구,서울특별시 관악구 신림동 539-14,991,,37.4823957,126.9130823
green,동개울,공원,서울특별시 양천구,서울특별시 양천구 신정4동 876-1,991.2,,37.52798,126.8565
green,신사개나리공원,공원,서울특별시 강남구,서울특별시 강남구 신사동 609-2,991.3,,37.5256591,127.0294461
green,씨알,공원,서울특별시 노원구,서울특별시 노원구 공릉동 371-1,991.3,,37.6277941,127.073435
green,염주골공원,공원,서울특별시 강동구,서울특별시 강동구 명일1동 326-10,991.3,,37.5498041,127.1456538
green,종달새1,공원,서울특별시 강서구,서울특별시 강서구 화곡동819-5,991.4,,37.535335,126.8580491
green,상명달,공원,서울특별시 서초구,서울특별시 서초구 서초동 1488-4,991.5,,37.48214,127.0056
green,역삼무궁화공원,공원,서울특별시 강남구,서울특별시 강남구 역삼동 830-23,991.5,,37.4939834,127.0322762
green,논골,공원,서울특별시 강북구,서울특별시 강북구 번1동 417-27,991.7,,37.6387,127.0279548
green,연남어린이공원,공원,서울특별시 서대문구,서울특별시 서대문구 남가좌동 326-8,991.7,,37.5781979,126.925322
green,싸리재,공원,서울특별시 서초구,서울특별시 서초구 잠원동 30-10,991.9,,37.51338,127.0182
green,하명달,공원,서울특별시 서초구,서울특별시 서초구 서초동 1518-1,991.9,,37.48585,127.0054
green,미아,공원,서울특별시 강북구,서울특별시 강북구 송중동 8-73,992,,37.6152889,127.0375591
green,새장골어린이공원,공원,서울특별시 은평구,서울특별시 은평구 불광 444-1,992,,37.60277,126.9289
green,쌈지마당,공원,서울특별시 노원구,서울특별시 노원구 중계본 16-2,992,,37.6543741,127.0563321
green,원당2,공원,서울특별시 강서구,서울특별시 강서구 내발산동 650,992,,37.5572733,126.8421408
green,장일,공원,서울특별시 동대문구,서울특별시 동대문구 장안동 164-1,992,,37.5699185,127.0651983
green,푸른_2,공원,서울특별시 강북구,서울특별시 강북구 인수동 516-44,992,,37.6385108,127.0084689
green,혜림공원,공원,서울특별시 강동구,서울특별시 강동구 천호1동 47-23,992,,37.5444828,127.1399885
green,문화9,공원,서울특별시 양천구,서울특별시 양천구 신월4동 515,992.1,,37.52123,126.8427
green,새나라2,공원,서울특별시 노원구,서울특별시 노원구 동일로179길 22,992.1,,37.6220493,127.0727813
green,샘물공원2,공원,서울특별시 강동구,서울특별시 강동구 명일1동 315-1,992.1,,37.5512398,127.1448339
green,안산6,공원,서울특별시 양천구,서울특별시 양천구 신정4동 949-4,992.1,,37.52462,126.8562
green,응암어린이공원,공원,서울특별시 은평구,서울특별시 은평구 응암 85-41,992.1,,37.60277,126.9289
green,대치까치공원,공원,서울특별시 강남구,서울특별시 강남구 대치동 1014-4,992.2,,37.4969761,127.0591984
green,진달래5,공원,서울특별시 금천구,서울특별시 금천구 시흥3동 970-3,992.2,,37.434853,126.9049001
green,성심공원,공원,서울특별시 강동구,서울특별시 강동구 길동 386-1,992.3,,37.53832,127.1375699
green,희망공원15,공원,서울특별시 강동구,서울특별시 강동구 길동 365-6,992.4,,37.5390481,127.1422801
green,신사까치공원,공원,서울특별시 강남구,서울특별시 강남구 신사동 597,992.9,,37.5234587,127.0292257
green,느티나무어린이공원4,공원,서울특별시 마포구,서울특별시 마포구 연남동 563-5,993,,37.55964,126.9187862
green,면목,공원,서울특별시 중랑구,서울특별시 중랑구 면목본 127-33,993,,37.60674,127.0929
green,노유산공원,공원,서울특별시 광진구,서울특별시 광진구 자양4동 5-7,993.1,,37.5391011,127.0684007
green,정문,공원,서울특별시 서초구,서울특별시 서초구 방배동 985-3,993.1,,37.48117,126.9996
green,교대,공원,서울특별시 서초구,서울특별시 서초구 서초동 1712-1,993.2,,37.49433,127.0116
green,신가어린이공원,공원,서울특별시 서대문구,서울특별시 서대문구 북가좌동 318-1,993.4,,37.58025,126.9084
green,가꿀,공원,서울특별시 서초구,서울특별시 서초구 방배동 859-1,993.5,,37.48797,126.9876
green,백석2,공원,서울특별시 강서구,서울특별시 강서구 등촌동 646-41,993.6,,37.5526242,126.8634892
green,새락골어린이공원,공원,서울특별시 은평구,서울특별시 은평구 신사 5-21,994,,37.60277,126.9289
green,은행나무어린이공원,공원,서울특별시 마포구,서울특별시 마포구 연남동 250-1,994,,37.564574,126.9223257
green,철쭉1,공원,서울특별시 노원구,서울특별시 노원구 상계동 1096-16,995,,37.6777371,127.051668
green,한신,공원,서울특별시 중랑구,서울특별시 중랑구 면목동 178-19,995,,37.5881572,127.076891
green,운산,공원,서울특별시 강북구,서울특별시 강북구 미아동 165-3,995.1,,37.6320938,127.0255711
green,음골,공원,서울특별시 양천구,서울특별시 양천구 신정4동 936-13,995.4,,37.5274,126.8512
green,중곡공원,공원,서울특별시 광진구,서울특별시 광진구 중곡1동 232-44,995.7,,37.5646586,127.079232
green,남부2,공원,서울특별시 양천구,서울특별시 양천구 신월3동 156,995.9,,37.53477,126.8261
green,갓바위2,공원,서울특별시 중랑구,서울특별시 중랑구 망우본 155-2,996,,37.60674,127.0929
green,미화,공원,서울특별시 도봉구,서울특별시 도봉구 창동 715-17,996,,37.6549426,127.0396881
green,분토골어린이공원,공원,서울특별시 은평구,서울특별시 은평구 증산 163-34,996,,37.60277,126.9289
green,무궁화공원7,공원,서울특별시 강동구,서울특별시 강동구 길동 340-17,996.3,,37.5422061,127.1453671
green,화양공원,공원,서울특별시 광진구,서울특별시 광진구 화양동 8-36,996.4,,37.541544,127.0696829
green,나래1,공원,서울특별시 노원구,서울특별시 노원구 공릉동 380-4,996.7,,37.6269612,127.0706472
green,서래,공원,서울특별시 서초구,서울특별시 서초구 반포동 71-6,997.1,,37.4983,127.0003
green,능골1,공원,서울특별시 강서구,서울특별시 강서구 화곡동468-1,997.2,,37.5367413,126.8553234
green,장독골공원,공원,서울특별시 광진구,서울특별시 광진구 자양1동 804-10,997.4,,37.535777,127.0776864
green,소망10,공원,서울특별시 금천구,서울특별시 금천구 독산4동 196-8,998,,37.4694674,126.9015691
green,태양6,공원,서울특별시 양천구,서울특별시 양천구 신월4동 422-1,998.1,,37.5244,126.8386
green,뜸부기,공원,서울특별시 강서구,서울특별시 강서구 화곡동 845-19,998.4,,37.5301345,126.8569517
green,달님공원2,공원,서울특별시 강동구,서울특별시 강동구 길동 405-21,998.6,,37.5360225,127.1425523
green,자마장공원,공원,서울특별시 광진구,서울특별시 광진구 자양1동 630,998.8,,37.5343253,127.0821849
green,분토골,공원,서울특별시 서초구,서울특별시 서초구 서초동 1627-4,999.1,,37.48836,127.0175
green,시루메어린이공원,공원,서울특별시 은평구,서울특별시 은평구 증산 185-1,999.6,,37.60277,126.9289
green,뒷말,공원,서울특별시 도봉구,서울특별시 도봉구 방학동 663,1000,,37.6637322,127.0336357
green,장미2,공원,서울특별시 도봉구,서울특별시 도봉구 창동 553-8,1000,,37.6381473,127.0363579
green,향기1,공원,서울특별시 성북구,서울특별시 성북구 상월곡동 산1-1,1000,,37.60996,127.0445
green,달내,공원,서울특별시 도봉구,서울특별시 도봉구 창동 630-4,1001,,37.6427516,127.0352673
green,신사목련공원,공원,서울특별시 강남구,서울특별시 강남구 신사동 567-37,1001.1,,37.5229172,127.0258276
green,방죽1,공원,서울특별시 중랑구,서울특별시 중랑구 망우본 344-11,1002,,37.60674,127.0929
green,나말,공원,서울특별시 양천구,서울특별시 양천구 목4동 724-1,1002.2,,37.5386,126.8646
green,해님공원2,공원,서울특별시 광진구,서울특별시 광진구 화양동 45-3,1002.3,,37.5427203,127.0668846
green,꽃동산1,공원,서울특별시 양천구,서울특별시 양천구 신월2동 471,1002.9,,37.52646,126.8484
green,무궁화6,공원,서울특별시 도봉구,서울특별시 도봉구 방학동 655-31,1003,,37.6678294,127.0421744
green,무수,공원,서울특별시 도봉구,서울특별시 도봉구 도봉동 585-2,1003,,37.6806285,127.0427355
green,조마,공원,서울특별시 금천구,서울특별시 금천구 가산동 148-11,1003,,37.475576,126.8957251
green,신대1,공원,서울특별시 양천구,서울특별시 양천구 신월1동 100-1,1003.1,,37.5348,126.8328
green,모태,공원,서울특별시 강서구,서울특별시 강서구 화곡동892-17,1003.4,,37.5294947,126.8495283
green,꽃동산2,공원,서울특별시 중랑구,서울특별시 중랑구 망우3 441,1004,,37.60674,127.0929
green,상리,공원,서울특별시 중랑구,서울특별시 중랑구 상봉2 136-35,1005,,37.60674,127.0929
green,섬들1,공원,서울특별시 중랑구,서울특별시 중랑구 면목본 86-3,1005,,37.60674,127.0929
green,꿀벌,공원,서울특별시 양천구,서울특별시 양천구 신월4동 531,1005.2,,37.52,126.842
green,먹골,공원,서울특별시 중랑구,서울특별시 중랑구 묵1 177-5,1006,,37.60674,127.0929
green,한울소공원1,공원,서울특별시 서대문구,서울특별시 서대문구 남가좌동 382-5,1006,,37.5708646,126.916575
green,예술,공원,서울특별시 서초구,서울특별시 서초구 서초동 1455-4,1006.3,,37.48324,127.0146
green,곰돌이2,공원,서울특별시 강서구,서울특별시 강서구 화곡동 900-46,1006.9,,37.5295679,126.8450243
green,두리어린이공원,공원,서울특별시 마포구,서울특별시 마포구 망원2동 436-1,1007,,37.5601268,126.9012468
green,인스빌2소공원,공원,서울특별시 영등포구,서울특별시 영등포구 문래동 68-1,1007,,37.51081,126.8946
green,꿈동산7,공원,서울특별시 도봉구,서울특별시 도봉구 창동 663-1,1008,,37.6501258,127.0368264
green,식유촌,공원,서울특별시 서초구,서울특별시 서초구 우면동 598-3,1009,,37.4579,127.0133
green,꽃사슴2,공원,서울특별시 양천구,서울특별시 양천구 신정3동 1195,1009.1,,37.52176,126.8485
green,남도,공원,서울특별시 양천구,서울특별시 양천구 신월4동 426-4,1009.9,,37.52442,126.8408
green,사랑2,공원,서울특별시 중랑구,서울특별시 중랑구 면목5 153-6,1010,,37.60674,127.0929
green,남촌,공원,서울특별시 중랑구,서울특별시 중랑구 면목본 110-1,1011,,37.60674,127.0929
green,독산,공원,서울특별시 금천구,서울특별시 금천구 독산동 1160-2,1011.1,,37.475682,126.900325
green,온달공원,공원,서울특별시 광진구,서울특별시 광진구 광장동 242-1,1012,,37.5459265,127.1039061
green,둥근달,공원,서울특별시 도봉구,서울특별시 도봉구 쌍문동 139-101,1013,,37.6497373,127.0301001
green,송학2,공원,서울특별시 관악구,서울특별시 관악구 봉천동 877-21,1013,,37.4803355,126.9492929
green,봉황,공원,서울특별시 중랑구,서울특별시 중랑구 상봉2 114-1,1014,,37.60674,127.0929
green,논현은행나무공원,공원,서울특별시 강남구,서울특별시 강남구 논현동 47-13,1014.5,,37.5126353,127.0224434
green,번남,공원,서울특별시 강북구,서울특별시 강북구 번1동 447-1,1014.9,,37.6357829,127.0249451
green,까치2,공원,서울특별시 서초구,서울특별시 서초구 방배동 962-29,1015.3,,37.48382,126.9903
green,소파,공원,서울특별시 중랑구,서울특별시 중랑구 면목3·8 42-1,1016,,37.60674,127.0929
green,동산8,공원,서울특별시 금천구,서울특별시 금천구 독산3동 993-29,1017.2,,37.4728326,126.9059176
green,노해2,공원,서울특별시 도봉구,서울특별시 도봉구 쌍문동 709-32,1019,,37.6609252,127.0396677
green,다람쥐3,공원,서울특별시 금천구,서울특별시 금천구 독산1동 999-11,1019.6,,37.4682322,126.8908817
green,송계,공원,서울특별시 중랑구,서울특별시 중랑구 면목5 173-1,1020,,37.60674,127.0929
green,선봉,공원,서울특별시 관악구,서울특별시 관악구 봉천로27길 20,1021,,37.4852,126.9397
green,암사동공원,공원,서울특별시 강동구,서울특별시 강동구 암사동 518-1,1022,,37.5488563,127.1233023
green,금모래공원,공원,서울특별시 광진구,서울특별시 광진구 자양2동 651-50,1022.5,,37.5302004,127.0824278
green,청명2,공원,서울특별시 동작구,서울특별시 동작구 신대방동 719-1,1024,,37.4875748,126.9079868
green,(가칭)신길7재정비촉진구역소공원,공원,서울특별시 영등포구,서울특별시 영등포구 신길동 4950-1,1024.1,,37.5013,126.9163
green,하마터,공원,서울특별시 강서구,서울특별시 강서구 화곡동 883-3,1026.8,,37.5300033,126.8536501
green,노을1,공원,서울특별시 강서구,서울특별시 강서구 화곡동 105-194,1031,,37.5398653,126.8439602
green,언구비,공원,서울특별시 서초구,서울특별시 서초구 반포동 720,1031.9,,37.50895,127.0202
green,도림,공원,서울특별시 강서구,서울특별시 강서구 등촌동 635-1,1033.8,,37.5556009,126.8628894
green,아현초록소공원,공원,서울특별시 마포구,서울특별시 마포구 아현동 776,1035,,37.5543999,126.953211
green,경찰기념공원,공원,서울특별시 중구,서울특별시 중구 의주로1가 44-2,1039,,37.56392,126.9687
green,무궁화공원8,공원,서울특별시 광진구,서울특별시 광진구 구의3동 206-10,1041.7,,37.5412675,127.0943887
green,송동1,공원,서울특별시 서초구,서울특별시 서초구 우면동 491,1042,,37.46111,127.0156
green,해태3,공원,서울특별시 양천구,서울특별시 양천구 신정1동 1017-5,1046.8,,37.52171,126.862
green,저동공원,공원,서울특별시 중구,서울특별시 중구 저동1가 1-14,1050,,37.56474,126.9882
green,앞산,공원,서울특별시 양천구,서울특별시 양천구 신정4동 910-9,1050.5,,37.52644,126.8584
green,당곡2,공원,서울특별시 양천구,서울특별시 양천구 신월4동 542,1055.3,,37.51862,126.84
green,효심2,공원,서울특별시 강서구,서울특별시 강서구 화곡동 922-10,1056.5,,37.5295254,126.8406918
green,새싹2,공원,서울특별시 중랑구,서울특별시 중랑구 면목동 164-2,1057,,37.58267,127.0816
green,성안공원,공원,서울특별시 강동구,서울특별시 강동구 성내3동 405-18,1057.1,,37.5313715,127.1349232
green,게리,공원,서울특별시 서초구,서울특별시 서초구 양재동 325,1057.9,,37.46965,127.0406
green,상봉,공원,서울특별시 중랑구,서울특별시 중랑구 상봉2 122-31,1058,,37.60674,127.0929
green,옥계,공원,서울특별시 금천구,서울특별시 금천구 독산2동 1067-9,1058.6,,37.4601214,126.900372
green,아랫샘,공원,서울특별시 서초구,서울특별시 서초구 내곡동 1-2128,1059,,37.45846,127.0717
green,능동소공원,공원,서울특별시 광진구,서울특별시 광진구 능동 242-26,1062,,37.5524874,127.0829468
green,은행정,공원,서울특별시 양천구,서울특별시 양천구 신정4동 975-30,1062.2,,37.52204,126.855
green,흰구름2,공원,서울특별시 강북구,서울특별시 강북구 수유2동 252-19,1064,,37.6457287,127.0204071
green,큰별,공원,서울특별시 강서구,서울특별시 강서구 화곡동 46-41,1067,,37.5444823,126.8489585
green,당뒤,공원,서울특별시 양천구,서울특별시 양천구 신월5동 13-1,1068.8,,37.54147,126.8285
green,되너미,공원,서울특별시 성북구,서울특별시 성북구 돈암동 644-1,1069,,37.59849,127.0135
green,한강로가로공원,공원,서울특별시 용산구,서울특별시 한강로3가 65-325,1076.3,,37.52438,126.964
green,충효3,공원,서울특별시 동작구,서울특별시 동작구 본동 494-9,1081.8,,37.5140235,126.9500763
green,오패,공원,서울특별시 강북구,서울특별시 강북구 미아동 258-236,1084,,37.6223372,127.0323253
green,윗샘,공원,서울특별시 서초구,서울특별시 서초구 내곡동 1-2128,1084,,37.45846,127.0717
green,샘말1,공원,서울특별시 도봉구,서울특별시 도봉구 방학동 611-5,1085,,37.6684726,127.0315566
green,비둘기5,공원,서울특별시 강서구,서울특별시 강서구 화곡동 61-96,1086,,37.5413725,126.8469809
green,황학공원,공원,서울특별시 중구,서울특별시 중구 황학동 755,1087,,37.56753,127.0181
green,버들7,공원,서울특별시 강서구,서울특별시 강서구 화곡동 424-45,1087.2,,37.5311077,126.8412443
green,폭포동소공원,공원,서울특별시 은평구,서울특별시 은평구 진관동 158-14일원,1087.8,,37.63025,126.9298
green,용강나루소공원,공원,서울특별시 마포구,서울특별시 마포구 용강동 506,1088,,37.5418681,126.9422741
green,동마장,공원,서울특별시 성동구,서울특별시 성동구 마장동 780-1,1090.9,,37.56611,127.0458
green,정훈,공원,서울특별시 금천구,서울특별시 금천구 독산2동 378-4,1094,,37.4656551,126.9063387
green,새터1,공원,서울특별시 서초구,서울특별시 서초구 잠원동 70-6,1100,,37.50809,127.0068
green,아름1,공원,서울특별시 서초구,서울특별시 서초구 잠원동 70-8,1100,,37.50741,127.0048
green,돌이음,공원,서울특별시 성북구,서울특별시 성북구 석관동 410-3,1103.4,,37.6069,127.0652
green,백연,공원,서울특별시 강서구,서울특별시 강서구 화곡동980-2,1107.4,,37.5506923,126.8519299
green,솔말소공원,공원,서울특별시 강동구,서울특별시 강동구 암사3동 400-1,1108.6,,37.5564786,127.1391489
green,언주근린공원,공원,서울특별시 강남구,서울특별시 강남구 역삼동 754-7,1110.8,,37.4987037,127.0476412
green,양마장공원,공원,서울특별시 광진구,서울특별시 광진구 자양2동 689-6,1113,,37.5308885,127.0886761
green,아름5,공원,서울특별시 동대문구,서울특별시 동대문구 휘경동 43-178,1116,,37.5863914,127.0665661
green,평창공원,공원,서울특별시 종로구,서울특별시 종로구 평창동 108-3,1117.6,,37.61061,126.9779
green,밤골3,공원,서울특별시 관악구,서울특별시 관악구 인헌3가길 8,1119,,37.47391,126.9674
green,은행3,공원,서울특별시 강서구,서울특별시 강서구 화곡동369-11,1123.6,,37.5358131,126.8405379
green,쑥고개,공원,서울특별시 관악구,서울특별시 관악구 신림동 1564-68,1124,,37.4758626,126.9408083
green,거꾸로어린이공원,공원,서울특별시 서대문구,서울특별시 서대문구 북가좌동 338-21,1125.3,,37.58523,126.9133
green,뽕밭,공원,서울특별시 송파구,서울특별시 송파구 잠실본동 220,1125.6,,37.50783,127.0811
green,미아도심소,공원,서울특별시 강북구,서울특별시 강북구 미아동 258-148,1127,,37.6253925,127.0313228
green,신대부석,공원,서울특별시 강서구,서울특별시 강서구 방화동 411,1132,,37.5773167,126.8144563
green,옹달샘어린이공원,공원,서울특별시 마포구,서울특별시 마포구 망원동 408-3,1134,,37.5548994,126.9020592
green,별님공원2,공원,서울특별시 용산구,서울특별시 용산구 문배동 11-1,1137,,37.5382,126.9692
green,거여1(거마재정비),공원,서울특별시 송파구,서울특별시 송파구 거여동 181-143 일대,1139.7,,37.49638,127.1454
green,봉은근린공원,공원,서울특별시 강남구,서울특별시 강남구 역삼동 754-4,1147.7,,37.4979427,127.0482503
green,세화,공원,서울특별시 중랑구,서울특별시 중랑구 중화2 328-14,1148,,37.60674,127.0929
green,신월1,공원,서울특별시 양천구,서울특별시 양천구 신월1동 240,1148.2,,37.52703,126.8382
green,내촌2,공원,서울특별시 강서구,서울특별시 강서구 방화동 551-26,1149,,37.5702187,126.8083994
green,명륜공원2,공원,서울특별시 종로구,서울특별시 종로구 명륜1가 23-9,1149.5,,37.58808,126.9981
green,남서울,공원,서울특별시 금천구,서울특별시 금천구 시흥1동 986-2,1155.7,,37.4483065,126.902082
green,능안3,공원,서울특별시 서초구,서울특별시 서초구 내곡동 168-10,1156,,37.45448,127.0657
green,경인,공원,서울특별시 양천구,서울특별시 양천구 신월3동 196,1161.6,,37.5321,126.8288
green,무아래,공원,서울특별시 금천구,서울특별시 금천구 가산동 234-29,1162.6,,37.4733634,126.8932592
green,까치산3,공원,서울특별시 강서구,서울특별시 강서구 화곡동354-14,1163.6,,37.5334298,126.8419099
green,무궁화소공원2,공원,서울특별시 구로구,서울특별시 구로구 고척동 341-2,1166,,37.5048951,126.8652198
green,행복한2,공원,서울특별시 성북구,서울특별시 성북구 길음1동 1284-13,1173,,37.60824,127.0196
green,송운근린공원,공원,서울특별시 강남구,서울특별시 강남구 역삼동 755-9,1175,,37.4993187,127.0490471
green,월정,공원,서울특별시 강서구,서울특별시 강서구 화곡동372-26,1181.5,,37.5351828,126.8359991
green,창전어린이공원,공원,서울특별시 마포구,서울특별시 마포구 창전동 35-28,1185,,37.5501655,126.9291537
green,새재미,공원,서울특별시 금천구,서울특별시 금천구 시흥1동 855,1185.2,,37.4590125,126.9041862
green,쌍문1구역소공원,공원,서울특별시 도봉구,서울특별시 도봉구 쌍문동 732-1,1188,,37.648922,127.021929
green,궁말어린이공원2,공원,서울특별시 은평구,서울특별시 은평구 갈현 327-21,1190,,37.60277,126.9289
green,안골8,공원,서울특별시 서초구,서울특별시 서초구 내곡동 192-1,1192,,37.45623,127.0633
green,한빛,공원,서울특별시 강북구,서울특별시 강북구 미아동 222-20,1192.1,,37.6277196,127.0228753
green,열매,공원,서울특별시 중랑구,서울특별시 중랑구 면목2 142-15,1193,,37.60674,127.0929
green,인스빌1소공원,공원,서울특별시 영등포구,서울특별시 영등포구 문래동 67-1,1194,,37.51082,126.8949
green,달님공원3,공원,서울특별시 용산구,서울특별시 용산구 문배동 46,1195,,37.53842,126.9696
green,불암소공원,공원,서울특별시 노원구,서울특별시 노원구 중계4 453-38,1198,,37.6543741,127.0563321
green,쉼표소공원,공원,서울특별시 강남구,서울특별시 강남구 세곡동 549,1199.2,,37.4675579,127.0998344
green,국회단지,공원,서울특별시 관악구,서울특별시 관악구 봉천동 635-37,1200,,37.4902825,126.9431716
green,만리2구역1공원,공원,서울특별시 중구,서울특별시 중구 만리동2가 231-2,1204.2,,37.55246,126.9631
green,장미8,공원,서울특별시 금천구,서울특별시 금천구 시흥4동 3-82,1207,,37.4615827,126.9122307
green,너른골,공원,서울특별시 서초구,서울특별시 서초구 방배동 144-18,1216,,37.48748,126.9949
green,코오롱하늘채앞소공원,공원,서울특별시 중랑구,서울특별시 중랑구 면목동 1537-1,1222,,37.57198,127.0864
green,소망2,공원,서울특별시 중랑구,서울특별시 중랑구 묵2 240-100,1225,,37.60674,127.0929
green,금옥,공원,서울특별시 성동구,서울특별시 성동구 금호동2가 1213,1230,,37.55338,127.0212
green,본마을,공원,서울특별시 서초구,서울특별시 서초구 신원동 445,1234,,37.45459,127.0531
green,행당4구역,공원,서울특별시 성동구,서울특별시 성동구 행당동 323-24,1235,,37.55588,127.0319
green,연신어린이공원,공원,서울특별시 은평구,서울특별시 은평구 불광 339,1236,,37.60277,126.9289
green,폭포,공원,서울특별시 강북구,서울특별시 강북구 삼각산동 813-6,1238,,37.6125815,127.0217029
green,신사은행나무공원,공원,서울특별시 강남구,서울특별시 강남구 신사동 558,1240.1,,37.5205851,127.0260276
green,길음골,공원,서울특별시 성북구,서울특별시 성북구 길음1동 1285-9,1244,,37.60904,127.0201
green,일선,공원,서울특별시 관악구,서울특별시 관악구 쑥고개로26길 24,1244,,37.47783,126.9495
green,무교2공원,공원,서울특별시 중구,서울특별시 중구 태평로1가 2-2,1245,,37.56883,126.9776
green,벽오산,공원,서울특별시 강북구,서울특별시 강북구 미아동 258-56,1250,,37.6276362,127.0302401
green,윗반고개공원,공원,서울특별시 강남구,서울특별시 강남구 세곡동 99-6,1250,,37.4657002,127.1091489
green,해님공원3,공원,서울특별시 용산구,서울특별시 용산구 문배동 45,1255,,37.53914,126.9701
green,인조유기비어린이공원,공원,서울특별시 은평구,서울특별시 은평구 역촌 8-11,1256.9,,37.60277,126.9289
green,부암튼튼공원,공원,서울특별시 종로구,서울특별시 종로구 부암동 262-1,1258,,37.59228,126.9646
green,더부리,공원,서울특별시 강서구,서울특별시 강서구 화곡동339-19,1263.7,,37.5348739,126.8467641
green,솔샘,공원,서울특별시 강북구,서울특별시 강북구 송천동 329-15,1264.1,,37.6184283,127.0270408
green,옛동산,공원,서울특별시 송파구,서울특별시 송파구 방이동 121,1266.3,,37.5096,127.1159
green,금성윗들,공원,서울특별시 도봉구,서울특별시 도봉구 방학1동 717-1,1289,,37.6676522,127.0447611
green,새동네2,공원,서울특별시 도봉구,서울특별시 도봉구 도봉동 289-5,1289,,37.6889486,127.0431841
green,다운,공원,서울특별시 강서구,서울특별시 강서구 화곡동 346-26,1290.6,,37.5320783,126.8446688
green,홍련산의,공원,서울특별시 광진구,서울특별시 광진구 구의동 668-5,1291.1,,37.5460163,127.0885599
green,영동근린공원,공원,서울특별시 강남구,서울특별시 강남구 역삼동 755-7,1293.6,,37.4980541,127.048656
green,합실,공원,서울특별시 관악구,서울특별시 관악구 신림동 1704-4,1297,,37.465115,126.9270332
green,상계5동간촌마을가로공원,공원,서울특별시 노원구,서울특별시 노원구 상계5 458-3,1298.2,,37.6543741,127.0563321
green,새마을1,공원,서울특별시 노원구,서울특별시 노원구 상계 1257-1,1307.8,,37.6543741,127.0563321
green,공덕소공원,공원,서울특별시 마포구,서울특별시 마포구 공덕동 475-1일대,1310,,37.5485107,126.95464
green,남태령제2,공원,서울특별시 관악구,서울특별시 관악구 남현동 612-52,1310,,37.4719912,126.9821609
green,은가어린이공원,공원,서울특별시 서대문구,서울특별시 서대문구 북가좌동 3-39,1312,,37.58271,126.9195
green,개나리9,공원,서울특별시 송파구,서울특별시 송파구 문정동 81,1312.2,,37.48241,127.1284
green,염곡,공원,서울특별시 서초구,서울특별시 서초구 염곡동 143-9,1318,,37.46317,127.0544
green,보명,공원,서울특별시 관악구,서울특별시 관악구 법원단지길 158-11,1319,,37.47589,126.9257
green,남태령,공원,서울특별시 서초구,서울특별시 서초구 방배동 2956-4,1328,,37.4663,126.9886
green,무궁화4,공원,서울특별시 금천구,서울특별시 금천구 독산2동 378-291,1336,,37.4643846,126.9043904
green,약초원공원1,공원,서울특별시 광진구,서울특별시 광진구 자양4동 553-22,1337,,37.5349978,127.0679539
green,당산나루소공원,공원,서울특별시 영등포구,서울특별시 영등포구 당산동5가 9-3,1339,,37.53282,126.9001
green,상계2동마을숲,공원,서울특별시 노원구,서울특별시 노원구 상계2 373-13,1341,,37.6543741,127.0563321
green,학봉근린공원,공원,서울특별시 강남구,서울특별시 강남구 삼성동 50-3,1343,,37.5129292,127.051872
green,광흥창어린이공원,공원,서울특별시 마포구,서울특별시 마포구 창전동 26-1,1353,,37.5495141,126.9308492
green,오거리2,공원,서울특별시 중랑구,서울특별시 중랑구 면목7 351,1357,,37.60674,127.0929
green,중계2,공원,서울특별시 노원구,서울특별시 노원구 중계동 514-8,1358.2,,37.6451605,127.067021
green,상수나루소공원,공원,서울특별시 마포구,서울특별시 마포구 상수동 402-2,1359,,37.5459682,126.9263393
green,해태1,공원,서울특별시 관악구,서울특별시 관악구 신림동 103-141,1359,,37.4725001,126.9406296
green,동산9,공원,서울특별시 동대문구,서울특별시 동대문구 답십리동 998-1,1359.2,,37.5669654,127.0575491
green,도봉마루공원,공원,서울특별시 도봉구,서울특별시 도봉구 도봉1동 279,1361,,37.6877201,127.0439142
green,성황당어린이공원,공원,서울특별시 마포구,서울특별시 마포구 성산동 147-5,1367,,37.5690135,126.9073422
green,세원1,공원,서울특별시 서초구,서울특별시 서초구 신원동 500-5,1369,,37.45593,127.0499
green,새소리,공원,서울특별시 성북구,서울특별시 성북구 돈암1동 626-2,1371,,37.60077,127.0254
green,하늘소공원2,공원,서울특별시 서대문구,서울특별시 서대문구 홍은동 445-3,1375,,37.59385,126.9422
green,코스모스,공원,서울특별시 노원구,서울특별시 노원구 상계동 1293-2,1385.7,,37.6677547,127.08316
green,양화어린이공원,공원,서울특별시 마포구,서울특별시 마포구 합정동 394-1,1388,,37.550427,126.9085076
green,배꽃2,공원,서울특별시 중랑구,서울특별시 중랑구 중화2 332-48,1396,,37.60674,127.0929
green,남이마을어린이공원,공원,서울특별시 서대문구,서울특별시 서대문구 남가좌동 368,1397.6,,37.5790745,126.9196826
green,서린공원,공원,서울특별시 종로구,서울특별시 종로구 서린동 82,1398,,37.56978,126.9808
green,휘봉,공원,서울특별시 동대문구,서울특별시 동대문구 휘경동 43-275,1398,,37.5868906,127.0693113
green,좌월어린이공원,공원,서울특별시 은평구,서울특별시 은평구 갈현 513-1,1398.3,,37.60277,126.9289
green,장안동연립단지(명칭제정중),공원,서울특별시 동대문구,서울특별시 동대문구 장안동 587-1,1403.6,,37.574403,127.0705649
green,꿈나무공원6,공원,서울특별시 용산구,서울특별시 용산구 이촌1동 301-86,1412,,37.52087,126.9719
green,상수소공원,공원,서울특별시 마포구,서울특별시 마포구 상수동 399,1413,,37.5459216,126.9271661
green,성내천공원,공원,서울특별시 강동구,서울특별시 강동구 성내1동 463-4,1413.6,,37.5268303,127.1239335
green,수서목련공원,공원,서울특별시 강남구,서울특별시 강남구 수서동 712-1,1418.8,,37.4905824,127.1037196
green,까막골,공원,서울특별시 동작구,서울특별시 동작구 흑석동 231-31,1420.1,,37.5045291,126.9605581
green,용두희망,공원,서울특별시 동대문구,서울특별시 동대문구 용두동 715,1422,,37.5801949,127.0267347
green,애오개어린이공원,공원,서울특별시 마포구,서울특별시 마포구 아현동 802번지 일대,1424,,37.555427,126.9593196
green,장령당,공원,서울특별시 동대문구,서울특별시 동대문구 답십리동 1004-4,1424,,37.5697623,127.0535066
green,효령,공원,서울특별시 서초구,서울특별시 서초구 방배동 960-14,1432.8,,37.48365,126.9884
green,초롱2,공원,서울특별시 중랑구,서울특별시 중랑구 중화동 323-14,1433,,37.5957371,127.072765
green,삼밭나루,공원,서울특별시 송파구,서울특별시 송파구 삼전동 95,1434.1,,37.50516,127.0917
green,순화어린이공원,공원,서울특별시 중구,서울특별시 중구 순화동 3-12,1439,,37.56347,126.9713
green,고암,공원,서울특별시 성북구,서울특별시 성북구 종암동 133-5,1449,,37.59994,127.0318
green,하왕1-5구역,공원,서울특별시 성동구,서울특별시 성동구 하왕십리동 1071-2,1451.1,,37.55947,127.0248
green,명동문화공원,공원,서울특별시 중구,서울특별시 중구 저동 90-10,1456,,37.56376,126.9975
green,문화소공원,공원,서울특별시 서대문구,서울특별시 서대문구 홍제동 280-2,1456,,37.59456,126.9488
green,홍씨마을,공원,서울특별시 서초구,서울특별시 서초구 내곡동 156-8,1461,,37.45315,127.0657
green,삼성까치공원,공원,서울특별시 강남구,서울특별시 강남구 삼성동 85,1462.9,,37.5183062,127.0606049
green,양남어린이공원,공원,서울특별시 영등포구,서울특별시 영등포구 양평1동 205,1467,,37.52332,126.8882
green,동호수,공원,서울특별시 송파구,서울특별시 송파구 송파동 34,1469.7,,37.50976,127.1071
green,청계숲,공원,서울특별시 서초구,서울특별시 서초구 신원동 251,1470,,37.4475,127.058
green,나루터,공원,서울특별시 송파구,서울특별시 송파구 삼전동 37,1472.9,,37.5016,127.0867
green,안골1,공원,서울특별시 노원구,서울특별시 노원구 월계 781-1,1473.9,,37.6543741,127.0563321
green,솟대어린이공원,공원,서울특별시 서대문구,서울특별시 서대문구 남가좌동 379-3,1474.5,,37.5728048,126.912981
green,배밭,공원,서울특별시 송파구,서울특별시 송파구 송파동 178,1475.8,,37.50156,127.1154
green,일원까치공원,공원,서울특별시 강남구,서울특별시 강남구 일원동 712-4,1476.3,,37.4920946,127.0881978
green,두암어린이공원,공원,서울특별시 영등포구,서울특별시 영등포구 대림3동 715,1477,,37.49549,126.8974
green,곰돌이3,공원,서울특별시 노원구,서울특별시 노원구 하계1동256-6,1477.8,,37.6404332,127.0754309
green,초안,공원,서울특별시 노원구,서울특별시 노원구 월계동 775-1,1479.1,,37.6339316,127.051797
green,개나리어린이공원5,공원,서울특별시 마포구,서울특별시 마포구 중동 40-5 일대,1481,,37.5698955,126.9091858
green,능골2,공원,서울특별시 송파구,서울특별시 송파구 가락동 198,1484.7,,37.49314,127.133
green,골말2,공원,서울특별시 금천구,서울특별시 금천구 가산동 28-2,1485,,37.4828504,126.8845261
green,대흥어린이공원,공원,서울특별시 마포구,서울특별시 마포구 대흥동 660-1,1486,,37.5437002,126.9436175
green,버들1,공원,서울특별시 서초구,서울특별시 서초구 양재동 298,1487.4,,37.47382,127.0457
green,반딧불2,공원,서울특별시 송파구,서울특별시 송파구 문정동 47,1489.2,,37.48796,127.1241
green,꿈동산6,공원,서울특별시 노원구,서울특별시 노원구 노원로22길 34,1491.6,,37.6467909,127.0726778
green,신현,공원,서울특별시 중랑구,서울특별시 중랑구 상봉1 484-1,1492,,37.60674,127.0929
green,방죽6,공원,서울특별시 송파구,서울특별시 송파구 가락본동 28,1492.1,,37.50071,127.1228
green,푸르미,공원,서울특별시 강서구,서울특별시 강서구 마곡동 316-1,1494,,37.5706029,126.8251582
green,수정4,공원,서울특별시 송파구,서울특별시 송파구 문정동 23-5,1494.6,,37.48906,127.1262
green,봉우리,공원,서울특별시 송파구,서울특별시 송파구 가락본동 85,1495.2,,37.49656,127.1193
green,국화,공원,서울특별시 노원구,서울특별시 노원구 하계 252-11,1495.6,,37.6543741,127.0563321
green,희망8,공원,서울특별시 송파구,서울특별시 송파구 문정동 103,1495.8,,37.48583,127.131
green,꿈나무7,공원,서울특별시 송파구,서울특별시 송파구 오금동 117-1,1496.3,,37.50322,127.1411
green,횃불,공원,서울특별시 서초구,서울특별시 서초구 양재동 66-4,1496.9,,37.47833,127.0375
green,팔각정,공원,서울특별시 송파구,서울특별시 송파구 가락본동 118,1497.5,,37.49267,127.1241
green,중대,공원,서울특별시 송파구,서울특별시 송파구 송파동 188,1497.8,,37.4997,127.1154
green,새말7,공원,서울특별시 송파구,서울특별시 송파구 가락동 145-10,1498.1,,37.49464,127.1257
green,학동공원1,공원,서울특별시 강남구,서울특별시 강남구 논현동 263-23,1498.5,,37.5115092,127.0389385
green,산딸나무어린이공원,공원,서울특별시 마포구,서울특별시 마포구 상암동1753,1499,,37.5835414,126.8779191
green,봉숭아2,공원,서울특별시 노원구,서울특별시 노원구 상계 628,1499.6,,37.6543741,127.0563321
green,가야금,공원,서울특별시 송파구,서울특별시 송파구 오금동 21,1500,,37.50865,127.1293
green,가양,공원,서울특별시 강서구,서울특별시 강서구 가양동 1462-2,1500,,37.5697966,126.8447995
green,강신,공원,서울특별시 양천구,서울특별시 양천구 신월6동 1012-2,1500,,37.51555,126.8384
green,게내공원,공원,서울특별시 강동구,서울특별시 강동구 상일동 278,1500,,37.5491601,127.1716112
green,견우,공원,서울특별시 성동구,서울특별시 성동구 상왕십리동 816-3,1500,,37.56644,127.0248
green,꽃피울,공원,서울특별시 중랑구,서울특별시 중랑구 신내2 660-1,1500,,37.60674,127.0929
green,꿈나래공원3,공원,서울특별시 강동구,서울특별시 강동구 고덕1동 536,1500,,37.5609013,127.153903
green,꿈나무6,공원,서울특별시 동작구,서울특별시 동작구 상도동 521-1,1500,,37.5032901,126.9427847
green,꿈빛2,공원,서울특별시 강서구,서울특별시 강서구 내발산동 657-3,1500,,37.5561444,126.8400305
green,나들이,공원,서울특별시 강서구,서울특별시 강서구 가양동 1459-1,1500,,37.5718276,126.8442588
green,나루공원,공원,서울특별시 강동구,서울특별시 강동구 천호2동 569-1,1500,,37.5470657,127.1236401
green,달빛1,공원,서울특별시 노원구,서울특별시 노원구 노원로 532,1500,,37.6629738,127.0602129
green,대건,공원,서울특별시 송파구,서울특별시 송파구 가락동 165-4,1500,,37.49711,127.132
green,대창,공원,서울특별시 도봉구,서울특별시 도봉구 창동 38-4,1500,,37.6443581,127.0522662
green,도원어린이공원,공원,서울특별시 용산구,서울특별시 용산구 도원동 21,1500,,37.53719,126.9548
green,모랫,공원,서울특별시 도봉구,서울특별시 도봉구 창동 30-1,1500,,37.646832,127.0517815
green,무궁화7,공원,서울특별시 송파구,서울특별시 송파구 가락동 134,1500,,37.49314,127.1271
green,무지개13,공원,서울특별시 강서구,서울특별시 강서구 가양동 1478-1,1500,,37.5649457,126.8518357
green,문화촌어린이공원2,공원,서울특별시 서대문구,서울특별시 서대문구 홍제동 277-82,1500,,37.59517,126.9474
green,반디,공원,서울특별시 노원구,서울특별시 노원구 상계 665,1500,,37.6543741,127.0563321
green,사촌공원,공원,서울특별시 용산구,서울특별시 용산구 이촌동 429,1500,,37.52062,126.9709
green,산철쭉,공원,서울특별시 노원구,서울특별시 노원구 상계 625,1500,,37.6543741,127.0563321
green,삼들,공원,서울특별시 노원구,서울특별시 노원구 상계 623,1500,,37.6543741,127.0563321
green,삼성은행나무근린공원,공원,서울특별시 강남구,서울특별시 강남구 삼성동 14,1500,,37.5165112,127.0457521
green,샘터1,공원,서울특별시 노원구,서울특별시 노원구 상계동 1255-1,1500,,37.681573,127.0536976
green,샛별1,공원,서울특별시 노원구,서울특별시 노원구 동일로250길 1,1500,,37.6827425,127.0579682
green,샛별13,공원,서울특별시 송파구,서울특별시 송파구 가락본동 51,1500,,37.498,127.1218
green,소망1,공원,서울특별시 노원구,서울특별시 노원구 상계 720-1,1500,,37.6543741,127.0563321
green,솔바람2,공원,서울특별시 송파구,서울특별시 송파구 장지동 843-1,1500,,37.47884,127.1295
green,숲속2,공원,서울특별시 양천구,서울특별시 양천구 신정3동 1322-10,1500,,37.51472,126.8301
green,쌍림공원,공원,서울특별시 중구,서울특별시 중구 광희동 242,1500,,37.56416,127.0086
green,아랫말1,공원,서울특별시 송파구,서울특별시 송파구 오금동 123-2,1500,,37.50475,127.1374
green,오동나무,공원,서울특별시 송파구,서울특별시 송파구 오금동 84,1500,,37.50627,127.1339
green,용화1,공원,서울특별시 노원구,서울특별시 노원구 상계 695-1,1500,,37.6543741,127.0563321
green,유만,공원,서울특별시 도봉구,서울특별시 도봉구 창동 33-4,1500,,37.6503824,127.0529489
green,이펜시아어린이공원,공원,서울특별시 구로구,서울특별시 구로구 천왕동 2-5,1500,,37.4829787,126.8462846
green,일원장미공원,공원,서울특별시 강남구,서울특별시 강남구 일원동 732-4,1500,,37.4807197,127.0807605
green,장암,공원,서울특별시 노원구,서울특별시 노원구 상계 1312-5,1500,,37.6543741,127.0563321
green,직녀,공원,서울특별시 성동구,서울특별시 성동구 하왕십리동 1070-5,1500,,37.56683,127.0279
green,진달래4,공원,서울특별시 강서구,서울특별시 강서구 가양동 1486-1,1500,,37.5623762,126.8609755
green,채송화2,공원,서울특별시 노원구,서울특별시 노원구 상계 737-1,1500,,37.6543741,127.0563321
green,큰솔,공원,서울특별시 송파구,서울특별시 송파구 오금동 47,1500,,37.50412,127.1279
green,파랑새2,공원,서울특별시 금천구,서울특별시 금천구 독산1동 1095-1,1500,,37.4549139,126.8888744
green,하늘마루,공원,서울특별시 양천구,서울특별시 양천구 신정3동 1316-2,1500,,37.51263,126.8316
green,학마을,공원,서울특별시 양천구,서울특별시 양천구 신정3동 1293-4,1500,,37.50896,126.8437
green,한우물공원2,공원,서울특별시 강동구,서울특별시 강동구 고덕2동 253,1500,,37.5614414,127.1626691
green,효성,공원,서울특별시 노원구,서울특별시 노원구 화랑로 556,1500,,37.6210368,127.0885397
green,훙이,공원,서울특별시 송파구,서울특별시 송파구 가락본동 14,1500,,37.50116,127.125
green,기린1,공원,서울특별시 노원구,서울특별시 노원구 상계 737-3,1500.1,,37.6543741,127.0563321
green,다람쥐4,공원,서울특별시 노원구,서울특별시 노원구 중계 360-3,1500.1,,37.6543741,127.0563321
green,물보라,공원,서울특별시 노원구,서울특별시 노원구 상계 756,1500.1,,37.6543741,127.0563321
green,배미골,공원,서울특별시 송파구,서울특별시 송파구 거여동 291-1,1500.1,,37.49086,127.1471
green,불암,공원,서울특별시 노원구,서울특별시 노원구 상계 1275-4,1500.1,,37.6543741,127.0563321
green,샛별2,공원,서울특별시 서초구,서울특별시 서초구 양재동 370-4,1500.1,,37.47031,127.0446
green,솔밭5,공원,서울특별시 송파구,서울특별시 송파구 방이동 214,1500.1,,37.5091,127.1236
green,수서개나리공원,공원,서울특별시 강남구,서울특별시 강남구 수서동 723-1,1500.1,,37.4875407,127.1054182
green,신기루,공원,서울특별시 노원구,서울특별시 노원구 동일로214길 2,1500.1,,37.6489441,127.0623842
green,안골9,공원,서울특별시 송파구,서울특별시 송파구 오금동 66-12,1500.1,,37.50287,127.1353
green,엄지1,공원,서울특별시 노원구,서울특별시 노원구 상계 720-4,1500.1,,37.6543741,127.0563321
green,온곡,공원,서울특별시 노원구,서울특별시 노원구 동일로 1456,1500.1,,37.6585333,127.0604049
green,일원진달래공원,공원,서울특별시 강남구,서울특별시 강남구 일원동 716-1,1500.1,,37.4847783,127.0847362
green,참새1,공원,서울특별시 노원구,서울특별시 노원구 상계 652-3,1500.1,,37.6543741,127.0563321
green,참새4,공원,서울특별시 금천구,서울특별시 금천구 독산1동 1088-2,1500.1,,37.4568776,126.8869013
green,청솔1,공원,서울특별시 노원구,서울특별시 노원구 공릉 110-2,1500.1,,37.6242071,127.087892
green,호돌이2,공원,서울특별시 노원구,서울특별시 노원구 상계동 622,1500.1,,37.6686105,127.050993
green,까치1,공원,서울특별시 노원구,서울특별시 노원구 상계동 741-1,1500.2,,37.6491262,127.0580983
green,꿈나무4,공원,서울특별시 강서구,서울특별시 강서구 방화동 840,1500.2,,37.5751091,126.8189403
green,비둘기9,공원,서울특별시 송파구,서울특별시 송파구 방이동 195,1500.2,,37.5128,127.1234
green,선녀,공원,서울특별시 노원구,서울특별시 노원구 상계 767-2,1500.2,,37.6543741,127.0563321
green,수서까치공원,공원,서울특별시 강남구,서울특별시 강남구 수서동 736-1,1500.2,,37.4871595,127.0979484
green,아동,공원,서울특별시 양천구,서울특별시 양천구 신월7동 922-1,1500.2,,37.52311,126.8333
green,은하수5,공원,서울특별시 노원구,서울특별시 노원구 우이천로 102,1500.2,,37.631234,127.0427123
green,일원새싹공원,공원,서울특별시 강남구,서울특별시 강남구 수서동 746-1,1500.2,,37.4847939,127.0890893
green,한아름2,공원,서울특별시 노원구,서울특별시 노원구 상계동 692-3,1500.2,,37.6575418,127.06131
green,감나무,공원,서울특별시 노원구,서울특별시 노원구 상계 742-2,1500.3,,37.6543741,127.0563321
green,돌샘2,공원,서울특별시 강서구,서울특별시 강서구 방화동 837,1500.3,,37.5760821,126.8189362
green,복숭아,공원,서울특별시 송파구,서울특별시 송파구 오금동 27,1500.3,,37.50685,127.1314
green,송림1,공원,서울특별시 노원구,서울특별시 노원구 공릉 106-3,1500.3,,37.6543741,127.0563321
green,용마,공원,서울특별시 송파구,서울특별시 송파구 마천동 45,1500.3,,37.49983,127.1486
green,일원은행나무공원,공원,서울특별시 강남구,서울특별시 강남구 일원동 615-2,1500.3,,37.4920163,127.0769582
green,임금샘,공원,서울특별시 송파구,서울특별시 송파구 방이동 189,1500.3,,37.51102,127.1251
green,개미2,공원,서울특별시 송파구,서울특별시 송파구 거여동 29,1500.4,,37.49233,127.1465
green,수서은행나무공원,공원,서울특별시 강남구,서울특별시 강남구 수서동 707-1,1500.4,,37.4912641,127.0997536
green,영풍,공원,서울특별시 송파구,서울특별시 송파구 거여동 16,1500.4,,37.49513,127.1425
green,일원상록수공원,공원,서울특별시 강남구,서울특별시 강남구 일원동 734-1,1500.4,,37.4821276,127.0822132
green,안산골,공원,서울특별시 송파구,서울특별시 송파구 가락동 152-3,1500.5,,37.49766,127.1267
green,개포개나리공원,공원,서울특별시 강남구,서울특별시 강남구 개포동 190,1500.6,,37.4852977,127.0716247
green,비석,공원,서울특별시 서초구,서울특별시 서초구 양재동 90-1,1500.6,,37.47876,127.0411
green,일원소나무공원,공원,서울특별시 강남구,서울특별시 강남구 일원동 718-1,1500.6,,37.4840885,127.0817821
green,샛팽이,공원,서울특별시 송파구,서울특별시 송파구 가락동 170-6,1500.7,,37.49686,127.1341
green,거여2(거마재정비),공원,서울특별시 송파구,서울특별시 송파구 마천동 327-7 일대,1501,,37.49105,127.1568
green,목련어린이공원5,공원,서울특별시 마포구,서울특별시 마포구 상암동1742,1501,,37.5873746,126.880228
green,원묵,공원,서울특별시 중랑구,서울특별시 중랑구 묵1 13-1,1501,,37.60674,127.0929
green,일원비둘기공원,공원,서울특별시 강남구,서울특별시 강남구 일원동 735-1,1501,,37.4833103,127.0859979
green,철쭉3,공원,서울특별시 금천구,서울특별시 금천구 독산1동 1112,1501.6,,37.4530398,126.8898402
green,늘푸른4,공원,서울특별시 노원구,서울특별시 노원구 상계 1265-1,1502,,37.6543741,127.0563321
green,벌말5,공원,서울특별시 송파구,서울특별시 송파구 오금동 132,1502.1,,37.50183,127.14
green,투구봉,공원,서울특별시 송파구,서울특별시 송파구 가락동 185,1502.9,,37.49404,127.1354
green,늘푸른6,공원,서울특별시 동작구,서울특별시 동작구 사당동 산32-76,1503,,37.4823938,126.9691753
green,귀리어린이공원,공원,서울특별시 마포구,서울특별시 마포구 상암동 1681,1504,,37.5814773,126.8806899
green,한림2,공원,서울특별시 송파구,서울특별시 송파구 장지동 834-2,1504,,37.48549,127.1328
green,천보,공원,서울특별시 노원구,서울특별시 노원구 중계로 184,1504.1,,37.6518634,127.0795389
green,(가칭)모아미래도소공원,공원,서울특별시 영등포구,서울특별시 영등포구 문래동5가 67-2,1505,,37.51655,126.8871
green,개나리6,공원,서울특별시 노원구,서울특별시 노원구 동일로228길 23,1506,,37.6691151,127.0586166
green,암산,공원,서울특별시 서초구,서울특별시 서초구 우면동 46-12,1506,,37.47329,127.0257
green,꿈돌이1,공원,서울특별시 강서구,서울특별시 강서구 화곡동 24-128,1507,,37.5458979,126.8453608
green,오봉산,공원,서울특별시 송파구,서울특별시 송파구 석촌동 162,1508,,37.5062,127.1025
green,큰바위,공원,서울특별시 송파구,서울특별시 송파구 거여동 7,1508.1,,37.49812,127.1426
green,예촌,공원,서울특별시 관악구,서울특별시 관악구 남현동 1083-1,1509,,37.4745845,126.9767443
green,연촌,공원,서울특별시 노원구,서울특별시 노원구 월계 322-4,1509.7,,37.6543741,127.0563321
green,꽃동네1,공원,서울특별시 강서구,서울특별시 강서구 가양동 1461-1,1510,,37.5701972,126.8470687
green,노고산소공원,공원,서울특별시 마포구,서울특별시 마포구 노고산동 57-53,1510,,37.5549032,126.9349371
green,신이,공원,서울특별시 양천구,서울특별시 양천구 신정3동 1284-1,1510.3,,37.51254,126.8376
green,부엉바위어린이공원,공원,서울특별시 마포구,서울특별시 마포구 상암동 1636,1511,,37.5753894,126.8924754
green,메아리,공원,서울특별시 강서구,서울특별시 강서구 방화동 826,1511.6,,37.5786134,126.8143791
green,엄지2,공원,서울특별시 강서구,서울특별시 강서구 가양동 1474-1,1511.6,,37.5658027,126.8547316
green,개화2,공원,서울특별시 강서구,서울특별시 강서구 방화동 818,1512.2,,37.5802798,126.8125412
green,향나무,공원,서울특별시 송파구,서울특별시 송파구 거여동 293-2,1512.4,,37.4897,127.1443
green,느티,공원,서울특별시 강서구,서울특별시 강서구 방화동 799,1512.9,,37.5793834,126.8103139
green,범바위3,공원,서울특별시 성북구,서울특별시 성북구 안암동2가 140-3,1514,,37.58531,127.0216
green,종암,공원,서울특별시 성북구,서울특별시 성북구 종암동 104-6,1514,,37.60017,127.0372
green,왕십리KCC스위첸,공원,서울특별시 성동구,서울특별시 성동구 하왕십리동 1002-1,1514.1,,37.56052,127.0258
green,태양4,공원,서울특별시 동작구,서울특별시 동작구 상도동 527-1외 2,1514.5,,37.5066588,126.94466
green,누원,공원,서울특별시 도봉구,서울특별시 도봉구 도봉동 653,1515,,37.6803994,127.0500507
green,중앙4,공원,서울특별시 금천구,서울특별시 금천구 시흥1동 791,1515,,37.4456762,126.9002219
green,동문,공원,서울특별시 서초구,서울특별시 서초구 우면동 70-1,1515.2,,37.47268,127.0268
green,새싹1,공원,서울특별시 노원구,서울특별시 노원구 중계 359-2,1516.9,,37.6543741,127.0563321
green,능동정자마당공원,공원,서울특별시 광진구,서울특별시 광진구 능동 369-12,1518,,37.5534325,127.0793475
green,자주바위,공원,서울특별시 성북구,서울특별시 성북구 보문동6가 458-3,1519.3,,37.58002,127.0177
green,능말,공원,서울특별시 강서구,서울특별시 강서구 방화동 815,1520.7,,37.5779717,126.810608
green,동자공원2,공원,서울특별시 강동구,서울특별시 강동구 상일동 132,1520.8,,37.5523716,127.167026
green,물치어린이공원,공원,서울특별시 마포구,서울특별시 마포구 상암동 1656,1522,,37.5777069,126.8878787
green,문현,공원,서울특별시 송파구,서울특별시 송파구 장지동 838-1,1523,,37.48122,127.1282
green,응암4동어린이공원,공원,서울특별시 은평구,서울특별시 은평구 응암 742-9,1526,,37.60277,126.9289
green,개뜰,공원,서울특별시 서초구,서울특별시 서초구 양재동 260,1530.4,,37.474,127.0412
green,서갈현어린이공원,공원,서울특별시 은평구,서울특별시 은평구 갈현 434-38,1532.2,,37.60277,126.9289
green,신기,공원,서울특별시 양천구,서울특별시 양천구 신정3동 1260,1534,,37.51405,126.8543
green,예지공원,공원,서울특별시 강남구,서울특별시 강남구 개포동 12-7,1535.9,,37.4918352,127.073387
green,방아다리1,공원,서울특별시 동대문구,서울특별시 동대문구 제기동 132-1,1537,,37.585082,127.0348458
green,배꽃1,공원,서울특별시 노원구,서울특별시 노원구 공릉 123-1,1537.2,,37.6543741,127.0563321
green,갓바위1,공원,서울특별시 노원구,서울특별시 노원구 중계 369-6,1538.1,,37.6543741,127.0563321
green,푸르매,공원,서울특별시 강서구,서울특별시 강서구 등촌동 705-3,1538.3,,37.5590469,126.8475121
green,구름공원1,공원,서울특별시 강동구,서울특별시 강동구 강일동 378,1540,,37.5658802,127.1788743
green,뻐꾸기,공원,서울특별시 노원구,서울특별시 노원구 하계 256-3,1540.2,,37.6543741,127.0563321
green,채송화1,공원,서울특별시 강서구,서울특별시 강서구 등촌동 694-1,1544.9,,37.5627628,126.8460514
green,호돌이3,공원,서울특별시 송파구,서울특별시 송파구 문정동 150-11,1545.1,,37.48748,127.1134
green,백합3,공원,서울특별시 강서구,서울특별시 강서구 등촌동 695-4,1547.4,,37.5592476,126.8450077
green,이화1,공원,서울특별시 노원구,서울특별시 노원구 중계 363-8,1550.7,,37.6543741,127.0563321
green,홍은동어린이공원,공원,서울특별시 서대문구,서울특별시 서대문구 홍은동 8-158,1552,,37.60164,126.9503
green,볕우물공원,공원,서울특별시 강동구,서울특별시 강동구 암사1동 453-8,1552.8,,37.5535539,127.1359457
green,복사꽃어린이공원,공원,서울특별시 마포구,서울특별시 마포구 도화동 533,1553,,37.5390228,126.9465236
green,상록4,공원,서울특별시 관악구,서울특별시 관악구 남현동 602-196,1557,,37.4728948,126.9803737
green,호순이,공원,서울특별시 송파구,서울특별시 송파구 문정동 150-3,1560.2,,37.48988,127.1171
green,세양,공원,서울특별시 양천구,서울특별시 양천구 신정7동 1306-2,1560.7,,37.50679,126.8641
green,몽촌,공원,서울특별시 송파구,서울특별시 송파구 방이동 150,1560.8,,37.51293,127.1149
green,풀피리,공원,서울특별시 강서구,서울특별시 강서구 가양동 1481-1,1562,,37.5636471,126.8545043
green,새나라1,공원,서울특별시 강서구,서울특별시 강서구 등촌동 707-2,1563.4,,37.5615687,126.8520347
green,꿈나라2,공원,서울특별시 성북구,서울특별시 성북구 보문동7가 108-2,1564,,37.58006,127.023
green,새벗,공원,서울특별시 강서구,서울특별시 강서구 등촌동 688-3,1565.8,,37.5607062,126.8402993
green,꿈동산8,공원,서울특별시 동대문구,서울특별시 동대문구 답십리동 1002-1,1570.7,,37.5732867,127.0458432
green,충현공원2,공원,서울특별시 중구,서울특별시 중구 다산동 432-540,1571,,37.55216,127.0049
green,효자2,공원,서울특별시 도봉구,서울특별시 도봉구 창동 27-2,1573,,37.6500605,127.0510152
green,살구골2,공원,서울특별시 성동구,서울특별시 성동구 행당동 376-3,1573.9,,37.55524,127.0318
green,무지개16,공원,서울특별시 노원구,서울특별시 노원구 공릉 89,1575.1,,37.6543741,127.0563321
green,선린공원,공원,서울특별시 강동구,서울특별시 강동구 성내3동 424,1575.2,,37.5283555,127.1328084
green,아랑,공원,서울특별시 송파구,서울특별시 송파구 송파동 44,1575.3,,37.50815,127.1094
green,늘푸른8,공원,서울특별시 성북구,서울특별시 성북구 길음1동 1284-14,1580,,37.60852,127.0203
green,길섶근린공원,공원,서울특별시 강남구,서울특별시 강남구 역삼동 757-1,1580.6,,37.4975875,127.0488994
green,연서어린이공원1,공원,서울특별시 서대문구,서울특별시 서대문구 연희동 519-7,1582,,37.57212,126.9233
green,도봉1동(2),공원,서울특별시 도봉구,서울특별시 도봉구 도봉동 638-1,1583,,37.6863584,127.0404396
green,새쟁이,공원,서울특별시 서초구,서울특별시 서초구 신원동 9-2,1586,,37.43558,127.0687
green,매봉1,공원,서울특별시 노원구,서울특별시 노원구 월계로55길 49,1587,,37.6332306,127.0590581
green,보림,공원,서울특별시 동대문구,서울특별시 동대문구 휘경동 179-9,1592,,37.5924233,127.0613839
green,새장터공원,공원,서울특별시 강동구,서울특별시 강동구 암사1동 468-2,1592,,37.5521195,127.1308015
green,샘터2,공원,서울특별시 중랑구,서울특별시 중랑구 면목4 656,1592,,37.60674,127.0929
green,배꽃근린공원,공원,서울특별시 강남구,서울특별시 강남구 삼성동 11-3,1592.9,,37.5162856,127.0446012
green,거북이,공원,서울특별시 송파구,서울특별시 송파구 송파동 243-1,1594,,37.50174,127.1195
green,위례어린이공원1호,공원,서울특별시 송파구,서울특별시 송파구 거여동 산71-14잡 일원,1594,,37.49071,127.1534
green,코끼리,공원,서울특별시 강서구,서울특별시 강서구 등촌동 702-1,1594.5,,37.5632378,126.8485568
green,매화7,공원,서울특별시 성북구,서울특별시 성북구 북악산로15길 42,1595,,37.60001,127.0207
green,굴렁쇠,공원,서울특별시 송파구,서울특별시 송파구 문정동 150-6,1596.1,,37.49026,127.1124
green,길마어린이공원,공원,서울특별시 은평구,서울특별시 은평구 갈현 474-1,1596.7,,37.60277,126.9289
green,능안4,공원,서울특별시 송파구,서울특별시 송파구 거여동 296-2,1597.8,,37.48842,127.144
green,늘푸른7,공원,서울특별시 서초구,서울특별시 서초구 잠원동 70-7,1600,,37.5083,127.0055
green,맑은숲,공원,서울특별시 성북구,서울특별시 성북구 장위동 317-1,1601,,37.62043,127.0465
green,까치9,공원,서울특별시 관악구,서울특별시 관악구 행운4길 2,1602,,37.47997,126.9595
green,응암3재건축구역내어린이공원,공원,서울특별시 은평구,서울특별시 은평구 응암동 240-7,1602,,37.59314,126.9217
green,광석,공원,서울특별시 노원구,서울특별시 노원구 중계동 364-11,1603.1,,37.6489071,127.0794281
green,까치6,공원,서울특별시 동작구,서울특별시 동작구 사당동 1028-1,1604.3,,37.4804855,126.9797731
green,꿈마을어린이공원2,공원,서울특별시 구로구,서울특별시 구로구 구로동 777-1,1609,,37.4872098,126.8900924
green,선사공원1,공원,서울특별시 강동구,서울특별시 강동구 암사3동 440,1610.3,,37.555912,127.1306782
green,곰돌이1,공원,서울특별시 강서구,서울특별시 강서구 가양동 1482-1,1612.3,,37.5623149,126.8574336
green,일원목련공원,공원,서울특별시 강남구,서울특별시 강남구 일원동 658,1613.8,,37.4914526,127.085582
green,앵무새,공원,서울특별시 노원구,서울특별시 노원구 하계 251-13,1614.1,,37.6543741,127.0563321
green,공릉2,공원,서울특별시 노원구,서울특별시 노원구 공릉2 230-9,1614.8,,37.6543741,127.0563321
green,필마,공원,서울특별시 강서구,서울특별시 강서구 화곡동 355-12,1615.5,,37.5314982,126.8388057
green,안산2,공원,서울특별시 서초구,서울특별시 서초구 방배동 979-44,1615.6,,37.4801,126.9925
green,당골,공원,서울특별시 서초구,서울특별시 서초구 서초동 1436-6,1616.2,,37.48559,127.0227
green,천사공원2,공원,서울특별시 강동구,서울특별시 강동구 천호2동 363-5,1617.2,,37.5440199,127.1284739
green,한내3,공원,서울특별시 동대문구,서울특별시 동대문구 장안동 348,1617.2,,37.5678301,127.0711559
green,가락1(시영아파트),공원,서울특별시 송파구,서울특별시 송파구 가락동 479,1617.7,,37.49777,127.1067
green,대치은행나무공원,공원,서울특별시 강남구,서울특별시 강남구 대치동 899-25,1618.7,,37.5018352,127.0516051
green,꿈에그린어린이공원,공원,서울특별시 영등포구,서울특별시 영등포구 신길5동 4937-1,1619,,37.50318,126.9088
green,말우물공원,공원,서울특별시 강동구,서울특별시 강동구 고덕2동 178,1619.1,,37.5598863,127.1695796
green,고분다리공원,공원,서울특별시 강동구,서울특별시 강동구 천호2동 300,1621.8,,37.5455309,127.1317607
green,현석어린이공원,공원,서울특별시 마포구,서울특별시 마포구 현석동 1-5,1622,,37.5443463,126.9332994
green,비둘기4,공원,서울특별시 강서구,서울특별시 강서구 가양동 1489-1,1622.8,,37.559494,126.8629661
green,꿈나라1,공원,서울특별시 노원구,서울특별시 노원구 중계 358-1,1623,,37.6543741,127.0563321
green,비석거리,공원,서울특별시 송파구,서울특별시 송파구 가락본동 96-15,1624.5,,37.49463,127.1176
green,방잇골,공원,서울특별시 송파구,서울특별시 송파구 방이동 70-1,1629.6,,37.51343,127.1103
green,소월길어린이공원,공원,서울특별시 용산구,서울특별시 용산구 이태원2동 463,1630,,37.54358,126.9892
green,배다리2,공원,서울특별시 강서구,서울특별시 강서구 화곡동341-24,1630.1,,37.532114,126.8483227
green,햇빛,공원,서울특별시 노원구,서울특별시 노원구 상계동 646,1631.2,,37.6666061,127.060297
green,다사랑어린이공원,공원,서울특별시 영등포구,서울특별시 영등포구 대림2동 703-6,1632,,37.49278,126.8994
green,역삼개나리공원,공원,서울특별시 강남구,서울특별시 강남구 역삼동 739-15,1635,,37.4977179,127.0360845
green,미나리2,공원,서울특별시 동대문구,서울특별시 동대문구 장안동 449,1636.3,,37.5637061,127.0680831
green,역삼장미공원,공원,서울특별시 강남구,서울특별시 강남구 역삼동 780-25,1636.6,,37.4953464,127.0447436
green,광나루공원,공원,서울특별시 강동구,서울특별시 강동구 암사2동 515,1637.7,,37.550187,127.1253464
green,(가칭)신길5재정비촉진구역소공원,공원,서울특별시 영등포구,서울특별시 영등포구 신길동 1980-1,1638,,37.50184,126.9168
green,밤섬문화공원,공원,서울특별시 마포구,서울특별시 마포구 신정동 76-1,1638,,37.5428378,126.9318838
green,샛별12,공원,서울특별시 성북구,서울특별시 성북구 석관동 168-86,1638,,37.61406,127.0643
green,석촌,공원,서울특별시 송파구,서울특별시 송파구 석촌동 27,1638.4,,37.50594,127.0998
green,개포목련공원,공원,서울특별시 강남구,서울특별시 강남구 개포동 1176,1639.1,,37.4742787,127.0524509
green,삼성목련공원,공원,서울특별시 강남구,서울특별시 강남구 삼성동 55-1,1641.4,,37.5185683,127.0539273
green,응암3주택재개발구역내소공원,공원,서울특별시 은평구,서울특별시 은평구 응암동 762-4,1641.6,,37.59862,126.9259
green,개포은행나무공원,공원,서울특별시 강남구,서울특별시 강남구 개포동 1220,1641.7,,37.4760356,127.0490596
green,신사무궁화공원,공원,서울특별시 강남구,서울특별시 강남구 신사동 625-5,1641.8,,37.5241568,127.0319432
green,새말소공원2,공원,서울특별시 영등포구,서울특별시 영등포구 당산동4가 80-6,1642,,37.5313,126.8976
green,중계1동소공원,공원,서울특별시 노원구,서울특별시 노원구 중계1동 421-67외4,1642,,37.6499262,127.0692165
green,청담목련공원,공원,서울특별시 강남구,서울특별시 강남구 청담동 51,1642.1,,37.5229956,127.0498327
green,청담은행나무공원,공원,서울특별시 강남구,서울특별시 강남구 청담동 94-4,1643.8,,37.5251566,127.0440581
green,삼전1,공원,서울특별시 송파구,서울특별시 송파구 삼전동 51,1644.7,,37.50181,127.0902
green,샛말3,공원,서울특별시 서초구,서울특별시 서초구 우면동 732,1644.7,,37.46191,127.0246
green,긴등마을,공원,서울특별시 강서구,서울특별시 강서구 공항동 4-36,1645.3,,37.5620835,126.8156711
green,도화소어린이공원,공원,서울특별시 마포구,서울특별시 마포구 도화동 540,1646,,37.5410864,126.9455441
green,동산공원3,공원,서울특별시 강동구,서울특별시 강동구 천호2동 305-11,1646,,37.5471285,127.1296938
green,삼밭,공원,서울특별시 송파구,서울특별시 송파구 삼전동 70,1646.1,,37.49951,127.0928
green,쌀섬,공원,서울특별시 송파구,서울특별시 송파구 잠실본동 319,1646.7,,37.50402,127.0824
green,응삼,공원,서울특별시 성동구,서울특별시 성동구 응봉동 15-1,1646.7,,37.55464,127.0352
green,원당4,공원,서울특별시 관악구,서울특별시 관악구 봉천동 196-2,1647,,37.4748655,126.9635015
green,역삼은행나무공원,공원,서울특별시 강남구,서울특별시 강남구 역삼동 611,1647.1,,37.5054455,127.0312574
green,구암공원4,공원,서울특별시 강동구,서울특별시 강동구 암사3동 449-8,1647.8,,37.5565485,127.1376089
green,삼학사,공원,서울특별시 송파구,서울특별시 송파구 삼전동 110-7,1648,,37.50616,127.0955
green,대치목련공원,공원,서울특별시 강남구,서울특별시 강남구 대치동 929-10,1649.1,,37.4998083,127.0584278
green,국지,공원,서울특별시 관악구,서울특별시 관악구 국회단지19길 23,1650,,37.49006,126.9406
green,구룡,공원,서울특별시 서초구,서울특별시 서초구 양재동 399,1651.3,,37.47155,127.0487
green,평화5,공원,서울특별시 송파구,서울특별시 송파구 방이동 42-2,1651.3,,37.5163,127.112
green,안골7,공원,서울특별시 동대문구,서울특별시 동대문구 장안동 402,1652.3,,37.565352,127.0642819
green,장미9,공원,서울특별시 동대문구,서울특별시 동대문구 장안동 386,1652.8,,37.57168,127.0691837
green,논현개나리공원,공원,서울특별시 강남구,서울특별시 강남구 논현동 150-5,1652.9,,37.5113184,127.0299259
green,샛별10,공원,서울특별시 동대문구,서울특별시 동대문구 장안동 379,1652.9,,37.5679804,127.0673619
green,개나리어린이공원6,공원,서울특별시 서대문구,서울특별시 서대문구 남가좌동 377-3,1653,,37.5778046,126.9177764
green,늘푸른5,공원,서울특별시 동대문구,서울특별시 동대문구 장안동 303,1653.1,,37.576213,127.0715726
green,어사,공원,서울특별시 송파구,서울특별시 송파구 송파동 129,1653.4,,37.50731,127.113
green,백설2,공원,서울특별시 관악구,서울특별시 관악구 관악로6길 50,1655,,37.47628,126.9535
green,천장,공원,서울특별시 동대문구,서울특별시 동대문구 이문동 264-181,1656,,37.5986068,127.0537868
green,청구공원4,공원,서울특별시 중구,서울특별시 중구 청구동 842-1,1656,,37.55562,127.0138
green,마로니에,공원,서울특별시 동대문구,서울특별시 동대문구 장안동 325,1656.2,,37.5750135,127.0737158
green,청두,공원,서울특별시 서초구,서울특별시 서초구 방배동 463-14,1657.9,,37.48062,126.985
green,늘봄2,공원,서울특별시 동대문구,서울특별시 동대문구 장안동 343,1659.2,,37.5714532,127.0724241
green,부렴,공원,서울특별시 송파구,서울특별시 송파구 잠실본동 296,1659.8,,37.50563,127.0792
green,비안,공원,서울특별시 관악구,서울특별시 관악구 봉천동 1530-14,1661,,37.4808037,126.9401732
green,(가칭)신길11재정비촉진구역소공원,공원,서울특별시 영등포구,서울특별시 영등포구 신길동 4945-1,1661.4,,37.50465,126.9066
green,장미6,공원,서울특별시 강서구,서울특별시 강서구 공항동668,1661.5,,37.556695,126.8138324
green,잔디,공원,서울특별시 서초구,서울특별시 서초구 양재동 205-4,1664.3,,37.4664,127.0356
green,가좌어린이공원,공원,서울특별시 서대문구,서울특별시 서대문구 남가좌동 376-4,1665,,37.5758381,126.9204879
green,모래내,공원,서울특별시 관악구,서울특별시 관악구 봉천동 1613-19,1667,,37.4778146,126.9556256
green,새마을2,공원,서울특별시 송파구,서울특별시 송파구 잠실본동 209-4,1667.3,,37.50823,127.0866
green,광진공원,공원,서울특별시 강동구,서울특별시 강동구 천호2동 338-19,1672.7,,37.5431385,127.1226111
green,신세계,공원,서울특별시 양천구,서울특별시 양천구 신정2동 119-3,1674,,37.52171,126.8759
green,새빛1,공원,서울특별시 동작구,서울특별시 동작구 사당동 164-1,1680,,37.4874153,126.9746583
green,약수암,공원,서울특별시 관악구,서울특별시 관악구 약수암길 33,1680,,37.45958,126.933
green,푸른6,공원,서울특별시 성동구,서울특별시 성동구 금호동4가 235-3,1681.8,,37.54706,127.0235
green,묵동,공원,서울특별시 중랑구,서울특별시 중랑구 묵1 396-1,1687,,37.60674,127.0929
green,한샘2,공원,서울특별시 송파구,서울특별시 송파구 문정동 66,1688,,37.4848,127.125
green,큰골근린공원,공원,서울특별시 강남구,서울특별시 강남구 대치동 888-3,1688.1,,37.4938491,127.0546351
green,개포까치공원,공원,서울특별시 강남구,서울특별시 강남구 개포동 169-3,1690.2,,37.4838183,127.06115
green,쉼터1,공원,서울특별시 동대문구,서울특별시 동대문구 답십리동 952-5,1695,,37.5648279,127.0595569
green,두둑재,공원,서울특별시 서초구,서울특별시 서초구 양재동 357,1703.8,,37.46795,127.044
green,청계꿈나무,공원,서울특별시 성동구,서울특별시 성동구 하왕십리동 1068,1705,,37.5677,127.0278
green,곰말,공원,서울특별시 송파구,서울특별시 송파구 방이동 139,1707.2,,37.51178,127.1178
green,도곡목련공원,공원,서울특별시 강남구,서울특별시 강남구 도곡동 415-3,1709.2,,37.4849447,127.0443107
green,천왕역소공원,공원,서울특별시 구로구,서울특별시 구로구 천왕동 13-56,1712,,37.4848218,126.840354
green,돌마리,공원,서울특별시 송파구,서울특별시 송파구 석촌동 258,1715.6,,37.50052,127.1034
green,코아,공원,서울특별시 서초구,서울특별시 서초구 잠원동 72-4,1717,,37.50903,127.0041
green,느티나무5,공원,서울특별시 동대문구,서울특별시 동대문구 용두동 138-61,1719,,37.5790263,127.0325465
green,꿈나래1,공원,서울특별시 동작구,서울특별시 동작구 상도동 36-1,1720.2,,37.5055033,126.9484652
green,섶다리,공원,서울특별시 서초구,서울특별시 서초구 우면동 716,1729.5,,37.46369,127.0275
green,(가칭)신길14재정비촉진구역소공원,공원,서울특별시 영등포구,서울특별시 영등포구 신길동 4955-3,1732,,37.50434,126.906
green,이촌공원1,공원,서울특별시 용산구,서울특별시 용산구 이촌2동 301-60,1736,,37.52308,126.9558
green,영도1,공원,서울특별시 동작구,서울특별시 동작구 상도동 535-6,1737,,37.5034291,126.9411994
green,진달래7,공원,서울특별시 송파구,서울특별시 송파구 잠실본동 338,1738.1,,37.50372,127.0863
green,꽃사과,공원,서울특별시 양천구,서울특별시 양천구 신정1동 313-2,1738.6,,37.52013,126.8647
green,갈곡리어린이공원,공원,서울특별시 은평구,서울특별시 은평구 갈현 436-51,1738.7,,37.60277,126.9289
green,광명,공원,서울특별시 강서구,서울특별시 강서구 내발산동 221-1,1739,,37.5521435,126.830869
green,모랫말,공원,서울특별시 성북구,서울특별시 성북구 하월곡동 90-206,1740,,37.60486,127.0328
green,인왕공원,공원,서울특별시 종로구,서울특별시 종로구 무악동 55-1,1745.8,,37.57745,126.957
green,서교어린이공원,공원,서울특별시 마포구,서울특별시 마포구 서교동 391-1,1761,,37.5519051,126.9154009
green,솔바람1,공원,서울특별시 동대문구,서울특별시 동대문구 용두동 794-1,1763.2,,37.579875,127.0305656
green,은행나무2,공원,서울특별시 강서구,서울특별시 강서구 내발산동 753-1,1764.4,,37.5521583,126.8232862
green,강변공원4,공원,서울특별시 용산구,서울특별시 용산구 이촌동 408,1766,,37.52133,126.975
green,모래내어린이공원,공원,서울특별시 서대문구,서울특별시 서대문구 남가좌동 383-2,1766.3,,37.5722,126.9138
green,암사공원1,공원,서울특별시 강동구,서울특별시 강동구 암사1동 산59-2,1780,,37.5528473,127.1379005
green,민들레3,공원,서울특별시 노원구,서울특별시 노원구 상계 667,1780.2,,37.6543741,127.0563321
green,방현,공원,서울특별시 서초구,서울특별시 서초구 방배동 537-50,1781.5,,37.47846,126.9917
green,소라,공원,서울특별시 서초구,서울특별시 서초구 방배동 997-1,1782.4,,37.47834,127.003
green,벌집,공원,서울특별시 성북구,서울특별시 성북구 종암동 134-3,1788,,37.59964,127.0367
green,한마음8,공원,서울특별시 강서구,서울특별시 강서구 등촌동 690-3,1791.8,,37.5606618,126.8431183
green,솔빛공원2,공원,서울특별시 종로구,서울특별시 종로구 송월동 145-3,1793.3,,37.56996,126.9655
green,도곡까치공원,공원,서울특별시 강남구,서울특별시 강남구 도곡동 455,1793.8,,37.4831496,127.0451702
green,개웅어린이공원,공원,서울특별시 구로구,서울특별시 구로구 개봉동 340-8,1797,,37.4900903,126.8530165
green,새싹16,공원,서울특별시 관악구,서울특별시 관악구 양녕로6다길 11-4,1797,,37.4845,126.9494
green,서강어린이공원,공원,서울특별시 영등포구,서울특별시 영등포구 영등포동8가 28,1797,,37.52589,126.9059
green,샘터근린공원,공원,서울특별시 강남구,서울특별시 강남구 삼성동 16-4,1799.5,,37.5154167,127.0474628
green,꿈터공원,공원,서울특별시 강동구,서울특별시 강동구 강일동 429-1,1804,,37.5608891,127.1802647
green,까치산1,공원,서울특별시 강서구,서울특별시 강서구 화곡동 102-206,1805,,37.5382936,126.8444824
green,이수,공원,서울특별시 강서구,서울특별시 강서구 염창동 281-3,1805.1,,37.5482684,126.8743741
green,새싹14,공원,서울특별시 송파구,서울특별시 송파구 송파동 107,1806.4,,37.50488,127.1128
green,성삼,공원,서울특별시 성동구,서울특별시 성동구 성수동2가 273-11,1812.2,,37.54206,127.0602
green,제비,공원,서울특별시 동작구,서울특별시 동작구 대방동 362-11,1813.9,,37.5064355,126.9258879
green,오동나무어린이공원,공원,서울특별시 구로구,서울특별시 구로구 오류동 353-4,1815,,37.4856574,126.8382832
green,논현소나무공원,공원,서울특별시 강남구,서울특별시 강남구 논현동 239,1819.9,,37.5157139,127.0374367
green,대흥소공원,공원,서울특별시 마포구,서울특별시 마포구 대흥동 804-4,1820,,37.5485441,126.9411952
green,일원느티나무공원,공원,서울특별시 강남구,서울특별시 강남구 일원동 730-2,1825.7,,37.4830817,127.0774526
green,새꿈어린이공원,공원,서울특별시 용산구,서울특별시 용산구 동자동 8,1828,,37.55256,126.9745
green,신사2동공공공지,공원,서울특별시 은평구,서울특별시 은평구 신사2동 163-51,1848,,37.59006,126.9082
green,푸른_1,공원,서울특별시 서초구,서울특별시 서초구 반포동 1041,1851,,37.50094,126.9897
green,도리미소공원,공원,서울특별시 영등포구,서울특별시 영등포구 도림로 112나길 2,1859,,37.50939,126.9022
green,북가좌정원지구어린이공원,공원,서울특별시 서대문구,서울특별시 서대문구 북가좌동 459-1,1869,,37.57976,126.9168
green,흐리목,공원,서울특별시 동작구,서울특별시 동작구 상도동 531-2,1869.7,,37.4945062,126.9530411
green,논현무궁화공원,공원,서울특별시 강남구,서울특별시 강남구 논현동 205-7,1879.7,,37.5066753,127.0306986
green,버들8,공원,서울특별시 송파구,서울특별시 송파구 장지동 854-2,1886,,37.47875,127.1331
green,동산4,공원,서울특별시 서초구,서울특별시 서초구 양재동 376-3,1890.4,,37.47117,127.0452
green,까망돌,공원,서울특별시 동작구,서울특별시 동작구 흑석동 335-10,1904.5,,37.5066324,126.9640691
green,테두리,공원,서울특별시 강북구,서울특별시 강북구 삼각산동 811-8,1913,,37.6186212,127.0176931
green,사평리,공원,서울특별시 서초구,서울특별시 서초구 잠원동 51-3,1913.7,,37.51988,127.0148
green,불광6구역소공원,공원,서울특별시 은평구,서울특별시 은평구 불광동 638-3 일대,1919,,37.61228,126.9393
green,후창공원,공원,서울특별시 종로구,서울특별시 종로구 평창동 568-2,1920,,37.61014,126.9646
green,다동공원,공원,서울특별시 중구,서울특별시 중구 다동 51,1929,,37.56799,126.98
green,풀잎3,공원,서울특별시 강서구,서울특별시 강서구 공항동 705,1945,,37.5569837,126.8165667
green,큰더기어린이공원,공원,서울특별시 마포구,서울특별시 마포구 공덕동 470-1,1949,,37.5502009,126.9531905
green,문래소공원,공원,서울특별시 영등포구,서울특별시 영등포구 문래로8길 5,1954,,37.51975,126.8862
green,아름4,공원,서울특별시 강서구,서울특별시 강서구 가양동 1465,1956,,37.5686813,126.8486881
green,한무리,공원,서울특별시 노원구,서울특별시 노원구 공릉동 481-2,1963.7,,37.6305788,127.0735024
green,큰마을,공원,서울특별시 서초구,서울특별시 서초구 우면동 669,1964.4,,37.46693,127.0212
green,까치공원6,공원,서울특별시 강동구,서울특별시 강동구 상일동 177,1965.8,,37.5477593,127.1620866
green,무지개공원6,공원,서울특별시 강동구,서울특별시 강동구 고덕2동 219,1967.5,,37.5591817,127.1642111
green,매화6,공원,서울특별시 강서구,서울특별시 강서구 등촌동 630-14,1980.4,,37.5574405,126.860247
green,(가칭)신길5구역어린이공원,공원,서울특별시 영등포구,서울특별시 영등포구 신길7동 541,1981,,37.50312,126.9203
green,솔뫼2,공원,서울특별시 강서구,서울특별시 강서구 화곡동379-32,1981.5,,37.5379105,126.8385026
green,곰돌이공원,공원,서울특별시 강동구,서울특별시 강동구 고덕1동 308,1983,,37.5562238,127.1550085
green,도성근린공원,공원,서울특별시 강남구,서울특별시 강남구 역삼동 713-15,1988.8,,37.5002991,127.0488311
green,용말,공원,서울특별시 서초구,서울특별시 서초구 양재동 218-3,1994.5,,37.46299,127.0348
green,솔길어린이공원,공원,서울특별시 구로구,서울특별시 구로구 구로동 391-1,1999,,37.4892918,126.8806083
green,서당1,공원,서울특별시 중랑구,서울특별시 중랑구 묵1 20-1,2000,,37.60674,127.0929
green,솔,공원,서울특별시 강서구,서울특별시 강서구 외발산동 69-1,2000,,37.5482361,126.8203037
green,은하수8,공원,서울특별시 중랑구,서울특별시 중랑구 신내2 650-1,2000,,37.60674,127.0929
green,불천어린이공원,공원,서울특별시 서대문구,서울특별시 서대문구 홍제동 287-121,2006,,37.59731,126.9479
green,한아름3,공원,서울특별시 중랑구,서울특별시 중랑구 신내동 2 656-1,2006,,37.6125832,127.10079
green,매봉4,공원,서울특별시 성동구,서울특별시 성동구 옥수동 561-1,2006.7,,37.54525,127.0119
green,방아다리공원3,공원,서울특별시 강동구,서울특별시 강동구 명일2동 236,2010.4,,37.5479973,127.153766
green,산수유어린이공원2,공원,서울특별시 마포구,서울특별시 마포구 상암동1744,2011,,37.58548,126.8790109
green,꿈자람2,공원,서울특별시 강서구,서울특별시 강서구 공항동 484,2014,,37.5595678,126.8118967
green,파랑새공원3,공원,서울특별시 강동구,서울특별시 강동구 명일2동 258,2017.3,,37.5479766,127.1508804
green,은하수공원4,공원,서울특별시 강동구,서울특별시 강동구 명일2동 55,2018,,37.5505253,127.154473
green,이태원부군당,공원,서울특별시 용산구,서울특별시 용산구 이태원동 191-3,2020,,37.53603,126.9897
green,바우뫼2,공원,서울특별시 서초구,서울특별시 서초구 우면동 60,2023.7,,37.47067,127.0235
green,진달래공원4,공원,서울특별시 강동구,서울특별시 강동구 명일2동 43,2024,,37.5512878,127.151488
green,압구정목련공원,공원,서울특별시 강남구,서울특별시 강남구 압구정동 466,2027.2,,37.5320382,127.0337987
green,기린2,공원,서울특별시 양천구,서울특별시 양천구 신정6동 330-1,2029.7,,37.51363,126.8724
green,마포어린이공원,공원,서울특별시 마포구,서울특별시 마포구 마포동 350-5,2030,,37.5357908,126.9438083
green,햇살8,공원,서울특별시 노원구,서울특별시 노원구 월계동 563,2040.7,,37.6272157,127.0516796
green,물빛공원5,공원,서울특별시 은평구,서울특별시 은평구 갈현동 397,2051,,37.61893,126.9209
green,연희푸르지오어린이공원,공원,서울특별시 서대문구,서울특별시 서대문구 연희동 717-50,2053,,37.57666,126.93
green,햇빛2,공원,서울특별시 강서구,서울특별시 강서구 내발산동 384-2,2066,,37.5540963,126.834603
green,한빛미디어파크,공원,서울특별시 중구,서울특별시 중구 삼각동 118,2071,,37.56805,126.9851
green,삭새어린이공원,공원,서울특별시 구로구,서울특별시 구로구 궁동 237-6,2077,,37.4963394,126.82509
green,해맑은,공원,서울특별시 성북구,서울특별시 성북구 길음1동 591-17,2089,,37.60854,127.021
green,솔밭어린이공원2,공원,서울특별시 용산구,서울특별시 용산구 한강로1가 30-3,2090,,37.53723,126.9737
green,순화문화공원,공원,서울특별시 중구,서울특별시 중구 순화동 216-2,2103,,37.56011,126.9716
green,새움,공원,서울특별시 동대문구,서울특별시 동대문구 답십리동 1009-1,2107,,37.570805,127.0487162
green,비둘기8,공원,서울특별시 동작구,서울특별시 동작구 상도1동 558,2114.7,,37.5060266,126.9515795
green,활주로,공원,서울특별시 강서구,서울특별시 강서구 공항동1341,2116.4,,37.5543632,126.8158159
green,햇님2,공원,서울특별시 서초구,서울특별시 서초구 방배동 424-29,2119.1,,37.48295,126.9851
green,상록수2,공원,서울특별시 노원구,서울특별시 노원구 상계 663,2130,,37.6543741,127.0563321
green,무지개18,공원,서울특별시 성동구,서울특별시 성동구 성수동2가 844,2143,,37.54184,127.0529
green,까치7,공원,서울특별시 양천구,서울특별시 양천구 신정6동 328-1,2149.8,,37.515,126.8683
green,박미사랑,공원,서울특별시 금천구,서울특별시 금천구 시흥동 963-1,2162.6,,37.4376335,126.904498
green,성형촌,공원,서울특별시 서초구,서울특별시 서초구 우면동 211,2167,,37.46632,127.02
green,아름6,공원,서울특별시 성북구,서울특별시 성북구 길음1동 1284-1,2167,,37.60703,127.0194
green,고갯마루,공원,서울특별시 강북구,서울특별시 강북구 삼각산동 811-13,2185.8,,37.6164888,127.0169736
green,목동누리,공원,서울특별시 양천구,서울특별시 양천구 목3동 965-1,2190,,37.54593,126.8655
green,내수공원1,공원,서울특별시 종로구,서울특별시 종로구 내수동 73-3,2192.2,,37.57238,126.9716
green,풍림,공원,서울특별시 금천구,서울특별시 금천구 시흥1동 789,2195,,37.4478035,126.9012757
green,본동2,공원,서울특별시 동작구,서울특별시 동작구 본동 483,2195.5,,37.510593,126.9544113
green,화랑2,공원,서울특별시 성북구,서울특별시 성북구 석관동 407-6,2213,,37.60716,127.0548
green,기와터공원,공원,서울특별시 용산구,서울특별시 용산구 한강로3가 63-388,2225,,37.52578,126.9697
green,둔촌공원2,공원,서울특별시 강동구,서울특별시 강동구 둔촌2동 79-4,2226,,37.5314507,127.1433062
green,홍익문화공원2,공원,서울특별시 마포구,서울특별시 마포구 서교동 359,2230,,37.552266,126.9233291
green,하늬공원3,공원,서울특별시 강동구,서울특별시 강동구 상일동 175,2233.2,,37.5461205,127.1597058
green,한성어린이공원,공원,서울특별시 서대문구,서울특별시 서대문구 북아현동 147-48,2240.8,,37.559,126.9553
green,응암9어린이공원,공원,서울특별시 은평구,서울특별시 은평구 응암동 761-9,2244.3,,37.58705,126.923
green,다람쥐6,공원,서울특별시 양천구,서울특별시 양천구 신정6동 327-1,2265.5,,37.51353,126.866
green,명수어린이공원,공원,서울특별시 서대문구,서울특별시 서대문구 북아현동 210-24,2269,,37.56006,126.9508
green,밤골1,공원,서울특별시 도봉구,서울특별시 도봉구 창동 368,2279,,37.6487743,127.0457055
green,안말공원3,공원,서울특별시 강동구,서울특별시 강동구 성내3동 512,2290.3,,37.5281074,127.1333769
green,신도림어린이공원,공원,서울특별시 구로구,서울특별시 구로구 신도림동 646-1,2292,,37.510747,126.8883979
green,햇님3,공원,서울특별시 양천구,서울특별시 양천구 목5동 901-2,2299.5,,37.53996,126.8794
green,늘푸른어린이공원4,공원,서울특별시 용산구,서울특별시 용산구 원효로3가 1-139,2300,,37.53482,126.9568
green,뱃골,공원,서울특별시 도봉구,서울특별시 도봉구 창동 367,2319,,37.6465882,127.0450083
green,서원3,공원,서울특별시 관악구,서울특별시 관악구 서원3길 10,2324,,37.47687,126.9333
green,창천문화공원,공원,서울특별시 서대문구,서울특별시 서대문구 창천동 57-18,2326.9,,37.55682,126.9355
green,창원,공원,서울특별시 도봉구,서울특별시 도봉구 창동 307,2329,,37.6529927,127.0403478
green,도선,공원,서울특별시 성동구,서울특별시 성동구 홍익동 370,2332.5,,37.56544,127.0316
green,아름7,공원,서울특별시 송파구,서울특별시 송파구 석촌동 289-3,2338.7,,37.50335,127.1071
green,새나라어린이공원,공원,서울특별시 용산구,서울특별시 용산구 후암동 190-1,2340,,37.5479,126.9766
green,색동1,공원,서울특별시 강북구,서울특별시 강북구 수유1동 49-7,2341.2,,37.6331614,127.0206514
green,진달래6,공원,서울특별시 동대문구,서울특별시 동대문구 휘경동 49-384,2345,,37.5845337,127.06865
green,북아현어린이공원,공원,서울특별시 서대문구,서울특별시 서대문구 북아현동 216-59,2357.2,,37.55849,126.9517
green,잠원,공원,서울특별시 서초구,서울특별시 서초구 잠원동 62-5,2373.5,,37.51276,127.0101
green,무지개19,공원,서울특별시 양천구,서울특별시 양천구 목1동 925-1,2375.1,,37.52885,126.8671
green,안골6,공원,서울특별시 강서구,서울특별시 강서구 화곡동155-1,2381.8,,37.535788,126.8508686
green,화양동정자마당공원,공원,서울특별시 광진구,서울특별시 광진구 화양동 110-34,2382,,37.5465345,127.071805
green,샛별공원6,공원,서울특별시 강동구,서울특별시 강동구 성내1동 566,2391.6,,37.5270066,127.127054
green,해밀,공원,서울특별시 동작구,서울특별시 동작구 사당동 1157-1,2392,,37.4885302,126.974383
green,내수어울공원,공원,서울특별시 종로구,서울특별시 종로구 내수동 71-2,2392.1,,37.57361,126.9705
green,천사2,공원,서울특별시 강서구,서울특별시 강서구 화곡동 1139-1,2395.2,,37.5469026,126.8329991
green,감나무골공원1,공원,서울특별시 종로구,서울특별시 종로구 평창동 495-4,2403,,37.61275,126.9703
green,천일공원,공원,서울특별시 강동구,서울특별시 강동구 천호1동 221-3,2408,,37.5448712,127.1364194
green,당말공원,공원,서울특별시 강동구,서울특별시 강동구 천호3동 167-195,2409,,37.538919,127.1332405
green,신용산가로공원,공원,서울특별시 용산구,서울특별시 한강로2가 424-1,2410,,37.52951,126.9691
green,서강나루문화공원,공원,서울특별시 마포구,서울특별시 마포구 창전동 165-5,2429,,37.5452992,126.9310678
green,꿈나래2,공원,서울특별시 양천구,서울특별시 양천구 신정6동 329-2,2433.9,,37.51633,126.8698
green,공덕역어린이공원,공원,서울특별시 마포구,"서울특별시 마포구 공덕동 467-1,2,3",2435,,37.5451023,126.9513041
green,화곡2주구2,공원,서울특별시 강서구,서울특별시 강서구 화곡동1159-3,2438.2,,37.5487248,126.838697
green,화곡2주구1,공원,서울특별시 강서구,서울특별시 강서구 화곡동1159-2,2438.3,,37.5502023,126.838674
green,뉴타운1구역,공원,서울특별시 성동구,서울특별시 성동구 하왕십리동 1066-1,2452.4,,37.5689,127.0261
green,인덕마을,공원,서울특별시 노원구,서울특별시 노원구 월계2동 277-22,2470,,37.6315405,127.057278
green,효자5,공원,서울특별시 서초구,서울특별시 서초구 우면동 55,2481,,37.47352,127.0243
green,행복공원3,공원,서울특별시 강남구,서울특별시 강남구 세곡동 546,2483.5,,37.4672672,127.0971587
green,한마음공원10,공원,서울특별시 강남구,서울특별시 강남구 개포동 12-3,2488.1,,37.4960349,127.0758005
green,다솔,공원,서울특별시 강서구,서울특별시 강서구 공항동1361,2492.7,,37.5545959,126.8183587
green,목련6,공원,서울특별시 양천구,서울특별시 양천구 신정7동 325-2,2498.5,,37.51147,126.8583
green,와룡소공원,공원,서울특별시 구로구,서울특별시 구로구 온수동 155-3,2500,,37.4980783,126.8214665
green,지봉골공원,공원,서울특별시 종로구,서울특별시 종로구 창신동 산6-25,2508,,37.57888,127.0146
green,사슴2,공원,서울특별시 양천구,서울특별시 양천구 신정6동 332-1,2511.3,,37.5157,126.8734
green,뉴타운2구역,공원,서울특별시 성동구,서울특별시 성동구 상왕십리동 811-3,2517,,37.56916,127.026
green,사랑1,공원,서울특별시 노원구,서울특별시 노원구 상계 765-1,2540.3,,37.6543741,127.0563321
green,샛말2,공원,서울특별시 동대문구,서울특별시 동대문구 전농동 695-1,2545,,37.5774844,127.0501596
green,압구정은행나무공원,공원,서울특별시 강남구,서울특별시 강남구 압구정동 459,2547.4,,37.5307213,127.0314397
green,맑은소리,공원,서울특별시 성북구,"서울특별시 성북구 길음동 499, 일대",2549.1,,37.61088,127.0268
green,새내,공원,서울특별시 송파구,서울특별시 송파구 신천동 17-9,2550,,37.52083,127.1041
green,신정7동소공원,공원,서울특별시 양천구,서울특별시 양천구 신정7동 171-61,2553,,37.50927,126.8689
green,꿈누리공원3,공원,서울특별시 중구,서울특별시 중구 신당동 851-9,2569,,37.56064,127.0205
green,푸른7,공원,서울특별시 양천구,서울특별시 양천구 신정3동 1283-1,2574.9,,37.51149,126.8375
green,초롱1,공원,서울특별시 서초구,서울특별시 서초구 반포동 1088,2575,,37.49968,126.9875
green,꽃담소공원,공원,서울특별시 영등포구,서울특별시 영등포구 당산2동 4-23,2582,,37.52123,126.895
green,금동2,공원,서울특별시 성동구,서울특별시 성동구 금호동2가 1218,2591,,37.54974,127.0256
green,윤슬공원1,공원,서울특별시 강동구,서울특별시 강동구 강일동 448-1,2591,,37.5627352,127.1775279
green,너른바위어린이공원,공원,서울특별시 서대문구,서울특별시 서대문구 북아현동 216-37,2592.2,,37.55821,126.9523
green,반석,공원,서울특별시 도봉구,서울특별시 도봉구 창동 354,2596,,37.6471162,127.0412393
green,독립문어린이공원,공원,서울특별시 서대문구,서울특별시 서대문구 영천동 263,2600,,37.5716,126.9604
green,두텁바위어린이공원,공원,서울특별시 용산구,서울특별시 용산구 동자동 50,2623,,37.55206,126.9729
green,독막소공원,공원,서울특별시 마포구,서울특별시 마포구 대흥동 18-101일대,2626,,37.554478,126.9437709
green,아름드리1,공원,서울특별시 동대문구,서울특별시 동대문구 전농동 688-7,2626.5,,37.5791104,127.059683
green,토정어린이공원,공원,서울특별시 마포구,서울특별시 마포구 용강동 63-2,2631,,37.5405628,126.9434128
green,수유일공원,공원,서울특별시 강북구,서울특별시 강북구 수유1동 605-389,2632,,37.6306986,127.017047
green,대왕공원,공원,서울특별시 강남구,서울특별시 강남구 세곡동 526-2,2633.1,,37.4623589,127.1045992
green,삼각어린이공원3,공원,서울특별시 구로구,서울특별시 구로구 구로동 47,2634,,37.5013654,126.892043
green,상원,공원,서울특별시 성동구,서울특별시 성동구 성수동1가 715-1,2636,,37.5476,127.0472
green,세곡천공원,공원,서울특별시 강남구,서울특별시 강남구 세곡동 522-1,2645.1,,37.4631987,127.1012771
green,희망7,공원,서울특별시 동작구,서울특별시 동작구 동작동 333-3,2654.3,,37.4938074,126.9802817
green,한울2,공원,서울특별시 성북구,서울특별시 성북구 정릉2동 169-6,2675,,37.60576,127.0137
green,은곡마을공원,공원,서울특별시 강남구,서울특별시 강남구 세곡동 369-3,2686,,37.4680582,127.1004615
green,솔말,공원,서울특별시 서초구,서울특별시 서초구 우면동 793,2720,,37.45975,127.026
green,충현공원1,공원,서울특별시 강남구,서울특별시 강남구 역삼동 666-2,2721.8,,37.5046956,127.0365263
green,참샘골공원,공원,서울특별시 종로구,서울특별시 종로구 평창동 470,2737,,37.61511,126.9746
green,가곡,공원,서울특별시 강서구,서울특별시 강서구 내발산동 657-2,2747.9,,37.5559688,126.8377583
green,강월,공원,서울특별시 양천구,서울특별시 양천구 신월6동 1004,2755.6,,37.51557,126.8363
green,트리마제,공원,서울특별시 성동구,서울특별시 성동구 성수동1가 718,2762.8,,37.53871,127.0448
green,청진공원,공원,서울특별시 종로구,서울특별시 종로구 청진동 146-3,2802,,37.5714,126.9799
green,오솔길1,공원,서울특별시 서초구,서울특별시 서초구 반포동 30-28,2802.8,,37.50335,127.0147
green,꽃재,공원,서울특별시 성동구,서울특별시 성동구 하왕십리동 1069,2810,,37.56749,127.0283
green,구산동마을공원,공원,서울특별시 은평구,서울특별시 은평구 구산동 340-1,2811,,37.61464,126.9084
green,동심어린이공원4,공원,서울특별시 영등포구,서울특별시 영등포구 대림3동 742,2820,,37.49844,126.8973
green,연지공원3,공원,서울특별시 종로구,서울특별시 종로구 연지동 1-38,2827.6,,37.57573,127.0008
green,논골새싹,공원,서울특별시 성동구,서울특별시 성동구 행당동 347-2,2837.1,,37.55693,127.025
green,양평어린이공원,공원,서울특별시 영등포구,서울특별시 영등포구 양평2동 301-7,2845,,37.52448,126.8829
green,이태원어린이공원,공원,서울특별시 용산구,서울특별시 용산구 이태원2동 286-1,2858,,37.5384,126.9893
green,망원어린이공원,공원,서울특별시 마포구,서울특별시 마포구 망원동 458-64,2862,,37.5521271,126.9043068
green,방아다리3,공원,서울특별시 서초구,서울특별시 서초구 양재동 62,2870.8,,37.47833,127.0356
green,배재공원,공원,서울특별시 중구,서울특별시 중구 정동 34-31,2877,,37.56433,126.9723
green,개나리어린이공원7,공원,서울특별시 은평구,서울특별시 은평구 신사 237-177,2896,,37.60277,126.9289
green,새누리어린이공원,공원,서울특별시 마포구,서울특별시 마포구 상암동 1619,2897,,37.5754965,126.8981455
green,망우동,공원,서울특별시 중랑구,서울특별시 중랑구 망우본 583-2,2909,,37.60674,127.0929
green,솔숲,공원,서울특별시 성북구,서울특별시 성북구 정릉1동 170-10,2922,,37.60479,127.015
green,와우어린이공원,공원,서울특별시 마포구,서울특별시 마포구 상수동 72-7,2924,,37.5490045,126.9253339
green,방아다리4,공원,서울특별시 서초구,서울특별시 서초구 양재동 72,2934.3,,37.47806,127.0352
green,(가칭)영등포1-4구역역사공원,공원,서울특별시 영등포구,서울특별시 영등포구 영등포동7가 205-1,2962,,37.52254,126.9081
green,만남1,공원,서울특별시 서초구,서울특별시 서초구 반포동 842,2965,,37.50209,126.9849
green,참새5,공원,서울특별시 동작구,서울특별시 동작구 대방동 414-29 외 5,2982.7,,37.4981913,126.9219686
green,영도2,공원,서울특별시 양천구,서울특별시 양천구 목5동 903-2,2985.4,,37.53505,126.8729
green,애경어린이공원,공원,서울특별시 구로구,서울특별시 구로구 구로동 501-22,2996,,37.5002679,126.8845724
green,공릉3동소공원,공원,서울특별시 노원구,서울특별시 노원구 공릉3 318-3,3000,,37.6543741,127.0563321
green,신월2동소공원,공원,서울특별시 양천구,서울특별시 양천구 신월2동 1063-3,3001,,37.51765,126.8483
green,늘봄3,공원,서울특별시 송파구,서울특별시 송파구 장지동 123-1,3004.4,,37.4878,127.1379
green,합정어린이공원2,공원,서울특별시 마포구,서울특별시 마포구 서교동 489,3005,,37.5516681,126.9131409
green,개봉소공원,공원,서울특별시 구로구,서울특별시 구로구 개봉동 492-1,3023,,37.4995718,126.8495691
green,삼개어린이공원,공원,서울특별시 마포구,서울특별시 마포구 도화동 555-1,3029,,37.5405878,126.9452003
green,도하,공원,서울특별시 금천구,서울특별시 금천구 독산1동 1149,3057.7,,37.4587324,126.8953964
green,대현문화공원,공원,서울특별시 서대문구,서울특별시 서대문구 대현동 146,3063.9,,37.55767,126.9455
green,고추말어린이공원,공원,서울특별시 영등포구,서울특별시 영등포구 도림동 23-1,3071,,37.51164,126.9071
green,동화공원2,공원,서울특별시 중구,서울특별시 중구 신당동 852-4,3071,,37.56027,127.0181
green,응암1구역어린이공원,공원,서울특별시 은평구,서울특별시 은평구 응암동764-2,3090.1,,37.58901,126.9214
green,창2마을공원,공원,서울특별시 도봉구,서울특별시 도봉구 창동 582-22,3104,,37.6412642,127.0362836
green,신우어린이공원,공원,서울특별시 영등포구,서울특별시 영등포구 대림3동 657,3112,,37.50332,126.8992
green,나팔꽃,공원,서울특별시 노원구,서울특별시 노원구 월계로 372,3115.3,,37.630024,127.0603221
green,불광7구역소공원,공원,서울특별시 은평구,서울특별시 은평구 불광동 643-3,3120,,37.61688,126.9289
green,다솜공원3,공원,서울특별시 강동구,서울특별시 강동구 강일동 333-1,3125,,37.5688574,127.1742344
green,꿈나무8,공원,서울특별시 양천구,서울특별시 양천구 신정1동 311-1,3148.2,,37.51767,126.8585
green,꽃보라공원2,공원,서울특별시 강동구,서울특별시 강동구 강일동 317-1,3185,,37.5654079,127.175744
green,충효2,공원,서울특별시 관악구,서울특별시 관악구 봉천동 1526-1,3188,,37.4810187,126.9410408
green,은행나무3,공원,서울특별시 도봉구,서울특별시 도봉구 창동 347-3,3199,,37.6496506,127.0437678
green,갈매소공원,공원,서울특별시 구로구,서울특별시 구로구 온수동 155-4,3200,,37.4966229,126.8227899
green,애오개도담어린이공원,공원,서울특별시 마포구,서울특별시 마포구 아현동 800-6,3212,,37.5537334,126.9562987
green,까치3,공원,서울특별시 중랑구,서울특별시 중랑구 면목3·8 570,3232,,37.60674,127.0929
green,윗잔다리어린이공원,공원,서울특별시 마포구,서울특별시 마포구 동교동 168-1,3251,,37.5571918,126.9259859
green,경학공원,공원,서울특별시 종로구,서울특별시 종로구 명륜3가 53-2,3269,,37.58468,126.9965
green,넓은들,공원,서울특별시 양천구,서울특별시 양천구 신정3동 767,3288,,37.51114,126.8392
green,장미아파트2호,공원,서울특별시 송파구,서울특별시 송파구 신천동 11 일원,3288,,37.5199,127.1025
green,창3마을공원,공원,서울특별시 도봉구,서울특별시 도봉구 창동 505-12,3314,,37.6333302,127.0412012
green,달바위공원,공원,서울특별시 종로구,서울특별시 종로구 송월동 145-2,3317.8,,37.57073,126.9654
green,대성디큐브시티문화공원,공원,서울특별시 구로구,서울특별시 구로구 신도림동 692-1,3322,,37.5093041,126.8901838
green,강마을어린이공원,공원,서울특별시 영등포구,서울특별시 영등포구 당산2동 10-7,3329,,37.52126,126.8945
green,신정3동소공원,공원,서울특별시 양천구,서울특별시 양천구 신정동 831,3353,,37.50581,126.8349
green,하늘,공원,서울특별시 강북구,서울특별시 강북구 삼양동 791-1776,3367,,37.62469,127.012878
green,금실,공원,서울특별시 양천구,서울특별시 양천구 신월7동 985,3378.8,,37.51814,126.8373
green,비둘기7,공원,서울특별시 노원구,서울특별시 노원구 공릉 708-1,3382.6,,37.6543741,127.0563321
green,만리2구역2공원,공원,서울특별시 중구,서울특별시 중구 만리동2가 211,3394.5,,37.55304,126.9636
green,호돌이4,공원,서울특별시 양천구,서울특별시 양천구 신정7동 326-2,3399.7,,37.51251,126.8613
green,미소4,공원,서울특별시 성동구,서울특별시 성동구 하왕십리동 1055,3411,,37.56002,127.0235
green,들국화,공원,서울특별시 노원구,서울특별시 노원구 중계 501,3413.6,,37.6543741,127.0563321
green,우면생태놀이터,공원,서울특별시 서초구,서울특별시 서초구 우면동 716,3426.3,,37.46369,127.0275
green,휘경2구역(명칭제정중),공원,서울특별시 동대문구,서울특별시 동대문구 휘경동 372-2,3426.3,,37.5934832,127.0677911
green,돌모루어린이공원,공원,서울특별시 용산구,서울특별시 용산구 청파동3가 118-102,3447,,37.54293,126.9685
green,화곡3주구2,공원,서울특별시 강서구,서울특별시 강서구 화곡동1165-6,3466.8,,37.5451745,126.840506
green,개나리11,공원,서울특별시 양천구,서울특별시 양천구 신정1동 312-2,3500,,37.51773,126.8627
green,수송공원,공원,서울특별시 종로구,서울특별시 종로구 수송동 80-7,3567.2,,37.57385,126.9811
green,두루미2,공원,서울특별시 노원구,서울특별시 노원구 상계 656-1,3580,,37.6543741,127.0563321
green,잠실미성크로바,공원,서울특별시 송파구,서울특별시 송파구 신천동 17-6 일원,3644,,37.51751,127.1072
green,달님3,공원,서울특별시 양천구,서울특별시 양천구 목5동 911-5,3659.2,,37.53516,126.8855
green,오현,공원,서울특별시 강북구,서울특별시 강북구 번3동 244,3661,,37.6237318,127.0464676
green,중앙어린이공원3,공원,서울특별시 영등포구,서울특별시 영등포구 영등포동 53-1,3671,,37.52211,126.9015
green,다산공원,공원,서울특별시 중구,서울특별시 중구 신당5동 123-1,3679,,37.56387,127.0188
green,수변공원2호,공원,서울특별시 강남구,서울특별시 강남구 세곡동 537,3713.3,,37.4652695,127.0939836
green,꿈동산10,공원,서울특별시 양천구,서울특별시 양천구 신정6동 314-1,3730.1,,37.52195,126.8675
green,아름드리2,공원,서울특별시 성북구,서울특별시 성북구 하월곡동 225-2,3782,,37.60981,127.0381
green,신수어린이공원,공원,서울특별시 마포구,서울특별시 마포구 신수동 95-5일원,3792.2,,37.5504059,126.9338128
green,은하수7,공원,서울특별시 양천구,서울특별시 양천구 목5동 913-1,3815.8,,37.53341,126.8786
green,은하수4,공원,서울특별시 강서구,서울특별시 강서구 방화동 853,3825.8,,37.5705149,126.8065043
green,DMC문화공원,공원,서울특별시 마포구,서울특별시 마포구 상암동 1611,3829,,37.5780553,126.8923567
green,대치청실아파트소공원1,공원,서울특별시 강남구,서울특별시 강남구 대치동 633,3845,,37.4942118,127.0583058
green,연지1,공원,서울특별시 노원구,서울특별시 노원구 월계 564,3847.1,,37.6543741,127.0563321
green,석계역문화공원,공원,서울특별시 노원구,서울특별시 노원구 월계1 47-45,3900,,37.6543741,127.0563321
green,묵정공원,공원,서울특별시 중구,서울특별시 중구 충무로5가 21,3907,,37.56378,126.9998
green,선농단,공원,서울특별시 동대문구,서울특별시 동대문구 제기동 274-1,3933,,37.5809959,127.0321021
green,장미12,공원,서울특별시 양천구,서울특별시 양천구 목5동 912-1,3963.8,,37.53445,126.8828
green,쌈지1,공원,서울특별시 강서구,서울특별시 강서구 방화동 266-24,3973,,37.5711771,126.8149951
green,솜다래공원,공원,서울특별시 강동구,서울특별시 강동구 암사1동 413-4,3993.8,,37.5536829,127.1412749
green,단지,공원,서울특별시 양천구,서울특별시 양천구 신정1동 1033-18,3997.9,,37.51985,126.8542
green,수정3,공원,서울특별시 강서구,서울특별시 강서구 내발산동 741-2,4000.3,,37.5539153,126.8287249
green,솔향기,공원,서울특별시 성북구,서울특별시 성북구 길음1동 1190,4031,,37.60815,127.0213
green,종달새2,공원,서울특별시 노원구,서울특별시 노원구 상계동 636,4051,,37.6679979,127.0620198
green,장미1,공원,서울특별시 서초구,서울특별시 서초구 반포동 915,4083,,37.50493,126.9913
green,벌리,공원,서울특별시 강북구,서울특별시 강북구 번3동 240,4083.5,,37.6275717,127.0444246
green,상길례,공원,서울특별시 성북구,서울특별시 성북구 장위동 289-29,4090.2,,37.6197,127.0454
green,도담3,공원,서울특별시 송파구,서울특별시 송파구 마천동 583,4138,,37.49953,127.1594
green,남가좌동어린이공원,공원,서울특별시 서대문구,서울특별시 서대문구 남가좌동 224-114,4144,,37.5775805,126.9179042
green,응암10재개발구역내어린이공원,공원,서울특별시 은평구,서울특별시 은평구 응암동 767-1,4144.8,,37.59578,126.9196
green,나리,공원,서울특별시 서초구,서울특별시 서초구 반포동 789,4155,,37.50426,126.9874
green,대조어린이공원,공원,서울특별시 은평구,서울특별시 은평구 대조 212,4176.9,,37.60277,126.9289
green,파랑새3,공원,서울특별시 서초구,서울특별시 서초구 반포동 4-2,4188.3,,37.50511,126.9952
green,별님2,공원,서울특별시 양천구,서울특별시 양천구 목5동 902-2,4211.4,,37.53783,126.8753
green,성북역,공원,서울특별시 노원구,서울특별시 노원구 월계1동 412-1,4216,,37.6218399,127.0622376
green,볏골,공원,서울특별시 강서구,서울특별시 강서구 화곡동 98-99,4219,,37.5414823,126.8443879
green,창골1,공원,서울특별시 도봉구,서울특별시 도봉구 창동 381,4236,,37.6430762,127.0486112
green,도담공원6,공원,서울특별시 강남구,서울특별시 강남구 세곡동 548,4282.7,,37.4672788,127.0986847
green,미리내공원6,공원,서울특별시 강동구,서울특별시 강동구 상일동 122,4286.2,,37.5549754,127.1682759
green,오금지구수변공원,공원,서울특별시 송파구,서울특별시 송파구 오금동 97-21 일원,4302,,37.50759,127.1369
green,이촌한우리공원,공원,서울특별시 용산구,서울특별시 용산구 이촌동 437,4325,,37.51713,126.9811
green,한수,공원,서울특별시 서초구,서울특별시 서초구 반포동 1226,4400,,37.50321,126.983
green,일원개나리공원,공원,서울특별시 강남구,서울특별시 강남구 일원동 730-3,4453.6,,37.4829744,127.0764023
green,잠실진주,공원,서울특별시 송파구,서울특별시 송파구 신천동 20-4 일원,4470,,37.51831,127.1108
green,해바라기3,공원,서울특별시 노원구,서울특별시 노원구 하계동 277,4504,,37.6348497,127.071262
green,화곡3주구1,공원,서울특별시 강서구,서울특별시 강서구 화곡동1165-2,4504.2,,37.5461758,126.8369598
green,화원어린이공원,공원,서울특별시 구로구,서울특별시 구로구 구로동 478-1,4544,,37.4977582,126.8802557
green,마고정,공원,서울특별시 은평구,서울특별시 은평구진관동 101-2,4551.6,,37.60277,126.9289
green,고인돌,공원,서울특별시 서초구,서울특별시 서초구 양재동 390,4579,,37.47133,127.0467
green,평화어린이공원2,공원,서울특별시 영등포구,서울특별시 영등포구 여의동 50-2,4595,,37.52115,126.9383
green,가온문화공원,공원,서울특별시 마포구,서울특별시 마포구 상암동 1594,4631,,37.5818492,126.8876246
green,벌말1,공원,서울특별시 강북구,서울특별시 강북구 번2동 235,4641.3,,37.6297148,127.0398202
green,용허리,공원,서울특별시 서초구,서울특별시 서초구 서초동 1324-1,4641.9,,37.49426,127.0229
green,각심,공원,서울특별시 노원구,서울특별시 노원구 월계2동 555,4664.4,,37.6295209,127.0514917
green,원당샘공원,공원,서울특별시 도봉구,서울특별시 도봉구 방학3동 547,4671,,37.6607355,127.0220573
green,문정동136어린이공원,공원,서울특별시 송파구,서울특별시 송파구 문정동 142 일대,4685,,37.48736,127.1348
green,서래골,공원,서울특별시 서초구,서울특별시 서초구 반포동 63-2,4690.8,,37.50162,127.003
green,은하수6,공원,서울특별시 동작구,서울특별시 동작구 신대방동 492-222,4726,,37.4943049,126.9127967
green,상림,공원,서울특별시 은평구,서울특별시 은평구진관동 5-3,4749.8,,37.60277,126.9289
green,전관원,공원,서울특별시 성동구,서울특별시 성동구 행당동 90-2,4760,,37.55413,127.0399
green,개포공원,공원,서울특별시 강남구,서울특별시 강남구 개포동 190,4793.8,,37.4852977,127.0716247
green,양화진역사공원,공원,서울특별시 마포구,서울특별시 마포구 합정동 139-21 일대,4804,,37.5457924,126.9110761
green,한양,공원,서울특별시 송파구,서울특별시 송파구 송파동 152,4842.4,,37.504,127.1155
green,원지어린이공원,공원,서울특별시 영등포구,서울특별시 영등포구 대림3동 690,4845,,37.49809,126.8996
green,백합1,공원,서울특별시 노원구,서울특별시 노원구 중계동 514-4,4924.2,,37.6482984,127.0695994
green,새싹11,공원,서울특별시 강서구,서울특별시 강서구 방화동 583,4939,,37.5697245,126.8094261
green,명주,공원,서울특별시 서초구,서울특별시 서초구 잠원동 50-4,4952.6,,37.51721,127.0151
green,오얏골,공원,서울특별시 강북구,서울특별시 강북구 번2동 228,5070.7,,37.6340486,127.0342808
green,무악공원,공원,서울특별시 종로구,서울특별시 종로구 무악동 산2-83,5136,,37.57741,126.9605
green,양천리누리터어린이공원,공원,서울특별시 은평구,서울특별시 은평구 녹번동 281-4,5153.3,,37.6063,126.9345
green,성수,공원,서울특별시 성동구,서울특별시 성동구 성수동2가 302-25,5197.7,,37.54481,127.0524
green,길음2구역,공원,서울특별시 성북구,"서울특별시 성북구 길음동 1284, 일대",5207.4,,37.60698,127.0193
green,근린공원2호2,공원,서울특별시 강남구,서울특별시 강남구 자곡동 625,5236.8,,37.469225,127.0904427
green,도봉산역만남의광장,공원,서울특별시 도봉구,서울특별시 도봉구 도봉2동 41,5271,,37.6882391,127.0467987
green,휴암문화공원,공원,서울특별시 마포구,서울특별시 마포구 상암동 670,5285,,37.5830029,126.8800444
green,우산각,공원,서울특별시 동대문구,서울특별시 동대문구 신설동 109-4,5294.2,,37.5734451,127.0244339
green,숭인,공원,서울특별시 성북구,서울특별시 성북구 보문동 6가 458-4,5332.6,,37.5778,127.0185
green,자유어린이공원,공원,서울특별시 영등포구,서울특별시 영등포구 여의동 50-3,5385,,37.52042,126.9362
green,텃골,공원,서울특별시 동대문구,서울특별시 동대문구 전농동 690-1,5408,,37.5775775,127.0516642
green,영일어린이공원,공원,서울특별시 영등포구,서울특별시 영등포구 영등포본동 647-3,5413,,37.51015,126.9039
green,개명소공원,공원,서울특별시 구로구,서울특별시 구로구개봉동 314-14,5415,,37.4956488,126.8877849
green,거여4(거마재정비),공원,서울특별시 송파구,서울특별시 송파구 마천동 364-8 일대,5420,,37.49446,127.1562
green,명달,공원,서울특별시 서초구,서울특별시 서초구 서초동 1313-17,5466.4,,37.49855,127.0211
green,장미아파트1호,공원,서울특별시 송파구,서울특별시 송파구 신천동 7 일원,5470,,37.51887,127.0993
green,고무래,공원,서울특별시 서초구,서울특별시 서초구 반포동 30-5,5506.9,,37.50353,127.0154
green,덕의근린공원,공원,서울특별시 구로구,서울특별시 구로구 고척동 339-4,5565,,37.5068812,126.8562771
green,덕수천,공원,서울특별시 은평구,서울특별시 은평구진관동 14-3,5569.1,,37.60277,126.9289
green,동산12,공원,서울특별시 송파구,서울특별시 송파구 송파동 120,5660.8,,37.50625,127.1145
green,평화공원4,공원,서울특별시 은평구,서울특별시 은평구 녹번동 153-1,5700.1,,37.60571,126.9231
green,정릉동,공원,서울특별시 성북구,서울특별시 성북구 정릉동 1021-2,5779.1,,37.61869,127.0038
green,쌍룡산공원,공원,서울특별시 마포구,서울특별시 마포구 아현동 768,5791,,37.5529241,126.9503796
green,뒷벌,공원,서울특별시 서초구,서울특별시 서초구 방배동 821-1,5794.8,,37.49042,126.9869
green,마로니에공원2,공원,서울특별시 종로구,서울특별시 종로구 동숭동 1-124,5802,,37.58048,127.0027
green,녹번1-2지구주택재개발정비구역내소공원,공원,서울특별시 은평구,서울특별시 은평구 녹번동 283-7,5804.2,,37.60399,126.9352
green,물빛문화공원,공원,서울특별시 마포구,"서울특별시 마포구 상암동 1608,1609",5827,,37.5800631,126.8931534
green,중평1,공원,서울특별시 노원구,서울특별시 노원구 하계 271-1,5840.5,,37.6543741,127.0563321
green,미래사랑어린이공원,공원,서울특별시 구로구,서울특별시 구로구 신도림동 314-2,5870,,37.5102117,126.8889601
green,쌍룡산어린이공원,공원,서울특별시 마포구,서울특별시 마포구 아현동 769,5911,,37.5521774,126.9505146
green,반원,공원,서울특별시 서초구,서울특별시 서초구 잠원동 72-1,6020.9,,37.50946,127.0033
green,현석소공원,공원,서울특별시 마포구,서울특별시 마포구 현석동 225-2일대,6038,,37.5429785,126.9344957
green,용답휴식,공원,서울특별시 성동구,서울특별시 성동구 용답동 128-3,6046.9,,37.56999,127.0475
green,하계,공원,서울특별시 노원구,서울특별시 노원구 하계동 273-3,6128.9,,37.6321751,127.06888
green,매봉근린공원,공원,서울특별시 강남구,서울특별시 강남구 도곡동 527-7,6146.9,,37.4920941,127.0503939
green,버들어린이공원2,공원,서울특별시 구로구,서울특별시 구로구 천왕동 277-14,6167,,37.4815925,126.8399856
green,창천근린공원,공원,서울특별시 서대문구,서울특별시 서대문구 창천동 4-55,6322,,37.55792,126.9403
green,동자공원1,공원,서울특별시 강동구,서울특별시 강동구 고덕1동 648,6416.6,,37.5597285,127.1524449
green,중마루근린공원,공원,서울특별시 영등포구,서울특별시 영등포구 영등포동2가 222,6456,,37.51979,126.9114
green,진달래8,공원,서울특별시 양천구,서울특별시 양천구 목5동 904-1,6517,,37.53189,126.8701
green,마방,공원,서울특별시 서초구,서울특별시 서초구 양재동 237,6546.6,,37.47254,127.0382
green,삼전2,공원,서울특별시 송파구,서울특별시 송파구 삼전동 62-1,6607.6,,37.50225,127.0927
green,태양5,공원,서울특별시 송파구,서울특별시 송파구 풍납동 389-2,6611.6,,37.52546,127.1154
green,하늘가람,공원,서울특별시 송파구,서울특별시 송파구 신천동 17-10,6612,,37.5194,127.1067
green,잠실,공원,서울특별시 송파구,서울특별시 송파구 잠실동 230,6613.3,,37.50611,127.0837
green,송파,공원,서울특별시 송파구,서울특별시 송파구 송파동 113,6621.2,,37.50635,127.11
green,신동,공원,서울특별시 서초구,서울특별시 서초구 잠원동 58-14,6648.4,,37.51425,127.0143
green,도레미,공원,서울특별시 강서구,서울특별시 강서구 방화동 184-66,6649,,37.571849,126.819105
green,개나리10,공원,서울특별시 송파구,서울특별시 송파구 잠실동 44-6,6669.1,,37.50768,127.0941
green,동망봉,공원,서울특별시 성북구,서울특별시 성북구 보문동3가 229-1,6730,,37.58374,127.0168
green,온조마루,공원,서울특별시 송파구,서울특별시 송파구 신천동 20-1,6734.2,,37.51993,127.1101
green,나비울어린이공원,공원,서울특별시 서대문구,서울특별시 서대문구 북가좌동 475,6757,,37.57479,126.9096
green,신사근린공원,공원,서울특별시 강남구,서울특별시 강남구 압구정동 422,6800,,37.5267197,127.021479
green,금암문화공원(은평뉴타운제1호문화공원),공원,서울특별시 은평구,서울특별시 은평구 진관동 53-5,6857.1,,37.64438,126.918
green,방이,공원,서울특별시 송파구,서울특별시 송파구 방이동 52,6930.1,,37.51429,127.1139
green,대림어린이공원,공원,서울특별시 영등포구,서울특별시 영등포구 대림1동 870,6969,,37.49113,126.9034
green,방배동,공원,서울특별시 서초구,서울특별시 서초구 방배동 산102-20,7003,,37.47471,126.985
green,암사공원2,공원,서울특별시 강동구,서울특별시 강동구 암사3동 414-20,7047,,37.5564253,127.1417188
green,중현,공원,서울특별시 노원구,서울특별시 노원구 하계 272-1,7123.5,,37.6543741,127.0563321
green,한천가로공원,공원,서울특별시 노원구,서울특별시 노원구 공릉동 406-1,7145,,37.6243086,127.07055
green,우물골,공원,서울특별시 은평구,"서울특별시 은평구진관동 85-1,2,3",7203.1,,37.60277,126.9289
green,불광3구역소공원,공원,서울특별시 은평구,서울특별시 은평구 불광동641-1일대,7274.1,,37.61951,126.9352
green,오류동역문화공원,공원,서울특별시 구로구,서울특별시 구로구 오류동 299-29,7510,,37.4946317,126.8456304
green,수서택지개발(광평부근),공원,서울특별시 강남구,서울특별시 강남구 수서동 737-1,7569.1,,37.4868018,127.0971159
green,금천폭포공원,공원,서울특별시 금천구,서울특별시 금천구 시흥동 937-2,7650,,37.4466321,126.9041859
green,독산자연공원,공원,서울특별시 금천구,서울특별시 금천구 독산동 산89-5,7650,,37.4735842,126.9072972
green,거여5(거마재정비),공원,서울특별시 송파구,서울특별시 송파구 마천동 276 일대,7682,,37.49116,127.1578
green,갈매기근린공원,공원,서울특별시 강남구,서울특별시 강남구 압구정동 480,7732,,37.5313593,127.0345202
green,구로리어린이공원,공원,서울특별시 구로구,서울특별시 구로구 구로동 139-82,7782,,37.4908822,126.8916098
green,구로근린공원,공원,서울특별시 구로구,서울특별시 구로구 구로동 102,7901,,37.4969449,126.8895525
green,매미2,공원,서울특별시 송파구,서울특별시 송파구 잠실동 35-4,8012.3,,37.50936,127.0889
green,장암지구,공원,서울특별시 노원구,서울특별시 노원구 누원로 18,8075,,37.6859957,127.053528
green,우이천가로공원,공원,서울특별시 노원구,서울특별시 노원구 월계2 861-3,8098,,37.6543741,127.0563321
green,목련5,공원,서울특별시 송파구,서울특별시 송파구 오금동 156,8127.4,,37.49897,127.1392
green,잠실주공5단지소공원,공원,서울특별시 송파구,서울특별시 송파구 잠실동 27 일원,8228,,37.51519,127.0946
green,정동공원,공원,서울특별시 중구,서울특별시 중구 정동 15-1,8230,,37.56795,126.9716
green,청파어린이공원,공원,서울특별시 용산구,서울특별시 용산구 서계동 226-3,8324,,37.55355,126.9683
green,산기슭공원,공원,서울특별시 금천구,서울특별시 금천구 시흥동 산138-3,8412,,37.4633311,126.9073899
green,동묘공원,공원,서울특별시 종로구,서울특별시 종로구 숭인동 238-1,8450,,37.57297,127.0183
green,신광명,공원,서울특별시 강서구,서울특별시 강서구 내발산동 761,8596.6,,37.5472981,126.8229213
green,달맞이6,공원,서울특별시 노원구,서울특별시 노원구 덕릉로 483,8838.9,,37.6456657,127.0625614
green,성내공원4,공원,서울특별시 강동구,서울특별시 강동구 성내1동 533,8929,,37.5297342,127.1267054
green,공릉가로공원,공원,서울특별시 노원구,서울특별시 노원구 공릉1 657-8,8999,,37.6543741,127.0563321
green,양지10,공원,서울특별시 양천구,서울특별시 양천구 신월7동 936,9013.4,,37.52219,126.831
green,새샘,공원,서울특별시 동대문구,서울특별시 동대문구 답십리동 1004-7,9052,,37.5694876,127.0552081
green,청룡근린공원,공원,서울특별시 강남구,서울특별시 강남구 개포동 649-1,9367,,37.4856114,127.054377
green,가재울어린이공원,공원,서울특별시 서대문구,서울특별시 서대문구 남가좌동 385-2,9508,,37.57306,126.9193
green,당현천,공원,서울특별시 노원구,서울특별시 노원구 상계 762-1,9652.5,,37.6543741,127.0563321
green,갈울,공원,서울특별시 노원구,서울특별시 노원구 상계 644,9668.9,,37.6543741,127.0563321
green,상일공원,공원,서울특별시 강동구,서울특별시 강동구 상일동 188,9704,,37.5474694,127.1682348
green,개포동근린공원,공원,서울특별시 강남구,서울특별시 강남구 개포동 182-1,9705.6,,37.4897851,127.0682106
green,옹기골,공원,서울특별시 강서구,서울특별시 강서구 방화동 842,9723.6,,37.5739042,126.820997
green,골마을,공원,서울특별시 노원구,서울특별시 노원구 하계 251-8,9808.1,,37.6543741,127.0563321
green,홍제근린공원,공원,서울특별시 서대문구,서울특별시 서대문구 홍제동 454-2,9888,,37.59439,126.9527
green,원촌,공원,서울특별시 서초구,서울특별시 서초구 반포동 20-46,9941.7,,37.50594,127.0102
green,장수4,공원,서울특별시 송파구,서울특별시 송파구 장지동 846,9949,,37.48102,127.1307
green,느티울,공원,서울특별시 노원구,서울특별시 노원구 상계 741,10000.1,,37.6543741,127.0563321
green,갈말,공원,서울특별시 노원구,서울특별시 노원구 동일로227길 85,10000.9,,37.6654715,127.0525532
green,원서공원,공원,서울특별시 종로구,서울특별시 종로구 원서동 181,10004.6,,37.57839,126.9886
green,탄천근린공원,공원,서울특별시 강남구,서울특별시 강남구 수서동 722,10011,,37.4874214,127.1063242
green,비석골,공원,서울특별시 노원구,서울특별시 노원구 월계로45가길 57,10022,,37.6307116,127.0505362
green,독골근린공원,공원,서울특별시 강남구,서울특별시 강남구 도곡동 461,10022.9,,37.4851111,127.0470562
green,백토,공원,서울특별시 송파구,서울특별시 송파구 오금동 6,10024.1,,37.50821,127.1326
green,송례(위례근린공원8호),공원,서울특별시 송파구,서울특별시 송파구 장지동 393임 일원,10024.6,,37.47705,127.1413
green,솔향(거마재정비),공원,서울특별시 송파구,서울특별시 송파구 마천동 199-3 일대,10042,,37.49913,127.1544
green,등촌,공원,서울특별시 강서구,서울특별시 강서구 등촌동 687-4,10051.6,,37.5634147,126.8417741
green,원당3,공원,서울특별시 강서구,서울특별시 강서구 등촌동 690-5,10096.4,,37.5597771,126.8420341
green,삼성산시민휴식공원,공원,서울특별시 금천구,서울특별시 금천구 시흥동 산116,10118,,37.4546973,126.9101265
green,원터1,공원,서울특별시 노원구,서울특별시 노원구 상계753-2,10121.4,,37.6543741,127.0563321
green,숯내,공원,서울특별시 송파구,서울특별시 송파구 문정동 150-8,10206.5,,37.48956,127.1106
green,글샘작은,공원,서울특별시 송파구,서울특별시 송파구 문정동 631,10209.9,,37.47741,127.1217
green,서낭당2,공원,서울특별시 강서구,서울특별시 강서구 등촌동 706,10248.8,,37.5585848,126.8500206
green,세곡동근린공원1,공원,서울특별시 강남구,서울특별시 강남구 세곡동 525-1,10310.4,,37.4602231,127.10337
green,남강,공원,서울특별시 관악구,서울특별시 관악구 신림동 1678-12,10350,,37.4734913,126.924675
green,수변공원1호,공원,서울특별시 강남구,서울특별시 강남구 세곡동604-1,10399.2,,37.4662127,127.0971262
green,대치근린공원,공원,서울특별시 강남구,서울특별시 강남구 대치동 512,10408.9,,37.4951146,127.0698973
green,구의공원,공원,서울특별시 광진구,서울특별시 광진구 구의3동 546-2,10464,,37.5369622,127.0946105
green,테크노근린공원,공원,서울특별시 구로구,서울특별시 구로구 구로동 3-33,10482,,37.5079866,126.8909272
green,가재울,공원,서울특별시 노원구,서울특별시 노원구 중계 515-4,10483.9,,37.6543741,127.0563321
green,양지1,공원,서울특별시 노원구,서울특별시 노원구 중계 362,10508.1,,37.6543741,127.0563321
green,훼밀리,공원,서울특별시 송파구,서울특별시 송파구 문정동 150-5,10528.6,,37.49069,127.1138
green,향유(거마재정비),공원,서울특별시 송파구,서울특별시 송파구 거여동 200-4 일대,10569,,37.49456,127.1478
green,삿갓봉,공원,서울특별시 노원구,서울특별시 노원구 한글비석로 346,10652.9,,37.6580838,127.0765041
green,월암공원,공원,서울특별시 종로구,서울특별시 종로구 송월동 1-2,10662,,37.57105,126.9656
green,월천근린공원,공원,서울특별시 도봉구,서울특별시 도봉구 창동 28,10712,,37.6475637,127.0508883
green,잠실주공5단지근린공원,공원,서울특별시 송파구,서울특별시 송파구 잠실동 27 일원,10741,,37.51519,127.0946
green,삼선,공원,서울특별시 성북구,서울특별시 성북구 삼선동1가 303,10957,,37.58236,127.009
green,마천,공원,서울특별시 송파구,서울특별시 송파구 마천동 11,10962.5,,37.50166,127.1458
green,웃말2,공원,서울특별시 송파구,서울특별시 송파구 가락동 21,11098.2,,37.50233,127.123
green,당산근린공원,공원,서울특별시 영등포구,서울특별시 영등포구 당산1동 385,11154,,37.52295,126.898
green,송이,공원,서울특별시 송파구,서울특별시 송파구 송파동 169,11193.9,,37.5013,127.1189
green,개포서근린공원,공원,서울특별시 강남구,서울특별시 강남구 개포동 180,11219.2,,37.4887602,127.063949
green,건너말,공원,서울특별시 송파구,서울특별시 송파구 가락동 110,11327.8,,37.4918,127.1239
green,한우물2,공원,서울특별시 송파구,"서울특별시 송파구 문정동 626,633",11385.8,,37.47917,127.1244
green,늘푸른근린공원,공원,서울특별시 강남구,서울특별시 강남구 일원동 690,11410.3,,37.4899748,127.0774583
green,복주산근린공원,공원,서울특별시 서대문구,서울특별시 서대문구 북아현동176-25,11430,,37.56166,126.9547
green,솔밭1,공원,서울특별시 노원구,서울특별시 노원구 화랑로51길 17,11459.1,,37.6234514,127.0885102
green,샛마을공원,공원,서울특별시 강동구,서울특별시 강동구 명일1동 288,11467,,37.5501406,127.1473362
green,오금지구근린공원,공원,서울특별시 송파구,서울특별시 송파구 오금동 106-1 일원,11488,,37.50562,127.1406
green,송림공원6,공원,서울특별시 강동구,서울특별시 강동구 고덕동 310,11491,,37.5556298,127.1538495
green,흥인지문공원,공원,서울특별시 종로구,서울특별시 종로구 종로6가 70,11519.7,,37.57233,127.0089
green,공릉동,공원,서울특별시 노원구,서울특별시 노원구 공릉 63,11540,,37.6543741,127.0563321
green,수서택지개발(대모산부근),공원,서울특별시 강남구,서울특별시 강남구 일원동 732-3,11588.6,,37.4808149,127.077944
green,배밭근린공원,공원,서울특별시 강남구,서울특별시 강남구 개포동 181,11627.2,,37.4887836,127.0623543
green,뽕나무,공원,서울특별시 송파구,서울특별시 송파구 잠실동 19-3,11704.9,,37.51398,127.082
green,서빙고공원,공원,서울특별시 용산구,서울특별시 용산구 용산동5가 24-2,11879,,37.52478,126.9713
green,신도,공원,서울특별시 은평구,서울특별시 은평구진관동 206-21,12020,,37.60277,126.9289
green,근린공원7호,공원,서울특별시 강남구,서울특별시 강남구 자곡동 627,12093,,37.4706213,127.0927433
green,위례별(위례근린공원7호),공원,서울특별시 송파구,서울특별시 송파구 장지동 393임 일원,12204.7,,37.47705,127.1413
green,곰달래2,공원,서울특별시 양천구,서울특별시 양천구 신월7동 904-1,12234,,37.52467,126.8331
green,능산공원,공원,서울특별시 중랑구,서울특별시 중랑구 신내동 317-2,12372,,37.61178,127.0974
green,양화폭포근린공원,공원,서울특별시 영등포구,서울특별시 영등포구 양평2동 153-2,12404,,37.52448,126.8829
green,구산,공원,서울특별시 은평구,서울특별시 은평구구산동 산48-7,12445.7,,37.60277,126.9289
green,천상,공원,서울특별시 송파구,서울특별시 송파구 마천동 610,12464,,37.49421,127.1592
green,학여울근린공원,공원,서울특별시 강남구,서울특별시 강남구 개포동 183-1,12505.6,,37.4906941,127.0692171
green,무학봉공원,공원,서울특별시 중구,서울특별시 중구 신당5동 산12-63,12584,,37.56239,127.025
green,충숙,공원,서울특별시 노원구,서울특별시 노원구 한글비석로 144,12627.7,,37.6405244,127.0767215
green,신천어린이교통,공원,서울특별시 송파구,서울특별시 송파구 신천동 7-15,12755.5,,37.51592,127.102
green,목마,공원,서울특별시 양천구,서울특별시 양천구 목6동 910,12816.8,,37.5382,126.8855
green,한솔근린공원1,공원,서울특별시 강남구,서울특별시 강남구 일원동 732,12878.4,,37.4809871,127.0780776
green,부리,공원,서울특별시 송파구,서울특별시 송파구 잠실동 22-5,12898.9,,37.51405,127.0872
green,신내어울공원,공원,서울특별시 중랑구,서울특별시 중랑구 신내동 317-2,12937,,37.61178,127.0974
green,능말공원,공원,서울특별시 중랑구,서울특별시 중랑구 신내동 111-31,13101,,37.61535,127.1071
green,매봉산공원,공원,서울특별시 마포구,서울특별시 마포구 상암동 1631,13137,,37.5738649,126.8951696
green,벽운,공원,서울특별시 노원구,서울특별시 노원구 동일로248가길 1,13142.9,,37.6802852,127.0571604
green,외국인묘지공원,공원,서울특별시 마포구,서울특별시 마포구 합정동145-3 등 10필지,13224,,37.5464771,126.9110775
green,목동3,공원,서울특별시 양천구,서울특별시 양천구 목2동 517 외 37,13366,,37.54661,126.8787
green,두레공원3,공원,서울특별시 강동구,서울특별시 강동구 고덕1동 497,13460.2,,37.5580516,127.1523167
green,금호2,공원,서울특별시 성동구,서울특별시 성동구 금호동3가 1266,13467.8,,37.54948,127.0191
green,대진근린공원,공원,서울특별시 강남구,서울특별시 강남구 개포동 13-1,13568.4,,37.4955793,127.0785994
green,반딧불1,공원,서울특별시 서초구,서울특별시 서초구 반포동 18-5,13606.8,,37.50168,126.9986
green,한글비,공원,서울특별시 노원구,서울특별시 노원구 하계동 288-2,13614.5,,37.6448989,127.0738458
green,발바닥공원,공원,서울특별시 도봉구,서울특별시 도봉구 방학동 490-8,13879,,37.6592667,127.0285821
green,배말공원1,공원,서울특별시 중랑구,서울특별시 중랑구 신내동 산 8-9,13902,,37.61396,127.1123
green,압구정428,공원,서울특별시 강남구,서울특별시 강남구 압구정 428,13968.3,,37.5173353,127.0473819
green,대청근린공원,공원,서울특별시 강남구,서울특별시 강남구 일원동 621,14089.1,,37.4925832,127.0826507
green,구룡공원2,공원,서울특별시 마포구,서울특별시 마포구 상암동 1583,14287,,37.5830195,126.8837011
green,연화,공원,서울특별시 송파구,서울특별시 송파구 문정동 92,14318.2,,37.48518,127.1289
green,장안2,공원,서울특별시 동대문구,서울특별시 동대문구 장안동 300,14744.8,,37.5773921,127.0714108
green,탑골공원4,공원,서울특별시 종로구,서울특별시 종로구 종로2가 38-1,14808.7,,37.5712,126.9884
green,감로천생태공원,공원,서울특별시 금천구,서울특별시 금천구 독산동 373,15000,,37.4696162,126.9079089
green,신계공원,공원,서울특별시 용산구,서울특별시 용산구 신계동 55,15000,,37.53543,126.9664
green,싸리고개근린공원,공원,서울특별시 강남구,서울특별시 강남구 도곡동 550,15072.5,,37.4896285,127.0363354
green,한울3,공원,서울특별시 양천구,서울특별시 양천구 신월7동 956,15465.4,,37.51991,126.8326
green,중앙근린공원2,공원,서울특별시 서대문구,서울특별시 서대문구 북가좌동 480,15466,,37.57488,126.9131
green,섬들2,공원,서울특별시 서초구,서울특별시 서초구 우면동 729,15590.3,,37.4631,127.0255
green,장평,공원,서울특별시 동대문구,서울특별시 동대문구 장안동 356,15698.4,,37.5671763,127.07396
green,방학사계광장,공원,서울특별시 도봉구,서울특별시 도봉구 방학동 678,15780,,37.6624294,127.0418245
green,넘은들,공원,서울특별시 양천구,서울특별시 양천구 신정3동 1286,16159.6,,37.513,126.8404
green,못자리골,공원,서울특별시 은평구,"서울특별시 은평구진관동13-2, 12-1",16176.1,,37.60277,126.9289
green,거여1,공원,서울특별시 송파구,서울특별시 송파구 거여동 11,16185.1,,37.49684,127.1417
green,금나래중앙,공원,서울특별시 금천구,서울특별시 금천구 독산1동 1151,16331.3,,37.4577021,126.8950611
green,바우뫼1,공원,서울특별시 서초구,서울특별시 서초구 양재동 105,16386.1,,37.47463,127.0345
green,신트리,공원,서울특별시 양천구,서울특별시 양천구 신정1동 310-7,16409.3,,37.51461,126.8565
green,자매근린공원,공원,서울특별시 영등포구,서울특별시 영등포구 여의동 5-6,16458,,37.51714,126.9301
green,훈련원공원,공원,서울특별시 중구,서울특별시 중구 을지로5가 40-3,16735,,37.56776,127.0031
green,포이근린공원,공원,서울특별시 강남구,서울특별시 강남구 개포동 1239-21,16811.4,,37.4800972,127.0454465
green,용두2,공원,서울특별시 동대문구,서울특별시 동대문구 용두동 34-1,17182,,37.5732221,127.0400932
green,메낙골근린공원,공원,서울특별시 영등포구,서울특별시 영등포구 신길1동 4934-4,17229,,37.50689,126.9155
green,마곡나루,공원,서울특별시 강서구,서울특별시 강서구 방화동 210-1,17283,,37.5680279,126.8208293
green,청수근린공원,공원,서울특별시 강남구,서울특별시 강남구 청담동 134-13,17402,,37.5232809,127.0584496
green,실락어린이공원,공원,서울특별시 서대문구,서울특별시 서대문구 홍은동 455-4,17452,,37.59443,126.9434
green,부엉이공원2,공원,서울특별시 마포구,서울특별시 마포구 상암동1735,17640,,37.5853601,126.8834737
green,발산,공원,서울특별시 강서구,서울특별시 강서구 내발산동 739,17825.5,,37.5549722,126.8253697
green,위례근린공원12호,공원,서울특별시 송파구,서울특별시 송파구 장지동 산29임 일원,17872,,37.48457,127.1369
green,온수,공원,서울특별시 노원구,서울특별시 노원구 노원로 510,17946.2,,37.6609385,127.062596
green,독산근린공원,공원,서울특별시 금천구,서울특별시 금천구 독산동 1086,18005.5,,37.4636726,126.8841441
green,오솔길2,공원,서울특별시 양천구,서울특별시 양천구 신월7동 977,18047.2,,37.52113,126.8365
green,금천체육공원,공원,서울특별시 금천구,서울특별시 금천구 독산동 산118-4,18083,,37.4683065,126.9085384
green,누에머리,공원,서울특별시 송파구,서울특별시 송파구 오금동 110,18607.5,,37.50309,127.1424
green,신내공원,공원,서울특별시 중랑구,서울특별시 중랑구 신내동 652,18699,,37.61378,127.0892
green,근린공원1호2,공원,서울특별시 강남구,서울특별시 강남구 세곡동 603,18856.7,,37.4665702,127.0955732
green,한티근린공원,공원,서울특별시 강남구,서울특별시 강남구 대치동 212-1,19200,,37.4952521,127.0622169
green,양재천,공원,서울특별시 서초구,서울특별시 서초구 양재동 261-22,19258,,37.47612,127.0417
green,독서,공원,서울특별시 양천구,서울특별시 양천구 신월7동 987,19380.8,,37.51975,126.8349
green,까치공원5,공원,서울특별시 강동구,서울특별시 강동구 고덕1동 493,19464.8,,37.5569877,127.1497143
green,신길근린공원,공원,서울특별시 영등포구,서울특별시 영등포구 신길5동 341-3,19604,,37.50153,126.9062
green,구릉공원,공원,서울특별시 중랑구,서울특별시 중랑구 신내동,19651,,37.61261,127.1008
green,근린공원6호,공원,서울특별시 강남구,서울특별시 강남구 자곡동 647,19739.5,,37.4721155,127.101973
green,늘벗근린공원,공원,서울특별시 강남구,서울특별시 강남구 대치동 501,19812.3,,37.4895712,127.0571541
green,북한산공원,공원,서울특별시 종로구,서울특별시 종로구 평창동 산6-17,19902.4,,37.60154,126.98
green,한내1,공원,서울특별시 노원구,서울특별시 노원구 마들로 86,20300,,37.6231814,127.0689384
green,문이,공원,서울특별시 송파구,서울특별시 송파구 문정동 481,20856.2,,37.48487,127.1137
green,서초종합체육공원,공원,서울특별시 서초구,서울특별시 서초구 원지동 28,20923,,37.45897,127.0419
green,서소문공원,공원,서울특별시 중구,서울특별시 중구 의주로2가 16-2,21363,,37.56088,126.9698
green,오목,공원,서울특별시 양천구,서울특별시 양천구 목1동 921,21470.4,,37.528,126.8733
green,개롱,공원,서울특별시 송파구,서울특별시 송파구 가락동 195,21544.4,,37.4937,127.1308
green,근린공원5호,공원,서울특별시 강남구,서울특별시 강남구 자곡동 607,21560.9,,37.4729941,127.097836
green,우면,공원,서울특별시 서초구,서울특별시 서초구 우면동 749,21609.1,,37.4559,127.0136
green,황금내,공원,서울특별시 강서구,서울특별시 강서구 가양동 1485-5,22002.9,,37.5617158,126.864449
green,중계1,공원,서울특별시 노원구,서울특별시 노원구 동일로 1229,22727.4,,37.6391161,127.0660768
green,문래근린공원,공원,서울특별시 영등포구,서울특별시 영등포구 문래동3가 66,23611,,37.5175,126.8943
green,풍납,공원,서울특별시 송파구,서울특별시 송파구 풍납동 74,23746,,37.53818,127.1218
green,등나무1,공원,서울특별시 노원구,서울특별시 노원구 동일로 1238,23751.5,,37.6408345,127.0668938
green,두댐이,공원,서울특별시 송파구,서울특별시 송파구 문정동 2,24015.9,,37.4903,127.1322
green,널문,공원,서울특별시 송파구,"서울특별시 송파구 마천동 581,598",24128,,37.49843,127.1574
green,근린공원4호,공원,서울특별시 강남구,서울특별시 강남구 자곡동 608,24247.1,,37.4743113,127.0968818
green,원터공원2,공원,서울특별시 강동구,서울특별시 강동구 명일2동 37,24508.5,,37.55321,127.1506513
green,마곡하늬,공원,서울특별시 강서구,서울특별시 강서구 공항동 1220,24597,,37.5524639,126.8160044
green,공암나루,공원,서울특별시 강서구,서울특별시 강서구 가양동 1459-9,25680.4,,37.5698958,126.8503448
green,녹번동,공원,서울특별시 은평구,서울특별시 은평구 녹번동 산27,25854.7,,37.60345,126.9322
green,반포,공원,서울특별시 서초구,서울특별시 서초구 반포동 114-3,26092.2,,37.49884,126.9912
green,태봉2,공원,서울특별시 서초구,서울특별시 서초구 우면동 694,26555.7,,37.46386,127.0227
green,글샘,공원,서울특별시 송파구,"서울특별시 송파구 문정동 621,625",27289.9,,37.48045,127.1205
green,송동2,공원,서울특별시 서초구,서울특별시 서초구 우면동 777,27472.8,,37.45879,127.0199
green,가락,공원,서울특별시 송파구,서울특별시 송파구 가락동 37,27648.2,,37.49796,127.1244
green,까치산2,공원,서울특별시 강서구,서울특별시 강서구 화곡동 산162-1,27658,,37.5367397,126.8440651
green,무학봉,공원,서울특별시 성동구,서울특별시 성동구 하왕십리동 890-243,28843,,37.56161,127.027
green,파리,공원,서울특별시 양천구,서울특별시 양천구 목5동 906,29619.3,,37.53479,126.877
green,손기정공원,공원,서울특별시 중구,서울특별시 중구 만리동2가 6-1,29682,,37.55558,126.9648
green,도산근린공원,공원,서울특별시 강남구,서울특별시 강남구 신사동 649-9,29816.5,,37.5243901,127.0351192
green,구암2,공원,서울특별시 강서구,서울특별시 강서구 가양동 1471,29843.8,,37.5677829,126.8526638
green,녹번서,공원,서울특별시 은평구,서울특별시 은평구 녹번동 85-1,29945,,37.60371,126.9272
green,학동근린공원,공원,서울특별시 강남구,서울특별시 강남구 논현동 26,29947,,37.5154874,127.0252002
green,방이동고분,공원,서울특별시 송파구,서울특별시 송파구 방이동 125,30293.7,,37.50793,127.1181
green,상계,공원,서울특별시 노원구,서울특별시 노원구 상계 620,30479.4,,37.6543741,127.0563321
green,샛터공원5,공원,서울특별시 마포구,서울특별시 마포구 성산동200-326 등 19필지,31100,,37.5661304,126.9063882
green,능골공원3,공원,서울특별시 강동구,서울특별시 강동구 강일동 산19,31464.2,,37.5568313,127.1746614
green,양재1,공원,서울특별시 서초구,서울특별시 서초구 양재동 311,32523.4,,37.47167,127.0424
green,신월2,공원,서울특별시 양천구,서울특별시 양천구 신월7동 987-2,33058,,37.51802,126.8338
green,천왕근린공원,공원,서울특별시 구로구,서울특별시 구로구 천왕동 276,33677,,37.4764902,126.8424952
green,양천,공원,서울특별시 양천구,서울특별시 양천구 신정6동 320,33797.9,,37.51802,126.8682
green,역삼문화공원,공원,서울특별시 강남구,서울특별시 강남구 역삼동 635,33974.9,,37.5022452,127.0299755
green,강일공원,공원,서울특별시 강동구,서울특별시 강동구 강일동 332-5,34591.6,,37.5695531,127.1745097
green,노해1,공원,서울특별시 노원구,서울특별시 노원구 중계 360-18,34646.8,,37.6543741,127.0563321
green,솔밭근린공원,공원,서울특별시 강북구,서울특별시 강북구 우이동 80,34955,,37.6529561,127.0119033
green,달마을,공원,서울특별시 양천구,서울특별시 양천구 목2동 946-1,35214,,37.54334,126.8682
green,소리3,공원,서울특별시 송파구,서울특별시 송파구 문정동 357,36638.3,,37.48198,127.1208
green,삼일,공원,서울특별시 동작구,서울특별시 동작구 사당동 산32,36660,,37.4923058,126.9640747
green,연의,공원,서울특별시 양천구,서울특별시 양천구 신정3동 1320-9외 6필지,37520,,37.51221,126.8343
green,근린공원3호,공원,서울특별시 강남구,서울특별시 강남구 자곡동 615,38003.6,,37.4728663,127.0929197
green,동작주차,공원,서울특별시 동작구,서울특별시 동작구 동작동 326외 1,42220,,37.5031677,126.9780169
green,위례근린공원3호,공원,서울특별시 송파구,서울특별시 송파구 거여동 산26-7임 일원,42448,,37.49065,127.1398
green,거북골,공원,서울특별시 은평구,서울특별시 은평구구산동 산37-4,43812.6,,37.60277,126.9289
green,연지근린공원,공원,서울특별시 구로구,서울특별시 구로구 천왕동 274-2,44478,,37.4796262,126.8379469
green,수서제2근린공원,공원,서울특별시 강남구,서울특별시 강남구 수서동 749,44587.5,,37.4832552,127.089368
green,백제초기적석총,공원,서울특별시 송파구,서울특별시 송파구 석촌동 248,45137.8,,37.50192,127.1023
green,마실길,공원,서울특별시 은평구,서울특별시 은평구진관동 125-22,45170.5,,37.60277,126.9289
green,숭인공원,공원,서울특별시 종로구,서울특별시 종로구 숭인동 58,45615,,37.57606,127.0176
green,강덕공원,공원,서울특별시 강동구,서울특별시 강동구 강일동 산11-6,46699.6,,37.5583425,127.1742825
green,사육신,공원,서울특별시 동작구,서울특별시 동작구 노량진동 155-1,47832,,37.5147766,126.9476224
green,다락원체육공원,공원,서울특별시 도봉구,서울특별시 도봉구 도봉동 8번지,49830,,37.6918243,127.0466961
green,문정2,공원,서울특별시 송파구,서울특별시 송파구 문정동 18-4 외,49972,,37.48675,127.1291
green,서울창포원,공원,서울특별시 도봉구,서울특별시 도봉구 도봉동 4,51486,,37.6906511,127.0486954
green,제각말문화공원(은평뉴타운제2호문화공원),공원,서울특별시 은평구,서울특별시 은평구 진관동 135-26,55721.8,,37.63986,126.9374
green,동빙고공원,공원,서울특별시 용산구,서울특별시 용산구 용산동6가 69-163,55740,,37.51723,126.9843
green,망루,공원,서울특별시 서초구,서울특별시 서초구 우면동 703,56497.1,,37.46405,127.0205
green,서오능,공원,서울특별시 은평구,서울특별시 은평구 진관동 산63-4,58509.5,,37.63825,126.9136
green,청담근린공원,공원,서울특별시 강남구,서울특별시 강남구 청담동 66,59347,,37.5212802,127.0516532
green,북한산1,공원,서울특별시 은평구,서울특별시 은평구 불광동 산42-5,60789,,37.61125,126.94
green,봉화대근린공원,공원,서울특별시 구로구,서울특별시 구로구 천왕동 산13-1,60975,,37.4848637,126.8418685
green,성내천,공원,서울특별시 송파구,서울특별시 송파구 마천동 ~ 한강합류점,61050,,37.49849,127.1528
green,영등포근린공원,공원,서울특별시 영등포구,서울특별시 영등포구 영등포본동 582-3,61544,,37.51524,126.9109
green,샘터공원3,공원,서울특별시 강동구,서울특별시 강동구 고덕2동 287,63320.9,,37.5618389,127.1590199
green,달맞이7,공원,서울특별시 성동구,서울특별시 성동구 금호동4가 산 27,63411.43,,37.54328,127.0215
green,까치산근린공원,공원,서울특별시 관악구,서울특별시 관악구 봉천동 산66-1,64534,,37.4778956,126.9668854
green,아시아,공원,서울특별시 송파구,서울특별시 송파구 잠실동 84,66027.8,,37.51027,127.0764
green,마들,공원,서울특별시 노원구,서울특별시 노원구 덕릉로 450,67108.8,,37.6447162,127.0587319
green,도구머리,공원,서울특별시 서초구,서울특별시 서초구 방배동 산75-1,69578.4,,37.47955,126.9882
green,성북,공원,서울특별시 성북구,서울특별시 성북구 돈암동 86-4,69676.5,,37.59312,127.0224
green,신사,공원,서울특별시 은평구,서울특별시 은평구 신사동 산80-64일대,71848.1,,37.59133,126.9095
green,방화,공원,서울특별시 강서구,서울특별시 강서구 방화동 855,72132,,37.5818518,126.8120634
green,와우공원2,공원,서울특별시 마포구,서울특별시 마포구 창전동3-231 등 59필지,73590,,37.5520842,126.9281076
green,등마루3,공원,서울특별시 강서구,서울특별시 강서구 화곡동 산199,74299,,37.5526224,126.8558388
green,봉은역사공원,공원,서울특별시 강남구,서울특별시 강남구 삼성동 75,75635.7,,37.5139134,127.0554906
green,용봉정,공원,서울특별시 동작구,"서울특별시 동작구 본동 산3-9일대, 흑석동 141-2일대",80804.2,,37.5124515,126.9536614
green,수명산1,공원,서울특별시 강서구,서울특별시 강서구 내발산동 748,83807.1,,37.5496162,126.8276945
green,벌말공원4,공원,서울특별시 강동구,서울특별시 강동구 강일동 산8-1,86205.7,,37.5599671,127.1772641
green,상도근린공원,공원,서울특별시 관악구,서울특별시 관악구 봉천동 산 103-52,87458,,37.4915676,126.9417852
green,북악산,공원,서울특별시 성북구,서울특별시 성북동 산 25-52일대,87616.5,,37.58944,127.0168
green,방죽공원2,공원,서울특별시 강동구,서울특별시 강동구 고덕2동 296,87748.6,,37.5581872,127.1586648
green,개포근린공원,공원,서울특별시 강남구,서울특별시 강남구 개포동 139,90063.9,,37.4827946,127.0661378
green,신림근린공원,공원,서울특별시 관악구,서울특별시 관악구 남부순환로152길 53,90960,,37.48076,126.9185
green,북한산2,공원,서울특별시 성북구,서울특별시 정릉동 산12-1,93472.9,,37.62318,127.0062
green,돌산공원2,공원,서울특별시 강남구,서울특별시 강남구 세곡동 산1,98417,,37.4666746,127.1117035
green,동명공원,공원,서울특별시 강동구,서울특별시 강동구 고덕2동 229 외1,99599.9,,37.5614664,127.1649326
green,푸른수목원,공원,서울특별시 구로구,서울특별시 구로구 항동 31,100809,,37.4836532,126.8242259
green,경희궁공원,공원,서울특별시 종로구,서울특별시 종로구 신문로2가 2-1,100930,,37.57076,126.9688
green,세곡공원,공원,서울특별시 강남구,서울특별시 강남구 세곡동 산50,101513,,37.4694105,127.0970086
green,홍릉,공원,서울특별시 동대문구,서울특별시 동대문구 청량리동 산 1-145,102920,,37.5890944,127.0440449
green,성산공원1,공원,서울특별시 마포구,서울특별시 마포구 성산동산11-1 등 38필지,103962,,37.562123,126.9095481
green,응봉공원3,공원,서울특별시 중구,서울특별시 중구 신당동 산36,107695,,37.55277,127.0125
green,고척근린공원,공원,서울특별시 구로구,서울특별시 구로구 고척동 산9-14,108120,,37.5059298,126.8520051
green,염창,공원,서울특별시 강서구,서울특별시 강서구 염창동 산24-1,112070,,37.5579284,126.8688187
green,독립근린공원,공원,서울특별시 서대문구,서울특별시 서대문구 현저동 101,113021.7,,37.57457,126.9564
green,불광,공원,서울특별시 은평구,서울특별시 은평구 불광동 산33-1,118314.2,,37.6211,126.9309
green,청량1,공원,서울특별시 동대문구,서울특별시 동대문구 청량리동 산1-1,119871,,37.595816,127.0440269
green,궁동근린공원,공원,서울특별시 서대문구,서울특별시 서대문구 연희동 산118-1,126026,,37.56992,126.923
green,장군봉근린공원,공원,서울특별시 관악구,서울특별시 관악구 신림동 산1-1,128100,,37.4786401,126.9390506
green,북한산도시자연공원,공원,서울특별시 강북구,서울특별시 강북구 미아동 산108-19,128341,,37.6210755,127.0084173
green,기자촌,공원,서울특별시 은평구,서울특별시 은평구 진관동 106-17,128953.7,,37.63394,126.9143
green,장지,공원,서울특별시 송파구,서울특별시 송파구 장지동 산 11 외,133122.1,,37.48999,127.1363
green,궁산,공원,서울특별시 강서구,서울특별시 강서구 가양동 산4-7,135002.7,,37.5741635,126.8408038
green,갈산2,공원,서울특별시 양천구,서울특별시 양천구 신정7동 162-56,139576,,37.50606,126.8684
green,물푸레,공원,서울특별시 은평구,서울특별시 은평구 진관동 산100-44,147441.6,,37.63792,126.9162
green,계남근린공원,공원,서울특별시 구로구,서울특별시 구로구 고척동 산8,158814,,37.5092364,126.8501334
green,답십리,공원,서울특별시 동대문구,서울특별시 동대문구 답십리동 산 2-9,160857.6,,37.5737619,127.063554
green,상암공원,공원,서울특별시 마포구,서울특별시 마포구 상암동 산26-39,161153,,37.5786364,126.8832571
green,탄천,공원,서울특별시 송파구,서울특별시 송파구 장지동 ~ 한강합류점,161970,,37.4740026,127.118723
green,사직공원2,공원,서울특별시 종로구,서울특별시 종로구 사직동 1-28,168099.8,,37.57593,126.9673
green,효창공원,공원,서울특별시 용산구,서울특별시 용산구 효창동 255,171277,,37.54518,126.9602
green,봉산2공원1,공원,서울특별시 은평구,서울특별시 은평구 구산동 산136-5,173394.2,,37.61726,126.9033
green,꿩고개,공원,서울특별시 강서구,서울특별시 강서구 방화동 산97-1,180000,,37.5781524,126.8169337
green,천마,공원,서울특별시 송파구,서울특별시 송파구 마천동 산 2 외,182420,,37.50077,127.1571
green,응봉공원2,공원,서울특별시 용산구,서울특별시 용산구 한남동 산8-1,187834,,37.54448,127.0051
green,위례근린공원1호,공원,서울특별시 송파구,서울특별시 송파구 거여동 491임 일원,200327,,37.48221,127.1444
green,인왕산공원,공원,서울특별시 종로구,서울특별시 종로구 옥인동 179-1,201704,,37.58301,126.9638
green,향림1,공원,서울특별시 은평구,서울특별시 은평구 진관동 산52,202993,,37.6293151,126.927329
green,와룡공원2,공원,서울특별시 종로구,서울특별시 종로구 명륜3가 53-52,204369,,37.58934,126.9893
green,백련1,공원,서울특별시 은평구,서울특별시 은평구응암동 산1-27,205090.9,,37.60277,126.9289
green,개운산,공원,서울특별시 성북구,서울특별시 성북구 돈암동 산3-15 일대,208618,,37.60081,127.0264
green,용왕산,공원,서울특별시 양천구,서울특별시 양천구 목2동 199-51,213552,,37.54247,126.8767
green,오금,공원,서울특별시 송파구,서울특별시 송파구 오금동 51,219167.4,,37.50211,127.1318
green,방배,공원,서울특별시 서초구,서울특별시 서초구 방배동 산43-6,228107,,37.47766,126.9971
green,달터근린공원,공원,서울특별시 강남구,서울특별시 강남구 개포동 156,232078.2,,37.4853673,127.0610514
green,배봉산,공원,서울특별시 동대문구,서울특별시 동대문구 전농동 산 32-20,232813.7,,37.5810378,127.0641196
green,오동,공원,서울특별시 성북구,서울특별시 성북구 하월곡동 산2-1,233989.7,,37.60963,127.0416
green,도곡근린공원,공원,서울특별시 강남구,서울특별시 강남구 도곡동 산31-1,254648,,37.4894212,127.0440953
green,영축산<시공원>,공원,서울특별시 노원구,서울특별시 노원구 월계 산108,260500,,37.6543741,127.0563321
green,송파나루,공원,서울특별시 송파구,"서울특별시 송파구 신천동 32, 잠실동 47",285757.6,,37.51133,127.1051
green,쌍문근린공원,공원,서울특별시 도봉구,서울특별시 도봉구 쌍문동 산80,328018,,37.6536283,127.0288369
green,청량2,공원,서울특별시 성북구,서울특별시 성북구 석관동 산1-5,329290,,37.6038,127.0559
green,말죽거리,공원,서울특별시 서초구,서울특별시 서초구 양재동 산57-1,350200,,37.48024,127.0288
green,상도,공원,서울특별시 동작구,서울특별시 동작구 상도동 산75,359342.8,,37.4940087,126.9396926
green,우장,공원,서울특별시 강서구,서울특별시 강서구 화곡동 산60-1,359435.2,,37.5504033,126.8435485
green,까치산5,공원,서울특별시 동작구,서울특별시 동작구 흑석동141-2일대,384026,,37.5106044,126.9628605
green,개화1,공원,서울특별시 강서구,서울특별시 강서구 개화동 산17,386500,,37.5880478,126.8055224
green,개웅산근린공원,공원,서울특별시 구로구,서울특별시 구로구 개봉동 산53-3,411972,,37.4871741,126.8477805
green,노량진,공원,서울특별시 동작구,서울특별시 동작구 노량진동 225-291,413203,,37.5090563,126.9437327
green,응봉2,공원,서울특별시 성동구,서울특별시 성동구 독서당로63길 85(금호동1가),417284.88,,37.55399,127.0272
green,계남2,공원,서울특별시 양천구,"서울특별시 양천구 신정3동 521, 621일대",440173,,37.51381,126.8488
green,삼청공원,공원,서울특별시 종로구,서울특별시 종로구 삼청동 산2-1,468348.2,,37.59268,126.9818
green,창덕공원,공원,서울특별시 종로구,서울특별시 종로구 와룡동 2-71,491328,,37.58192,126.9931
green,서울식물원,공원,서울특별시 강서구,서울특별시 강서구 마곡동 255-1,503875,,37.569795,126.8318157
green,광평공원,공원,서울특별시 강남구,서울특별시 강남구 수서동 산10-1,519782,,37.4881235,127.0932214
green,노고산공원,공원,서울특별시 마포구,서울특별시 마포구 대흥동 산1-30등17필지,528936,,37.5526884,126.9421439
green,서리풀,공원,서울특별시 서초구,서울특별시 서초구 서초동 산 165,548520.8,,37.48745,127.0034
green,진관,공원,서울특별시 은평구,서울특별시 은평구 진관동 산95 일대,585480.1,,37.64717,126.9326
green,천왕근린공원(시),공원,서울특별시 구로구,서울특별시 구로구 천왕동 산25-1,587860,,37.4822542,126.8339828
green,일자산공원,공원,서울특별시 강동구,서울특별시 강동구 둔촌동 산140,632733,,37.5322535,127.1509116
green,명일공원,공원,서울특별시 강동구,서울특별시 강동구 상일동 135,649709.6,,37.5514595,127.1641954
green,초안산근린공원,공원,서울특별시 도봉구,서울특별시 도봉구 창동 산24 초안산근린공원,664905,,37.6488321,127.0406167
green,봉제산,공원,서울특별시 강서구,서울특별시 강서구 화곡동 산1,917190,,37.5411976,126.8586612
green,초안산<시공원>,공원,서울특별시 노원구,서울특별시 노원구 월계동 산1,950643,,37.6443924,127.050807
green,봉화산근린공원,공원,서울특별시 중랑구,서울특별시 중랑구 묵동 산 46-1,977500,,37.60868,127.084
green,백련근린공원,공원,서울특별시 서대문구,서울특별시 서대문구 홍은동 산11-313,993724,,37.59109,126.9326
green,온수도시자연공원,공원,서울특별시 양천구,서울특별시 양천구 신월동산85-4 일대,1003471,,37.52112,126.8276
green,온수근린공원,공원,서울특별시 구로구,서울특별시 구로구 개봉동 45-2,1097565,,37.5020839,126.8383454
green,현충2,공원,서울특별시 동작구,서울특별시 동작구 사당동 산24-17,1106402.2,,37.4858645,126.9745438
green,오동근린공원,공원,서울특별시 강북구,서울특별시 강북구 번동 산20-1,1346557,,37.6293547,127.0332313
green,올림픽공원,공원,서울특별시 송파구,서울특별시 송파구 방이동 88-3 외,1447122.3,,37.52121,127.1214
green,용마도시자연공원,공원,서울특별시 중랑구,서울특별시 중랑구 면목동 산 1-1,2800624,,37.58436,127.107
green,불암산<시공원>,공원,서울특별시 노원구,서울특별시 노원구 중계 산101-1,5332422,,37.6543741,127.0563321
green,수락산<시공원>,공원,서울특별시 노원구,서울특별시 노원구 상계 산3-1,6691885.3,,37.6543741,127.0563321
green,북한산국립공원,공원,서울특별시 도봉구,서울특별시 도봉구 도봉1동 산29-2,8703000,,37.6792896,127.0125744
green,갈맷길 05-02코스,산책로,부산광역시 강서구,,,27,129.2465619,35.2732547
green,낙동강 하구 생태길 03코스 맥도 가시연꽃길,산책로,부산광역시 강서구,,,6.8,128.9734005,35.1563773
green,갈맷길 08-01코스,산책로,부산광역시 금정구,,,10.2,129.2465619,35.2732547
green,갈맷길 09-01코스,산책로,부산광역시 금정구,,,11.5,129.2465619,35.2732547
green,갈맷길 07-02코스,산책로,부산광역시 금정구,,,13,129.2465619,35.2732547
green,갈맷길 08-02코스,산책로,부산광역시 금정구,,,7,129.2465619,35.2732547
green,수영강 상류 누리길 수영강 상류 누리길,산책로,부산광역시 금정구,,,7.5,129.1108431,35.3044065
green,선동 누리길 선동 누리길,산책로,부산광역시 금정구,,,1.7,129.099212,35.2647103
green,범어사 문화체험 누리길 범어사 문화체험 누리길,산책로,부산광역시 금정구,,,2.3,129.0625176,35.1087007
green,해파랑길 03코스,산책로,부산광역시 기장군,,,20.5,129.4352783,36.4273739
green,갈맷길 01-01코스,산책로,부산광역시 기장군,,,12.2,129.2465619,35.2732547
green,갈맷길 01-02코스,산책로,부산광역시 기장군,,,21.4,129.2465619,35.2732547
green,갈맷길 09-02코스,산책로,부산광역시 기장군,,,9,129.2465619,35.2732547
green,기장 해안산책로 01코스,산책로,부산광역시 기장군,,,12,129.223728,35.2148482
green,해파랑길 01코스,산책로,부산광역시 남구,,,17.8,129.4352783,36.4273739
green,갈맷길 03-01코스,산책로,부산광역시 남구,,,11.5,129.2465619,35.2732547
green,이바구길 초량이바구길,산책로,부산광역시 동구,,,2.7,129.0387526,35.1163247
green,동구 씽씽(SingSing) 테마로드 동구 씽씽 테마로드,산책로,부산광역시 동구,,,3.5,126.997407,37.5271371
green,갈맷길 07-01코스,산책로,부산광역시 부산진구,,,9.3,129.2465619,35.2732547
green,도심숲이 있는 서면권 근대산업발상지 따라 걷기 도심숲이 있는 서면권 근대산업발상지 따라 걷기,산책로,부산광역시 부산진구,,,1,126.9287498,37.5277788
green,가람낙조길 01코스 가람낙조길,산책로,부산광역시 북구,,,10.1,129.0372702,35.2517548
green,초록누리길 01코스 초록누리길,산책로,부산광역시 북구,,,4,129.0298773,35.2007329
green,구포 무장애 숲길 무장애 탐방구간,산책로,부산광역시 북구,,,1.2,129.000597,35.1976157
green,낙동강 하구 생태길 01코스 삼락 맹꽁이길,산책로,부산광역시 사상구,,,5,128.9734005,35.1563773
green,낙동강 하구 생태길 02코스 삼락 물억새길,산책로,부산광역시 사상구,,,6.3,128.9734005,35.1563773
green,갈맷길 04-01코스,산책로,부산광역시 사하구,,,13,129.2465619,35.2732547
green,갈맷길 05-01코스,산책로,부산광역시 사하구,,,22,129.2465619,35.2732547
green,갈맷길 06-01코스,산책로,부산광역시 사하구,,,13.2,129.2465619,35.2732547
green,갈맷길 04-02코스,산책로,부산광역시 사하구,,,12.5,129.2465619,35.2732547
green,갈맷길 04-03코스,산책로,부산광역시 사하구,,,10.8,129.2465619,35.2732547
green,갈맷길 06-02코스,산책로,부산광역시 사하구,,,23,129.2465619,35.2732547
green,낙동강 하구 생태길 04코스 을숙도 철새도래지길,산책로,부산광역시 사하구,,,6.2,128.9734005,35.1563773
green,선셋로드 선셋로드,산책로,부산광역시 사하구,,,11,128.970371,35.0386163
green,몰운대길 01코스,산책로,부산광역시 사하구,,,4,128.9685461,35.0407403
green,노을나루길 노을나루길,산책로,부산광역시 사하구,,,1.67,128.9553235,35.0953611
green,그린웨이 서구 일주로 01코스 송도해안 볼레길,산책로,부산광역시 서구,,,9.3,129.0182056,35.0852644
green,그린웨이 서구 일주로 02코스 천마산 10리길,산책로,부산광역시 서구,,,4.8,129.0182056,35.0852644
green,그린웨이 서구 일주로 03코스 구덕 산책로 숲길,산책로,부산광역시 서구,,,6.7,129.0182056,35.0852644
green,그린웨이 서구 일주로 04코스 대신 공원 숲길,산책로,부산광역시 서구,,,4,129.0182056,35.0852644
green,갈맷길 02-02코스,산책로,부산광역시 수영구,,,12.6,129.2465619,35.2732547
green,갈맷길 03-03코스,산책로,부산광역시 영도구,,,10,129.2465619,35.2732547
green,절영해안산책로 01코스,산책로,부산광역시 영도구,,,10.6,129.0411886,35.0813686
green,근대선창길 근대선창길,산책로,부산광역시 영도구,,,2,129.0380793,35.0935183
green,갈맷길 03-02코스,산책로,부산광역시 중구,,,15.8,129.2465619,35.2732547
green,해파랑길 02코스,산책로,부산광역시 해운대구,,,16.3,129.4352783,36.4273739
green,갈맷길 02-01코스,산책로,부산광역시 해운대구,,,5.7,129.2465619,35.2732547
green,해운대삼포길 해운대 삼포길,산책로,부산광역시 해운대구,,,7,129.1853015,35.1589642
green,반송동 석대천변 누리길 해운대구 반송동,산책로,부산광역시 해운대구,,,1.6,129.1356501,35.2183018
green,대모산 나들길 대모산 나들길,산책로,서울특별시 강남구,,,4.8,127.073712,37.477148
green,선정릉 나들길 선정릉 나들길,산책로,서울특별시 강남구,,,5.9,127.0526324,37.5071339
green,구룡산 나들길 구룡산 나들길,산책로,서울특별시 강남구,,,6.02,127.0491853,37.4660639
green,서울둘레길 04코스 대모·우면산코스,산책로,서울특별시 강남구,,,17.9,127.0080989,37.4318137
green,서울도보관광코스 선릉 ~ 봉은사,산책로,서울특별시 강남구,,,3.8,126.9850602,37.5825259
green,강동그린웨이 걷기대회 코스 강동그린웨이 걷기대회 코스,산책로,서울특별시 강동구,,,3.78,127.1536069,37.5306845
green,일자산숲나들길 일자산숲 나들길,산책로,서울특별시 강동구,,,1.9,127.1528418,37.534967
green,고덕산 산책길 고덕산 산책길,산책로,서울특별시 강동구,,,1.9,127.1464937,37.5611617
green,몽촌토성나들길 몽촌토성 나들길,산책로,서울특별시 강동구,,,6.14,127.1214926,37.5156355
green,서울둘레길 03코스 고덕·일자산코스,산책로,서울특별시 강동구,,,26.1,127.0080989,37.4318137
green,북서울꿈의숲 산책길 북서울꿈의숲 산책길,산책로,서울특별시 강북구,,,2.01,127.0383089,37.62122
green,북서울꿈의숲 나들길 북서울꿈의숲 나들길,산책로,서울특별시 강북구,,,4.7,127.0345335,37.6284399
green,오패산 나들길 오패산 나들길,산책로,서울특별시 강북구,,,2.05,127.0345335,37.6284399
green,우이령 나들길 우이령 나들길,산책로,서울특별시 강북구,,,7.86,126.9950661,37.685632
green,북한산둘레길 01코스 소나무숲길,산책로,서울특별시 강북구,,,3.1,126.9362684,37.6261212
green,북한산둘레길 02코스 순례길,산책로,서울특별시 강북구,,,2.3,126.9362684,37.6261212
green,북한산둘레길 03코스 흰구름길,산책로,서울특별시 강북구,,,4.1,126.9362684,37.6261212
green,북한산둘레길 04코스 솔샘길,산책로,서울특별시 강북구,,,2.1,126.9362684,37.6261212
green,북한산둘레길 05코스 명상길,산책로,서울특별시 강북구,,,2.4,126.9362684,37.6261212
green,북한산둘레길 06코스 평창마을길,산책로,서울특별시 강북구,,,5,126.9362684,37.6261212
green,북한산둘레길 11코스 효자길,산책로,서울특별시 강북구,,,3.3,126.9362684,37.6261212
green,북한산둘레길 12코스 충의길,산책로,서울특별시 강북구,,,3.7,126.9362684,37.6261212
green,북한산둘레길 13코스 송추마을길,산책로,서울특별시 강북구,,,5.3,126.9362684,37.6261212
green,북한산둘레길 14코스 산너미길,산책로,서울특별시 강북구,,,2.3,126.9362684,37.6261212
green,북한산둘레길 15코스 안골길,산책로,서울특별시 강북구,,,4.7,126.9362684,37.6261212
green,북한산둘레길 16코스 보루길,산책로,서울특별시 강북구,,,2.9,126.9362684,37.6261212
green,북한산둘레길 17코스 다락원길,산책로,서울특별시 강북구,,,3.1,126.9362684,37.6261212
green,북한산둘레길 18코스 도봉옛길,산책로,서울특별시 강북구,,,3.1,126.9362684,37.6261212
green,북한산둘레길 19코스 방학동길,산책로,서울특별시 강북구,,,3.1,126.9362684,37.6261212
green,북한산둘레길 02코스 순례길(무장애 탐방구간),산책로,서울특별시 강북구,,,0.6,126.9362684,37.6261212
green,북한산둘레길 21코스 우이령길,산책로,서울특별시 강북구,,,6.8,126.9362684,37.6261212
green,서울둘레길 07코스 봉산·앵봉산코스,산책로,서울특별시 강서구,,,16.6,127.0080989,37.4318137
green,개화산자락길 개화산무장애숲길,산책로,서울특별시 강서구,,,0.7,126.9457572,37.4564293
green,봉제산 숲나들길 봉제산 숲나들길,산책로,서울특별시 강서구,,,2.61,126.8547418,37.5450822
green,강서문화 산책길 강서 문화 산책길,산책로,서울특별시 강서구,,,2.51,126.8444262,37.5734649
green,우장산공원 산책길 우장산공원 산책길,산책로,서울특별시 강서구,,,4.22,126.8439888,37.5530225
green,강서둘레길 01코스 개화산숲길,산책로,서울특별시 강서구,,,3.35,126.8042055,37.5814383
green,강서둘레길 02코스 공원길,산책로,서울특별시 강서구,,,3.53,126.8042055,37.5814383
green,강서둘레길 03코스 강서 한강길,산책로,서울특별시 강서구,,,4.56,126.8042055,37.5814383
green,관음사 산책길 관음사 산책길,산책로,서울특별시 관악구,,,0.81,126.9791551,37.4682599
green,낙성대 산책길 낙성대 산책길,산책로,서울특별시 관악구,,,1.22,126.9630878,37.4719465
green,청룡산 나들길 청룡산 나들길,산책로,서울특별시 관악구,,,5.87,126.9562546,37.4652947
green,관악산공원 무장애 숲길 무장애 탐방구간,산책로,서울특별시 관악구,,,1.3,126.9484305,37.4548218
green,관악산 계곡나들길 관악산 계곡 나들길,산책로,서울특별시 관악구,,,5.58,126.9474537,37.4423838
green,관악산 나들길 관악산 나들길,산책로,서울특별시 관악구,,,5.72,126.9452152,37.468523
green,관악산둘레길 서울구간,산책로,서울특별시 관악구,,,15,126.925688,37.4711649
green,아차산 고구려 역사길 01코스 아차산 고구려 역사길,산책로,서울특별시 광진구,,,7.8,127.1036886,37.5581581
green,아차산숲 나들길 아차산숲 나들길,산책로,서울특별시 광진구,,,2.78,127.1032633,37.5550446
green,어린이대공원 산책길 어린이대공원 산책길,산책로,서울특별시 광진구,,,3.11,127.0796009,37.5505399
green,성동 송정둑길 성동 송정둑길,산책로,서울특별시 광진구,,,8.7,127.0646533,37.5497994
green,개웅산 숲산책길 개웅산 숲산책길,산책로,서울특별시 구로구,,,1.5,126.8457837,37.4859831
green,구로 지양산 숲나들길 구로 지양산 숲나들길,산책로,서울특별시 구로구,,,6.84,126.8240666,37.5144533
green,서울둘레길 05코스 관악산코스,산책로,서울특별시 금천구,,,12.7,127.0080989,37.4318137
green,서울둘레길 06코스 안양천코스,산책로,서울특별시 금천구,,,18,127.0080989,37.4318137
green,독산자락길 01코스,산책로,서울특별시 금천구,,,2,127.0067004,37.6210595
green,호암산 나들길 호암산 나들길,산책로,서울특별시 금천구,,,4,126.9226186,37.4439091
green,독산 삼성산 나들길 독산 삼성산 나들길,산책로,서울특별시 금천구,,,6.46,126.908195,37.4696857
green,불암산 하루길 불암산 둘레길,산책로,서울특별시 노원구,,,11,127.0915048,37.6420864
green,수락산 나들길 수락산 나들길,산책로,서울특별시 노원구,,,7.41,127.0848367,37.6927157
green,노원산내들길 노원산내들길,산책로,서울특별시 노원구,,,26.5,127.078706,37.6206918
green,당현천길 당현천길,산책로,서울특별시 노원구,,,5.1,127.0662353,37.6493724
green,월계공원 산책길 월계공원 산책길,산책로,서울특별시 노원구,,,1.12,127.0581412,37.6275801
green,서울둘레길 01코스 수락·불암산코스,산책로,서울특별시 노원구,,,14.3,127.0080989,37.4318137
green,서울둘레길 02코스 용마·아차산코스,산책로,서울특별시 노원구,,,12.6,127.0080989,37.4318137
green,초안산 나들길 초안산 나들길,산책로,서울특별시 도봉구,,,4.59,127.0477266,37.6320789
green,쌍문역사 산책길 쌍문역사 산책길,산책로,서울특별시 도봉구,,,5.24,127.0254165,37.6555041
green,북한산방학 나들길 북한산방학 나들길,산책로,서울특별시 도봉구,,,6.81,127.0142913,37.6727256
green,북한산둘레길 18코스 도봉옛길(무장애 탐방구간),산책로,서울특별시 도봉구,,,0.3,126.9362684,37.6261212
green,북한산둘레길 20코스 왕실묘역길,산책로,서울특별시 도봉구,,,1.6,126.9362684,37.6261212
green,중랑천 제방 산책로 01코스,산책로,서울특별시 동대문구,,,3.8,127.0774172,37.5750052
green,배봉산 답십리 나들길 배봉산 답십리 나들길,산책로,서울특별시 동대문구,,,3.39,127.0651916,37.5857669
green,홍릉수목원길 홍릉수목원길,산책로,서울특별시 동대문구,,,1.83,127.043973,37.5937452
green,동작충효길 01코스 고구동산길,산책로,서울특별시 동작구,,,3.2,126.9744481,37.4945288
green,동작충효길 02코스 현충원길,산책로,서울특별시 동작구,,,2.6,126.9744481,37.4945288
green,동작충효길 03코스 한강나들길,산책로,서울특별시 동작구,,,4.7,126.9744481,37.4945288
green,동작충효길 04코스 노량진길,산책로,서울특별시 동작구,,,3.4,126.9744481,37.4945288
green,동작충효길 05코스 보라매길,산책로,서울특별시 동작구,,,2.7,126.9744481,37.4945288
green,동작충효길 06코스 동작마루길,산책로,서울특별시 동작구,,,4.8,126.9744481,37.4945288
green,동작충효길 07코스 까치산길,산책로,서울특별시 동작구,,,3.6,126.9744481,37.4945288
green,현충원 나들길 현충원 나들길,산책로,서울특별시 동작구,,,7.34,126.9670077,37.4937197
green,보라매공원 산책길 보라매공원 산책길,산책로,서울특별시 동작구,,,1.63,126.9196937,37.4906732
green,서울도보관광코스 한강 ~ 절두산코스,산책로,서울특별시 마포구,,,3,126.9850602,37.5825259
green,염리동 소금길 A+B코스,산책로,서울특별시 마포구,,,1.7,126.9470349,37.5553554
green,홍대예술의거리 나들길 홍대 예술의 거리 나들길,산책로,서울특별시 마포구,,,3.12,126.928405,37.5523074
green,상암산DMC체험 나들길 상암산 DMC체험 나들길,산책로,서울특별시 마포구,,,4.62,126.8804888,37.5810716
green,월드컵공원 나들길 월드컵공원 나들길,산책로,서울특별시 마포구,,,19.29,126.8804888,37.5810716
green,마포난지생명길 02코스,산책로,서울특별시 마포구,,,9,126.8693946,37.5755494
green,마포난지생명길 01코스,산책로,서울특별시 마포구,,,14.4,126.8693946,37.5755494
green,신촌대학탐방 나들길 신촌 대학탐방 나들길,산책로,서울특별시 서대문구,,,5.12,126.9458316,37.5605338
green,안산자락길 안산 자락길,산책로,서울특별시 서대문구,,,7,126.9448706,37.5744807
green,안산숲 나들길 안산숲 나들길,산책로,서울특별시 서대문구,,,5.23,126.9440234,37.5750534
green,백련산 나들길 백련산 나들길,산책로,서울특별시 서대문구,,,5.1,126.9277023,37.5909344
green,내곡둘레길 내곡둘레길,산책로,서울특별시 서초구,,,11.89,127.0759529,37.4527327
green,양재천 산책길 양재천 산책길,산책로,서울특별시 서초구,,,4,127.0352218,37.4736085
green,우면산 둘레길 우면산 둘레길,산책로,서울특별시 서초구,,,10.5,127.0187489,37.4764703
green,서리골 서리풀 나들길 서리골 서리풀 나들길,산책로,서울특별시 서초구,,,3.25,127.0016464,37.4928485
green,우면산 나들길 우면산 나들길,산책로,서울특별시 서초구,,,3.86,127.0016464,37.4928485
green,신반포올레길 신반포 올레길,산책로,서울특별시 서초구,,,3,127.0016423,37.5121264
green,허밍웨이길 허밍웨이길,산책로,서울특별시 서초구,,,2,126.9910117,37.4998075
green,서울숲공원 산책길 서울숲공원 산책길,산책로,서울특별시 성동구,,,3.48,127.0387452,37.54514
green,청장산 산책길 청장산 산책길,산책로,서울특별시 성북구,,,2.22,127.0575263,37.6042313
green,오동공원 산책길 오동공원 산책길,산책로,서울특별시 성북구,,,2.01,127.0397933,37.6094346
green,개운산숲 나들길 개운산숲 나들길,산책로,서울특별시 성북구,,,2.2,127.0275612,37.5957358
green,북한산자락 나들길 북한산자락 나들길,산책로,서울특별시 성북구,,,2.49,127.0076795,37.6172148
green,정릉숲 산책길 정릉숲 산책길,산책로,서울특별시 성북구,,,2.36,127.0031346,37.6021829
green,북악스카이웨이길 북악스카이웨이길,산책로,서울특별시 성북구,,,6.96,126.9895721,37.6045899
green,성북동고택산책길 성북동 고택 산책길,산책로,서울특별시 성북구,,,4.16,126.9880515,37.5960303
green,서울도보관광코스 성북동,산책로,서울특별시 성북구,,,4,126.9850602,37.5825259
green,토성산성어울길 01코스 몽촌토성길,산책로,서울특별시 송파구,,,7.6,127.1860031,37.4808953
green,송파소리길 역사탐방길,산책로,서울특별시 송파구,,,11.45,127.1253897,37.4759619
green,송파소리길 일주코스,산책로,서울특별시 송파구,,,30.21,127.1253897,37.4759619
green,석촌호수산책길 석촌호수 산책길,산책로,서울특별시 송파구,,,4.17,127.1050057,37.5095353
green,아차산 고구려 역사길 02코스 토성산성 어울길 연계,산책로,서울특별시 송파구,,,5.5,127.1036886,37.5581581
green,서울도보관광코스 몽촌토성,산책로,서울특별시 송파구,,,4,126.9850602,37.5825259
green,용왕산 나들길 용왕산 나들길,산책로,서울특별시 양천구,,,2.63,126.8754084,37.5426479
green,달마을근린공원 산책길 달마을근린공원 산책길,산책로,서울특별시 양천구,,,0.5,126.8720249,37.5361715
green,서서울호수공원 산책길 서서울호수공원 산책길,산책로,서울특별시 양천구,,,0.96,126.8301688,37.5269754
green,여의도공원 산책길 여의도공원 산책길,산책로,서울특별시 영등포구,,,2.82,126.9219137,37.5261923
green,영등포봄꽃 나들길 영등포 봄꽃 나들길,산책로,서울특별시 영등포구,,,3.84,126.8994712,37.5042413
green,한남매봉공원 산책길 한남매봉공원 산책길,산책로,서울특별시 용산구,,,1.81,127.0072826,37.5424539
green,남산야외식물원 산책길 남산야외식물원 산책길,산책로,서울특별시 용산구,,,1.93,126.9974518,37.5419568
green,남산순환나들길 남산순환나들길,산책로,서울특별시 용산구,,,9.17,126.9939838,37.55434
green,용산가족공원 산책길 용산가족공원 산책길,산책로,서울특별시 용산구,,,3.3,126.9843659,37.5245448
green,전쟁기념관 산책길 전쟁기념관 산책길,산책로,서울특별시 용산구,,,1.6,126.9760357,37.5371791
green,서울둘레길 08코스 북한산코스,산책로,서울특별시 은평구,,,34.8,127.0080989,37.4318137
green,탕춘대성숲 나들길 탕춘대성숲 나들길,산책로,서울특별시 은평구,,,12.26,126.9698301,37.5951045
green,북한산둘레길 07코스 옛성길,산책로,서울특별시 은평구,,,2.7,126.9362684,37.6261212
green,북한산둘레길 08코스 구름정원길,산책로,서울특별시 은평구,,,5.2,126.9362684,37.6261212
green,북한산둘레길 09코스 마실길,산책로,서울특별시 은평구,,,1.5,126.9362684,37.6261212
green,북한산둘레길 10코스 내시묘역길,산책로,서울특별시 은평구,,,3.5,126.9362684,37.6261212
green,진관공원 나들길 진관공원 나들길,산책로,서울특별시 은평구,,,2.76,126.9321281,37.6397778
green,서울 한양도성 길 01코스 북악산,산책로,서울특별시 종로구,,,4.715,127.0086358,37.5807966
green,서울 한양도성 길 02코스 낙산,산책로,서울특별시 종로구,,,3.3,127.0086358,37.5807966
green,서울 한양도성 길 03코스 남산,산책로,서울특별시 종로구,,,5.2,127.0086358,37.5807966
green,서울 한양도성 길 04코스 인왕산,산책로,서울특별시 종로구,,,5.3,127.0086358,37.5807966
green,서울 천주교순례길 01코스 말씀의 길,산책로,서울특별시 종로구,,,9.8,127.0080424,37.5793623
green,도심고궁 나들길 도심고궁 나들길,산책로,서울특별시 종로구,,,8.6,126.9899013,37.5821444
green,서울도보관광코스 성균관 유생들의 이야기,산책로,서울특별시 종로구,,,2,126.9850602,37.5825259
green,서울도보관광코스 경복궁 ~ 효자동 코스,산책로,서울특별시 종로구,,,2,126.9850602,37.5825259
green,서울도보관광코스 경희궁 ~ 서대문,산책로,서울특별시 종로구,,,5.52,126.9850602,37.5825259
green,서울도보관광코스 덕수궁 ~ 정동,산책로,서울특별시 종로구,,,2.3,126.9850602,37.5825259
green,서울도보관광코스 동대문전통마켓코스,산책로,서울특별시 종로구,,,2.5,126.9850602,37.5825259
green,서울도보관광코스 북촌한옥마을,산책로,서울특별시 종로구,,,3.5,126.9850602,37.5825259
green,서울도보관광코스 세종마을,산책로,서울특별시 종로구,,,4,126.9850602,37.5825259
green,서울도보관광코스 인사동 ~ 운현궁 코스,산책로,서울특별시 종로구,,,1.7,126.9850602,37.5825259
green,서울도보관광코스 창경궁,산책로,서울특별시 종로구,,,1.2,126.9850602,37.5825259
green,서울도보관광코스 창경궁 ~ 생태코스,산책로,서울특별시 종로구,,,2,126.9850602,37.5825259
green,서울도보관광코스 창덕궁,산책로,서울특별시 종로구,,,1.5,126.9850602,37.5825259
green,서울도보관광코스 창덕궁~ 생태코스,산책로,서울특별시 종로구,,,2,126.9850602,37.5825259
green,서울도보관광코스 01코스 청계천,산책로,서울특별시 종로구,,,2.7,126.9850602,37.5825259
green,서울도보관광코스 02코스 청계천,산책로,서울특별시 종로구,,,2.3,126.9850602,37.5825259
green,서울도보관광코스 낙산성곽,산책로,서울특별시 종로구,,,2.5,126.9850602,37.5825259
green,북악하늘 나들길 북악하늘 나들길,산책로,서울특별시 종로구,,,2.79,126.983581,37.5960082
green,동네 골목길 관광 코스 02코스 사직동 오솔길,산책로,서울특별시 종로구,,,4.6,126.9756294,37.5758462
green,동네 골목길 관광 코스 03코스 눈길 발길 머무는 길(삼청동),산책로,서울특별시 종로구,,,4.2,126.9756294,37.5758462
green,동네 골목길 관광 코스 05코스 한 폭의 그림 속 풍경길(평창동),산책로,서울특별시 종로구,,,3.6,126.9756294,37.5758462
green,동네 골목길 관광 코스 06코스 인왕산 바위가 전하는 이야기길(무악동),산책로,서울특별시 종로구,,,2.1,126.9756294,37.5758462
green,동네 골목길 관광 코스 07코스 역사·문화 기행길(교남동),산책로,서울특별시 종로구,,,4,126.9756294,37.5758462
green,동네 골목길 관광 코스 08코스 세월을 거닐는 북촌 한옥마을길(가회동),산책로,서울특별시 종로구,,,4,126.9756294,37.5758462
green,동네 골목길 관광 코스 09코스 문화적 갯벌길(종로1.2.3.4가동),산책로,서울특별시 종로구,,,3.4,126.9756294,37.5758462
green,"동네 골목길 관광 코스 10코스 문화유적과 자연, 쇼핑재미와 먹거리가 넘치는 길(종로5.6가동)",산책로,서울특별시 종로구,,,2.9,126.9756294,37.5758462
green,동네 골목길 관광 코스 11코스 타임머신 타고 추억여행길(이화동),산책로,서울특별시 종로구,,,3.6,126.9756294,37.5758462
green,동네 골목길 관광 코스 12코스 문학·예술의 '흥(興)'길/인과 예의 고장길(혜화·명륜동),산책로,서울특별시 종로구,,,2,126.9756294,37.5758462
green,동네 골목길 관광 코스 14코스 마음을 여는 사람의 추억길(창신동),산책로,서울특별시 종로구,,,4.6,126.9756294,37.5758462
green,동네 골목길 관광 코스 15코스 단종애사 정순왕후의 숨결길(숭인동),산책로,서울특별시 종로구,,,2.1,126.9756294,37.5758462
green,동네 골목길 관광 코스 세종한울길,산책로,서울특별시 종로구,,,4,126.9756294,37.5758462
green,"동네 골목길 관광 코스 사랑,평화,화합을 찾아가는 종교문화유적길",산책로,서울특별시 종로구,,,6.95,126.9756294,37.5758462
green,동네 골목길 관광 코스 윤동주 시인의 언덕까지 문학둘레길,산책로,서울특별시 종로구,,,5,126.9756294,37.5758462
green,동네 골목길 관광 코스 북촌코스,산책로,서울특별시 종로구,,,4,126.9756294,37.5758462
green,동네 골목길 관광 코스 01코스 정신문화 여행길(청운효자동),산책로,서울특별시 종로구,,,5.7,126.9756294,37.5758462
green,동네 골목길 관광 코스 04코스 생태·문화 탐방길(부암동),산책로,서울특별시 종로구,,,6.72,126.9756294,37.5758462
green,동네 골목길 관광 코스 16코스 세종마을,산책로,서울특별시 종로구,,,4,126.9756294,37.5758462
green,인사동삼청동 나들길 인사동삼청동 나들길,산책로,서울특별시 종로구,,,8.12,126.9749159,37.5836342
green,백사실두메 나들길 백사실 두메 나들길,산책로,서울특별시 종로구,,,3.06,126.9739462,37.5982013
green,인왕산 자락길 인왕산 자락길,산책로,서울특별시 종로구,,,3.2,126.9625124,37.5825858
green,부암동 나들길 부암동 나들길,산책로,서울특별시 종로구,,,4.3,126.9577876,37.5852259
green,인왕산 나들길 인왕산 나들길,산책로,서울특별시 종로구,,,3.54,126.9577876,37.5852259
green,서울숲남산 나들길 서울숲남산 나들길,산책로,서울특별시 중구,,,8.82,127.017311,37.555593
green,남산순환나들길 남산순환나들길(쉽게 걷는 길),산책로,서울특별시 중구,,,3.4,126.9939838,37.55434
green,서울도보관광코스 남산성곽,산책로,서울특별시 중구,,,6,126.9850602,37.5825259
green,덕수궁 산책길 덕수궁 산책길,산책로,서울특별시 중구,,,6.02,126.9716839,37.5676607
green,중랑캠핑숲 나들길 중랑캠핑숲 나들길,산책로,서울특별시 중랑구,,,3.73,127.1138491,37.6008882
green,망우산숲 나들길 망우산숲 나들길,산책로,서울특별시 중랑구,,,5.51,127.1130972,37.5979085
green,용마산 나들길 용마산 나들길,산책로,서울특별시 중랑구,,,4.02,127.0982792,37.5723083
green,중랑천 제방 장미 벚꽃길 중랑천제방장미벚꽃길,산책로,서울특별시 중랑구,,,5.67,127.0711056,37.5946833
green,순례길 하논성당길,산책로,제주특별자치도 서귀포시,,,11,128.8217927,36.6984717
green,환해장성로 01코스,산책로,제주특별자치도 서귀포시,,,10.3,126.8709674,33.3665907
green,갑마장길 및 가름질 갑마장길,산책로,제주특별자치도 서귀포시,,,20,126.741904,33.3945813
green,갑마장길 및 가름질 쫄븐갑마장길,산책로,제주특별자치도 서귀포시,,,10.3,126.741904,33.3945813
green,한남리 머체왓 숲길 한남리 머체왓 숲길,산책로,제주특별자치도 서귀포시,,,6.7,126.6739238,33.3305434
green,작가의산책길 작가의산책길(유토피아로),산책로,제주특별자치도 서귀포시,,,4.9,126.5576358,33.2447494
green,제주 올레길 01-01코스 우도 올레,산책로,제주특별자치도 서귀포시,,,15.4,126.5153178,33.2374652
green,제주 올레길 02코스(광치기 ~ 온평 올레),산책로,제주특별자치도 서귀포시,,,14.8,126.5153178,33.2374652
green,제주 올레길 05코스( 남원 ~ 쇠소깍 올레),산책로,제주특별자치도 서귀포시,,,14.4,126.5153178,33.2374652
green,제주 올레길 07-01코스(월드컵경기장 ~ 외돌개 올레),산책로,제주특별자치도 서귀포시,,,14.8,126.5153178,33.2374652
green,제주 올레길 08코스(월평 ~ 대평 올레),산책로,제주특별자치도 서귀포시,,,19.2,126.5153178,33.2374652
green,제주 올레길 09코스(대평 ~ 화순 올레),산책로,제주특별자치도 서귀포시,,,7.5,126.5153178,33.2374652
green,제주 올레길 10코스(화순 ~ 모슬포 올레),산책로,제주특별자치도 서귀포시,,,15.5,126.5153178,33.2374652
green,제주 올레길 10-01코스 가파도 올레,산책로,제주특별자치도 서귀포시,,,5,126.5153178,33.2374652
green,제주 올레길 11코스(모슬포 ~ 무릉 올레),산책로,제주특별자치도 서귀포시,,,17.5,126.5153178,33.2374652
green,제주 올레길 12코스(무릉 ~ 용수 올레),산책로,제주특별자치도 서귀포시,,,17.1,126.5153178,33.2374652
green,제주 올레길 14-01코스(저지 ~ 무릉 올레),산책로,제주특별자치도 서귀포시,,,17,126.5153178,33.2374652
green,제주 올레길 휠체어구간 01코스(종달리 옛 소금밭 ~ 성산항),산책로,제주특별자치도 서귀포시,,,5.5,126.5153178,33.2374652
green,제주 올레길 휠체어구간 04코스(해비치호텔 ~ 가미리개 쉼터),산책로,제주특별자치도 서귀포시,,,5,126.5153178,33.2374652
green,제주 올레길 휠체어구간 05코스(국립수산과학원 ~ 조배머들코지),산책로,제주특별자치도 서귀포시,,,2,126.5153178,33.2374652
green,제주 올레길 휠체어구간 06코스(쇠소깍 ~ 보목포구),산책로,제주특별자치도 서귀포시,,,3.2,126.5153178,33.2374652
green,제주 올레길 휠체어구간 08코스(논짓물 ~ 대평해녀공연장),산책로,제주특별자치도 서귀포시,,,3.7,126.5153178,33.2374652
green,제주 올레길 휠체어구간 10코스(사계포구 ~ 송악산 주차장),산책로,제주특별자치도 서귀포시,,,5.5,126.5153178,33.2374652
green,제주 올레길 휠체어구간 10-01코스(가파도 전구간),산책로,제주특별자치도 서귀포시,,,5,126.5153178,33.2374652
green,제주 올레길 휠체어구간 12코스(엉알길 입구 ~ 자구내포구 입구),산책로,제주특별자치도 서귀포시,,,1,126.5153178,33.2374652
green,제주 올레길 03코스(온평 ~ 표선 올레),산책로,제주특별자치도 서귀포시,,,21.3,126.5153178,33.2374652
green,제주 올레길 04코스(표선 ~ 남원 올레),산책로,제주특별자치도 서귀포시,,,22.9,126.5153178,33.2374652
green,제주 올레길 06코스(쇠소깍 ~ 외돌개 올레),산책로,제주특별자치도 서귀포시,,,13.9,126.5153178,33.2374652
green,제주 올레길 07코스(외돌개 ~ 월평 올레),산책로,제주특별자치도 서귀포시,,,14.2,126.5153178,33.2374652
green,중문둘레길 1코스,산책로,제주특별자치도 서귀포시,,,4.01,126.4507118,33.3250577
green,중문둘레길 중문골프장 달빛걷기,산책로,제주특별자치도 서귀포시,,,3,126.4507118,33.3250577
green,한라산둘레길 동백길,산책로,제주특별자치도 서귀포시,,,13.5,126.4466672,33.3647899
green,한라산둘레길 돌오름길,산책로,제주특별자치도 서귀포시,,,11.2,126.4466672,33.3647899
green,제주지오트레일 산방산·용머리해안 지질트레일 A코스,산책로,제주특별자치도 서귀포시,,,13.7,126.3108405,33.2337919
green,제주지오트레일 산방산·용머리해안 지질트레일 A단축코스,산책로,제주특별자치도 서귀포시,,,10.5,126.3108405,33.2337919
green,제주지오트레일 산방산·용머리해안 지질트레일 B코스,산책로,제주특별자치도 서귀포시,,,14.3,126.3108405,33.2337919
green,제주지오트레일 성산·오조 지질트레일,산책로,제주특별자치도 서귀포시,,,9.5,126.3108405,33.2337919
green,노을해안길 01코스,산책로,제주특별자치도 서귀포시,,,10.6,126.201957,33.2471808
green,순례길 빛의 길 김대건길,산책로,제주특별자치도 제주시,,,12.6,128.8217927,36.6984717
green,순례길 영광의 길 김기량길,산책로,제주특별자치도 제주시,,,9.3,128.8217927,36.6984717
green,우도 해안도로 01코스,산책로,제주특별자치도 제주시,,,17,126.9698371,33.5003598
green,함덕북촌마을길 01코스,산책로,제주특별자치도 제주시,,,5.5,126.6775339,33.5488212
green,닭머르해안길 01코스,산책로,제주특별자치도 제주시,,,1.8,126.6169481,33.5367836
green,삼양역사올레길 01코스,산책로,제주특별자치도 제주시,,,9.6,126.5987642,33.5316411
green,제주 올레길 01코스(시흥 ~ 광치기 올레),산책로,제주특별자치도 제주시,,,15,126.5153178,33.2374652
green,제주 올레길 13코스(용수 ~ 저지 올레),산책로,제주특별자치도 제주시,,,14.7,126.5153178,33.2374652
green,제주 올레길 14코스(저지 ~ 한림 올레),산책로,제주특별자치도 제주시,,,19,126.5153178,33.2374652
green,제주 올레길 15코스(한림 ~ 고내 올레),산책로,제주특별자치도 제주시,,,19.1,126.5153178,33.2374652
green,제주 올레길 17코스(광령 ~ 산지천 올레),산책로,제주특별자치도 제주시,,,19.2,126.5153178,33.2374652
green,제주 올레길 18-01코스 추자도 올레,산책로,제주특별자치도 제주시,,,17.5,126.5153178,33.2374652
green,제주 올레길 20코스(김녕 ~ 하도 올레),산책로,제주특별자치도 제주시,,,17.4,126.5153178,33.2374652
green,제주 올레길 21코스(하도 ~ 종달 올레),산책로,제주특별자치도 제주시,,,10.1,126.5153178,33.2374652
green,제주 올레길 휠체어구간 17코스(도두봉 내려오는 길 ~ 용연다리 입구),산책로,제주특별자치도 제주시,,,5.1,126.5153178,33.2374652
green,제주 올레길 휠체어구간 14코스(일성콘도 ~ 금능으뜸원해변 입구),산책로,제주특별자치도 제주시,,,2,126.5153178,33.2374652
green,제주 올레길 16코스(고내 ~ 광령 올레),산책로,제주특별자치도 제주시,,,16.9,126.5153178,33.2374652
green,제주 올레길 18코스(산지천 ~ 조천 올레),산책로,제주특별자치도 제주시,,,18.2,126.5153178,33.2374652
green,제주 올레길 19코스(조천 ~ 김녕 올레),산책로,제주특별자치도 제주시,,,18.6,126.5153178,33.2374652
green,한라산둘레길 사려니숲길,산책로,제주특별자치도 제주시,,,15,126.4466672,33.3647899
green,엄장해암길 01코스,산책로,제주특별자치도 제주시,,,4.8,126.3551582,33.477996
green,제주지오트레일 수월봉 트레일 A코스(수월봉 엉알길),산책로,제주특별자치도 제주시,,,4.6,126.3108405,33.2337919
green,제주지오트레일 수월봉 트레일 C코스(차귀도),산책로,제주특별자치도 제주시,,,4,126.3108405,33.2337919
green,제주지오트레일 수월봉 트레일 B코스(당산봉),산책로,제주특별자치도 제주시,,,3,126.3108405,33.2337919
green,제주지오트레일 김녕·월정 지질트레일,산책로,제주특별자치도 제주시,,,14.6,126.3108405,33.2337919
green,추자도 해안일주길 01코스,산책로,제주특별자치도 제주시,,,15,126.2951653,33.9557089