id,mid_category,store_name,sub_category,district,address,lon,lat
424,vegan,빵굽는언니 요리하는동생,먹거리_식당,부산광역시 강서구,부산광역시 강서구 명지국제8로 234,128.9183831,35.09786101
425,vegan,빵긋한하루,먹거리_카페_디저트,부산광역시 강서구,부산광역시 강서구 명지국제6로 228,128.922984,35.095801
426,vegan,고준희베이커리,먹거리_카페_디저트,부산광역시 금정구,부산광역시 금정구 두실로37번길 43 1층,129.086994,35.2590093
427,vegan,나유타카페,먹거리_카페_디저트,부산광역시 금정구,부산광역시 금정구 수림로61번길 53,129.0855569,35.23743996
428,vegan,러빙헛 금정헤어라떼점,먹거리_식당,부산광역시 금정구,부산광역시 금정구 청룡예전로 100 경동상가 3층,129.0172875,35.11774
429,vegan,보리종파티세리,먹거리_카페_디저트,부산광역시 금정구,부산광역시 금정구 중앙대로 1667 삼신빌딩 1층,129.091352,35.2332066
430,vegan,서문국수,먹거리_식당,부산광역시 금정구,부산광역시 금정구 장전로12번길 32-5,129.088305,35.229132
431,zero,아름다운가게 부산금정점,생활용품,부산광역시 금정구,부산광역시 금정구 금정로233번길 31,129.0908186,35.24610107
432,zero,아름다운가게 부산대점,생활용품,부산광역시 금정구,부산광역시 금정구 장전온천천로 31-2,129.0885079,35.22787835
433,vegan,인디키친,먹거리_식당,부산광역시 금정구,부산광역시 금정구 장전로12번길 50 2층,129.088466,35.2298771
434,vegan,투고샐러드 부산대점,먹거리_식당,부산광역시 금정구,부산광역시 금정구 부산대학로64번길 16,129.08453,35.2324
435,vegan,편한집밥,먹거리_식당,부산광역시 금정구,부산광역시 금정구 금샘로 36,129.0771196,35.22888181
436,vegan,김말자 부산기장점,먹거리_식당,부산광역시 기장군,부산광역시 기장군 일광면 기장대로 673,129.2220968,35.2545944
437,vegan,연당,먹거리_식당,부산광역시 기장군,부산광역시 기장군 장안읍 고무로 271-47 장안읍 길천리,129.276336,35.3360731
438,zero,제로웨이스트 쑥,기타,부산광역시 기장군,부산광역시 기장군 일광면 이천6길 2,129.2349,35.26755
439,vegan,투고샐러드 부산정관점,먹거리_식당,부산광역시 기장군,부산광역시 기장군 정관읍 정관로 579 1층 101호,129.1771781,35.32137251
440,vegan,행복한찹쌀꽈배기 일광점,먹거리_카페_디저트,부산광역시 기장군,부산광역시 기장군 일광면 일광로 133 1층 일광면 이천리,129.236013,35.2666026
441,vegan,가가대소 아빠와소풍,먹거리_카페_디저트,부산광역시 남구,부산광역시 남구 분포로 145,129.1117,35.1341512
442,vegan,마리짱 경성대부경대역점,먹거리_식당,부산광역시 남구,부산광역시 남구 수영로 지하 324,129.1004417,35.13755766
443,vegan,먼지.zip,먹거리_카페_디저트,부산광역시 남구,부산광역시 남구 진남로 168,129.078995,35.1417546
444,vegan,미인당,먹거리_카페_디저트,부산광역시 남구,부산광역시 남구 수영로39번나길 53,129.073531,35.1421726
445,vegan,봄베이브로이 부산문현점,먹거리_식당,부산광역시 남구,부산광역시 남구 문현금융로 40 3층,129.065761,35.14682
446,vegan,수수베이커리,먹거리_카페_디저트,부산광역시 남구,부산광역시 남구 진남로 54 대동래미안3 ,129.089339,35.1382695
447,vegan,식스브레드,먹거리_카페_디저트,부산광역시 남구,부산광역시 남구 신선로 566 GS자이아파트 상가 123호,129.110982,35.1326949
448,vegan,중남해,먹거리_식당,부산광역시 남구,부산광역시 남구 용소로 42,129.100723,35.1336596
449,vegan,투고샐러드 부경대점,먹거리_식당,부산광역시 남구,부산광역시 남구 용소로19번길 45,129.1028857,35.1368381
450,vegan,헬로인디아,먹거리_식당,부산광역시 남구,부산광역시 남구 용소로8번길 6 3층,129.099948,35.1365992
451,zero,메밀면가,먹거리_식당,부산광역시 동구,부산광역시 동구 자성로111번길 8-5,129.0625756,35.1369345
452,vegan,투고샐러드 부산진역점,먹거리_식당,부산광역시 동구,부산광역시 동구 중앙대로371번길 9,129.0478285,35.12884425
453,vegan,금광루,먹거리_식당,부산광역시 동래구,부산광역시 동래구 안남로 75-1,129.100446,35.1939757
454,vegan,더라이스,먹거리_카페_디저트,부산광역시 동래구,부산광역시 동래구 동래로79번길 26 1층,129.081665,35.2095203
455,vegan,도리마리 본점,먹거리_식당,부산광역시 동래구,부산광역시 동래구 온천장로 117 1층,129.084629,35.2211211
456,vegan,밀한줌 베이커리,먹거리_카페_디저트,부산광역시 동래구,부산광역시 동래구 온천천로471번길 7,129.1045903,35.19154841
457,vegan,밀한줌 비건샵,기타,부산광역시 동래구,부산광역시 동래구 온천천로471번가길 20,129.103865,35.192033
458,zero,아름다운가게 부산명륜역점,생활용품,부산광역시 동래구,부산광역시 동래구 중앙대로 1414,129.0796934,35.21255742
459,vegan,온식빵,먹거리_카페_디저트,부산광역시 동래구,부산광역시 동래구 아시아드대로171번길 49,129.062806,35.1984254
460,vegan,지썅지썅,먹거리_식당,부산광역시 동래구,부산광역시 동래구 명륜로94번길 46 1층,129.084179,35.2043405
461,vegan,투고샐러드 명륜역점,먹거리_식당,부산광역시 동래구,부산광역시 동래구 동래로 25 1층 103호,129.078381,35.21248409
462,vegan,한국에너지,먹거리_카페_디저트,부산광역시 동래구,부산광역시 동래구 여고북로 43-3 1층,129.0677,35.2009102
463,zero,가치가득,기타,부산광역시 부산진구,부산광역시 부산진구 중앙대로 821,129.063537,35.1652837
464,vegan,그리구요거트,먹거리_카페_디저트,부산광역시 부산진구,부산광역시 부산진구 전포대로186번길 33,129.067403,35.1531993
465,vegan,꼬까자,먹거리_카페_디저트,부산광역시 부산진구,부산광역시 부산진구 전포대로186번길 23 1층,129.06693,35.1531713
466,vegan,노미트버거헬스,먹거리_식당,부산광역시 부산진구,부산광역시 부산진구 서면로 56,129.0581568,35.1556577
467,vegan,다전,먹거리_식당,부산광역시 부산진구,부산광역시 부산진구 신천대로62번길 61,129.0582656,35.15354736
468,vegan,도시농가코페 도코,먹거리_카페_디저트,부산광역시 부산진구,부산광역시 부산진구 중앙대로666번길 17,129.0602965,35.1523228
469,vegan,모그샐러드앤모어,먹거리_식당,부산광역시 부산진구,부산광역시 부산진구 중앙대로989번길 27 더리치오피스텔 상가 1층,129.073368,35.1781314
470,vegan,서울키친,먹거리_카페_디저트,부산광역시 부산진구,부산광역시 부산진구 전포대로209번길 20,129.06416,35.15562
471,vegan,세자매바른빵,먹거리_카페_디저트,부산광역시 부산진구,부산광역시 부산진구 범양로120번길 6,129.0659783,35.17366205
472,zero,슈크레포타제,먹거리_카페_디저트,부산광역시 부산진구,부산광역시 부산진구 서전로37번길 26,129.0641017,35.1589149
473,vegan,쏘핫마라탕마라샹궈,먹거리_식당,부산광역시 부산진구,부산광역시 부산진구 서면로 67,129.057552,35.1567733
474,zero,아름다운가게 부산부전점,생활용품,부산광역시 부산진구,부산광역시 부산진구 부전로 196,129.0624522,35.16384391
475,vegan,얼라이브바이대채,먹거리_카페_디저트,부산광역시 부산진구,부산광역시 부산진구 전포대로186번길 16,129.066444,35.1530084
476,vegan,오르소네로,기타,부산광역시 부산진구,부산광역시 부산진구 서전로46번길 79 2층,129.064958,35.1541601
477,vegan,유두유,기타,부산광역시 부산진구,부산광역시 부산진구 전포대로 226-1 1층,129.065642,35.156888
478,vegan,잇드링크비건,먹거리_카페_디저트,부산광역시 부산진구,부산광역시 부산진구 동성로87번길 9 2층,129.067734,35.1580328
479,vegan,투고샐러드 서면삼정타워점,먹거리_식당,부산광역시 부산진구,부산광역시 부산진구 중앙대로 672 5층 509호,129.0596063,35.15300622
480,vegan,프루토프루타,기타,부산광역시 부산진구,부산광역시 부산진구 전포대로224번길 28,129.067024,35.1564499
481,zero,나나랩,기타,부산광역시 북구,부산광역시 북구 만덕대로78번길 29,129.013906,35.2108101
482,vegan,달베지상점,먹거리_카페_디저트,부산광역시 북구,부산광역시 북구 화명신도시로 115 성문타워 4층,129.010437,35.234442
483,vegan,달스키친,먹거리_식당,부산광역시 북구,부산광역시 북구 금곡대로 36,129.0044263,35.2131657
484,zero,마플상회,생활용품,부산광역시 북구,부산광역시 북구 산성로 37-1,129.0175263,35.2404397
485,zero,올라바르세,먹거리_카페_디저트,부산광역시 북구,부산광역시 북구 산성로12번길 38,129.0151723,35.2375751
486,zero,천연제작소,생활용품,부산광역시 북구,부산광역시 북구 덕천1길 93  ,129.0105,35.21084
487,vegan,플레인베이커리,먹거리_카페_디저트,부산광역시 북구,부산광역시 북구 금곡대로303번길 36 스페이스303 106호,129.011999,35.2358489
488,zero,아름다운가게 부산사상점,생활용품,부산광역시 사상구,부산광역시 사상구 사상로 240-1,128.9828014,35.16647198
489,vegan,알앤비,먹거리_카페_디저트,부산광역시 사상구,부산광역시 사상구 백양대로 930 상가3동 105호,128.991752,35.1880346
490,vegan,마리짱 뉴코아아울렛 괴정점,먹거리_식당,부산광역시 사하구,부산광역시 사하구 사하로 190,128.9940541,35.09897498
491,zero,아름다운가게 부산사하점,생활용품,부산광역시 사하구,부산광역시 사하구 대티로 3,129.0005172,35.10366059
492,vegan,몽슈,먹거리_카페_디저트,부산광역시 서구,부산광역시 서구 충무대로82번길 8,129.021236,35.07919
493,vegan,비건마트,먹거리_식당,부산광역시 서구,부산광역시 서구 구덕로124번길 13 3층,129.02242,35.09746
494,vegan,소반식당,먹거리_식당,부산광역시 서구,부산광역시 서구 대영로85번길 21,129.019947,35.11192669
495,vegan,투고샐러드 동아대부민점,먹거리_식당,부산광역시 서구,부산광역시 서구 구덕로 230,129.02034,35.10525
496,vegan,광안리남매,먹거리_식당,부산광역시 수영구,부산광역시 수영구 남천동로108번길 54 태광 2층 201호,129.11411,35.1467703
497,zero,광안세탁소,생활용품,부산광역시 수영구,부산광역시 수영구 민락로33번길 5,129.121346,35.1579713
498,vegan,김면장 남천점,먹거리_식당,부산광역시 수영구,부산광역시 수영구 수영로384번길 19,129.107735,35.140339
499,vegan,꽃피는4월 밀익는5월,먹거리_카페_디저트,부산광역시 수영구,부산광역시 수영구 연수로357번길 17-10,129.1101789,35.1721485
500,vegan,도두당,먹거리_카페_디저트,부산광역시 수영구,부산광역시 수영구 수미로26번길 53 1층,129.114765,35.1720631
501,vegan,동화대반점,먹거리_식당,부산광역시 수영구,부산광역시 수영구 수영로427번길 11 신흥빌딩 1~3층,129.108691,35.1442424
502,vegan,둔내막국수,먹거리_식당,부산광역시 수영구,부산광역시 수영구 수영로725번길 62-3,129.115277,35.1685307
503,vegan,러브얼스,먹거리_식당,부산광역시 수영구,부산광역시 수영구 광안로49번길 32-1 1층,129.1185872,35.15641115
504,vegan,럼블,먹거리_식당,부산광역시 수영구,부산광역시 수영구 광안로61번길 69-8 2층,129.122251,35.1560811
505,vegan,리틀오스,먹거리_카페_디저트,부산광역시 수영구,부산광역시 수영구 수영로510번길 42 1층,129.113774,35.1507593
506,vegan,마리짱 메가마트남천점,먹거리_식당,부산광역시 수영구,부산광역시 수영구 황령대로 521,129.1109944,35.13725518
507,vegan,마리키,먹거리_카페_디저트,부산광역시 수영구,부산광역시 수영구 광안로49번길 26-1,129.118426,35.1562471
508,vegan,마티니,먹거리_카페_디저트,부산광역시 수영구,부산광역시 수영구 망미번영로70번길 48 1층,129.111543,35.1714074
509,vegan,매초롬,먹거리_카페_디저트,부산광역시 수영구,부산광역시 수영구 수영로540번길 24-4,129.1133858,35.15357932
510,zero,바소랩,생활용품,부산광역시 수영구,부산광역시 수영구 광안로35번길 11 수정빌딩 201호,129.116217,35.1561235
511,vegan,발리우드,먹거리_식당,부산광역시 수영구,부산광역시 수영구 광남로130번길 9,129.1172243,35.15306062
512,vegan,백향만두,먹거리_식당,부산광역시 수영구,부산광역시 수영구 황령산로8번길 52,129.1101669,35.1496976
513,vegan,베이킹하루,먹거리_카페_디저트,부산광역시 수영구,부산광역시 수영구 광남로 159 2층,129.118242,35.1555114
514,vegan,베지나랑,먹거리_식당,부산광역시 수영구,부산광역시 수영구 광안해변로370번길 9-32,129.1342697,35.15674658
515,vegan,보성녹차 부산지사,먹거리_카페_디저트,부산광역시 수영구,부산광역시 수영구 수영로394번길 29 1층,129.108842,35.1407523
516,vegan,봄베이브로이 광안리점,먹거리_식당,부산광역시 수영구,부산광역시 수영구 광안해변로 187-1,129.116274,35.1510941
517,vegan,브라운버즈,먹거리_카페_디저트,부산광역시 수영구,부산광역시 수영구 광남로48번길 8,129.112227,35.1464788
518,vegan,손영환비빔국수 수영점,먹거리_식당,부산광역시 수영구,부산광역시 수영구 수영로 691-5,129.115198,35.1680364
519,vegan,스콘팩토리,먹거리_카페_디저트,부산광역시 수영구,부산광역시 수영구 광남로83번길 34 1층,129.112384,35.1504501
520,zero,심플리파이,생활용품,부산광역시 수영구,부산광역시 수영구 남천동로16번길 5,129.110298,35.142313
521,vegan,쎄쎄쎄부산,먹거리_식당,부산광역시 수영구,부산광역시 수영구 수영로408번길 24-4 2층,129.109363,35.1417976
522,vegan,에코토피아,먹거리_식당,부산광역시 수영구,부산광역시 수영구 수영로408번길 28,129.1095664,35.14163894
523,vegan,오노마토피,먹거리_식당,부산광역시 수영구,부산광역시 수영구 남천동로16번길 13,129.109972,35.142014
524,vegan,오를로카페,먹거리_카페_디저트,부산광역시 수영구,부산광역시 수영구 광안해변로 364-9,129.132738,35.1555636
525,vegan,옥토가,먹거리_카페_디저트,부산광역시 수영구,부산광역시 수영구 수영로611번길 39-4,129.1114479,35.16044746
526,zero,제로웨이스트 쑥,생활용품,부산광역시 수영구,부산광역시 수영구 장대골로 76,129.1052982,35.1600244
527,vegan,조선스낵,먹거리_카페_디저트,부산광역시 수영구,부산광역시 수영구 무학로52번길 36-1,129.119852,35.1596015
528,vegan,차오프라야 타이푸드,먹거리_식당,부산광역시 수영구,부산광역시 수영구 남천동로104번길 23 1층,129.113091,35.1459771
529,vegan,콩스랑,먹거리_식당,부산광역시 수영구,부산광역시 수영구 수미로 48,129.1159242,35.17326867
530,vegan,탑해장 광안점,먹거리_식당,부산광역시 수영구,부산광역시 수영구 민락수변로7번길 60 상가동 1층 101호,129.126527,35.1555375
531,vegan,투고샐러드 광안오션테라스점,먹거리_식당,부산광역시 수영구,부산광역시 수영구 광안해변로326번길 32 117-1호,129.1289,35.15496
532,vegan,파우재,먹거리_식당,부산광역시 수영구,부산광역시 수영구 망미번영로52번길 41-17,129.1115551,35.171033
533,vegan,포케코너,먹거리_식당,부산광역시 수영구,부산광역시 수영구 민락본동로11번길 78-7 1층,129.124503,35.1570239
534,vegan,프루티,먹거리_식당,부산광역시 수영구,부산광역시 수영구 광남로48번길 43 2층,129.114181,35.1461113
535,vegan,한민이의 마크로비오틱,먹거리_카페_디저트,부산광역시 수영구,부산광역시 수영구 수영로522번길 41,129.1140084,35.1519391
536,zero,네모상점,생활용품,부산광역시 연제구,부산광역시 연제구 신금로 25 227호,129.094404,35.1916472
537,vegan,미정제과,먹거리_카페_디저트,부산광역시 연제구,부산광역시 연제구 신금로 25,129.094404,35.1916472
538,zero,아름다운가게 부산본부,생활용품,부산광역시 연제구,부산광역시 연제구 월드컵대로 344,129.0594327,35.19048312
539,vegan,이비바네,먹거리_카페_디저트,부산광역시 연제구,부산광역시 연제구 쌍미천로161번길 6,129.086967,35.1871617
540,vegan,투고샐러드 부산광역시청점,먹거리_식당,부산광역시 연제구,부산광역시 연제구 시청로 6 부산 더샵애비뉴 101동 111호,129.0764101,35.18076639
541,vegan,태종대짬뽕,먹거리_식당,부산광역시 영도구,부산광역시 영도구 태종로 825,129.081533,35.0629587
542,vegan,동화반점,먹거리_식당,부산광역시 중구,부산광역시 중구 흑교로75번길 3,129.023471,35.1058003
543,zero,매일이다르다,먹거리_카페_디저트,부산광역시 중구,부산광역시 중구 대청로126번길 26-1 ,129.034262,35.1005282
544,vegan,밀한줌 중앙점,먹거리_카페_디저트,부산광역시 중구,부산광역시 중구 중앙대로 77,129.0359849,35.10453163
545,vegan,봄베이브로이 광복점,먹거리_식당,부산광역시 중구,부산광역시 중구 광복로 75 2~3층,129.033253,35.0987338
546,vegan,양배추식당,먹거리_식당,부산광역시 중구,부산광역시 중구 대청로141번길 4 1층 ,129.035435,35.103149
547,vegan,오붓한,먹거리_식당,부산광역시 중구,부산광역시 중구 동광길 42 1층 102호,129.034726,35.1046208
548,vegan,해밀콩국수,먹거리_식당,부산광역시 중구,부산광역시 중구 해관로 76-1 1층,129.035587,35.1057418
549,vegan,거루캥테이블,먹거리_식당,부산광역시 부산진구,부산광역시 진구 가야대로 772,129.203753,35.1869137
550,vegan,카페마마스 서면점,먹거리_카페_디저트,부산광역시 부산진구,부산광역시 진구 가야대로 772,129.0564491,35.15694037
551,vegan,강가 해운대점,먹거리_식당,부산광역시 해운대구,부산광역시 해운대구 해운대해변로 257 엘지하버타운 3층,129.159347,35.1597152
552,vegan,나마스테 해운대점,먹거리_식당,부산광역시 해운대구,부산광역시 해운대구 해운대해변로265번길 7 지하1층,129.16059,35.1602517
553,vegan,노미트버거헬스,먹거리_식당,부산광역시 해운대구,부산광역시 해운대구 세실로 64,129.1776271,35.17100091
554,zero,더소가카페 달맞이점,먹거리_카페_디저트,부산광역시 해운대구,"부산광역시 해운대구 달맞이길117번가길 107-24 1, 2층",129.1790678,35.15828881
555,vegan,도리마리 장산점,먹거리_식당,부산광역시 해운대구,부산광역시 해운대구 세실로 35 101동,129.178996,35.1682396
556,vegan,도현당,먹거리_카페_디저트,부산광역시 해운대구,부산광역시 해운대구 해운대해변로 257 1층,129.159347,35.1597152
557,vegan,메르메르,먹거리_식당,부산광역시 해운대구,부산광역시 해운대구 좌동순환로433번길 29 2층,129.176392,35.1615369
558,vegan,모찌의하루 해운대점,먹거리_카페_디저트,부산광역시 해운대구,부산광역시 해운대구 세실로 80 해운대케이씨씨스위첸 상가동 102호,129.178372,35.1732431
559,vegan,미쌤쌀식빵,먹거리_카페_디저트,부산광역시 해운대구,부산광역시 해운대구 센텀중앙로 145,129.122058,35.1782346
560,vegan,베이커리온,먹거리_카페_디저트,부산광역시 해운대구,부산광역시 해운대구 해운대로76번길 16 센텀휴상가 1층 106-1호,129.119303,35.1904662
561,vegan,봄베이브로이 해운대점,먹거리_식당,부산광역시 해운대구,부산광역시 해운대구 구남로 30 2층 ,129.160413,35.1614444
562,vegan,비비비당,먹거리_카페_디저트,부산광역시 해운대구,부산광역시 해운대구 달맞이길 239-16 4층 ,129.185064,35.1624802
563,vegan,비스트로 홈,먹거리_식당,부산광역시 해운대구,부산광역시 해운대구 중동2로26번길 5,129.1637312,35.1642749
564,vegan,비스포킷 신세계센텀시티점,먹거리_식당,부산광역시 해운대구,부산광역시 해운대구 센텀남대로 35 지하1층,129.129642,35.1689459
565,vegan,선라이즈볼,먹거리_카페_디저트,부산광역시 해운대구,부산광역시 해운대구 송정중앙로6번길 143,129.197917,35.1780716
566,vegan,소반,먹거리_식당,부산광역시 해운대구,부산광역시 해운대구 좌동순환로433번길 38-15 102호,129.178234,35.1619003
567,zero,아름다운가게 부산해운대점,생활용품,부산광역시 해운대구,부산광역시 해운대구 해운대로 637,129.1598982,35.1644844
568,vegan,영원아이스크림바 해운대점,먹거리_카페_디저트,부산광역시 해운대구,부산광역시 해운대구 달맞이길50번길 11,129.170526,35.1608852
569,vegan,와일드웨이브,기타,부산광역시 해운대구,부산광역시 해운대구 송정중앙로5번길 106-1,129.20358,35.187845
570,vegan,유루유루,먹거리_식당,부산광역시 해운대구,부산광역시 해운대구 우동 우동1로 66,129.157546,35.16748312
571,zero,유월꽃보자기,기타,부산광역시 해운대구,부산광역시 해운대구 우1동 우동1로 62-1 1층,129.157861,35.1670228
572,vegan,제이사워도우,먹거리_카페_디저트,부산광역시 해운대구,부산광역시 해운대구 좌동로 166 LH창업지원주택 상가동 102호,129.182936,35.1756481
573,zero,조선스낵,먹거리_카페_디저트,부산광역시 해운대구,부산광역시 해운대구 센텀남대로 35,129.1298539,35.1689288
574,vegan,조선스낵 2호점,먹거리_카페_디저트,부산광역시 해운대구,부산광역시 해운대구 우동 센텀4로 15 센텀시티 몰 1층,129.128272,35.1698801
575,vegan,커피프론트,먹거리_카페_디저트,부산광역시 해운대구,부산광역시 해운대구 APEC로 17 센텀리더스마크 113호,129.132385,35.165987
576,vegan,투고샐러드 해운대장산점,먹거리_식당,부산광역시 해운대구,부산광역시 해운대구 양운로42번길 18,129.1775015,35.16850324
577,vegan,팜트리,먹거리_카페_디저트,부산광역시 해운대구,부산광역시 해운대구 송정중앙로9번길 88,129.2043485,35.1868961
578,vegan,펀자브 인도요리전문점,먹거리_식당,부산광역시 해운대구,부산광역시 해운대구 구남로 31 세븐편의점,129.161048,35.161406
579,vegan,한가람산채비빔밥,먹거리_식당,부산광역시 해운대구,부산광역시 해운대구 좌동로 152,129.181116,35.1748969
580,vegan,해피샐러드클럽,먹거리_식당,부산광역시 해운대구,부산광역시 해운대구 좌동순환로8번길 54-14 1층 ,129.16993,35.1690061
581,vegan,카페소수,먹거리_카페_디저트,부산광역시 수영구,부산광역시 수영구 광안로35번길 20,129.116489,35.1564432
582,vegan,예인,먹거리_식당,부산광역시 연제구,부산광역시 연제구 토곡로 4,129.106764,35.1831424
583,vegan,온화당,먹거리_카페_디저트,부산광역시 연제구,부산광역시 연제구 중앙대로1043번길 34,129.076359,35.1822525
584,vegan,부산광역시 팜트리,먹거리_식당,부산광역시 해운대구,부산광역시 해운대구 송정중앙로9번길 88,129.204345,35.186921
585,vegan,하가원,먹거리_식당,부산광역시 해운대구,부산광역시 해운대구 좌동로91번길 28,129.174284,35.1734247
586,vegan,가로수길 칼국수,먹거리_식당,서울특별시 강남구,서울특별시 강남구 압구정로2길 46,127.0207,37.51875
587,vegan,강가 역삼,먹거리_식당,서울특별시 강남구,서울특별시 강남구 논현로 508,127.0376,37.50214
588,vegan,강남더수제비,먹거리_식당,서울특별시 강남구,서울특별시 강남구 강남대로94길 23,127.0292,37.49975
589,vegan,개성집,먹거리_식당,서울특별시 강남구,서울특별시 강남구 봉은사로1길 6,127.0253,37.50526
590,vegan,걸신맛집,먹거리_식당,서울특별시 강남구,서울특별시 강남구 테헤란로6길 29,127.0313,37.49673
591,vegan,고궁수라간 코엑스점,먹거리_식당,서울특별시 강남구,서울특별시 강남구 봉은사로 524 코엑스인터콘티넨탈서울,127.0586443,37.5130619
592,vegan,과수당,먹거리_식당,서울특별시 강남구,서울특별시 강남구 역삼로14길 10 1층 102호,127.0353,37.49396
593,vegan,그리너 논현점,먹거리_식당,서울특별시 강남구,서울특별시 강남구 강남대로124길 35,127.0253,37.50941
594,vegan,그리너 대치점,먹거리_식당,서울특별시 강남구,서울특별시 강남구 역삼로64길 18,127.0531,37.4999
595,vegan,김말자 역삼역점,먹거리_식당,서울특별시 강남구,서울특별시 강남구 테헤란로 지하156,127.036936,37.50081
596,vegan,꿍탈레,먹거리_식당,서울특별시 강남구,서울특별시 강남구 압구정로10길 14,127.0217254,37.5227493
597,vegan,내여자를부탁해 선릉,먹거리_식당,서울특별시 강남구,서울특별시 강남구 테헤란로 322,127.0466,37.50324
598,vegan,노이에아트멍,먹거리_식당,서울특별시 강남구,서울특별시 강남구 도산대로23길 19,127.0259,37.52026
599,vegan,닥터로빈 논현점,먹거리_식당,서울특별시 강남구,서울특별시 강남구 학동로43길 38,127.038021,37.51845976
600,vegan,닥터비건,먹거리_카페_디저트,서울특별시 강남구,서울특별시 강남구 도산대로68길 25,127.0446038,37.5218983
601,vegan,더닐크팩토리 ,먹거리_카페_디저트,서울특별시 강남구,서울특별시 강남구 강남대로162길 32,127.0211611,37.5204301
602,vegan,더드림,먹거리_식당,서울특별시 강남구,서울특별시 강남구 강남대로78길 25,127.0313,37.49544
603,vegan,더드림 본점,먹거리_식당,서울특별시 강남구,서울특별시 강남구 언주로85길 13,127.0422,37.50048
604,vegan,더벨로,먹거리_카페_디저트,서울특별시 강남구,서울특별시 서초구 마방로6길 21 1층,127.0426128,37.47488173
605,vegan,더벨로 개포,먹거리_식당,서울특별시 강남구,서울특별시 강남구 선릉로 30,127.0612,37.48251
606,vegan,도스타코스 선릉,먹거리_식당,서울특별시 강남구,서울특별시 강남구 테헤란로69길 10,127.0527,37.5066
607,vegan,두부공작소 신사직영점,먹거리_식당,서울특별시 강남구,서울특별시 강남구 강남대로160길 21,127.0205,37.5198
608,vegan,두잉,먹거리_식당,서울특별시 강남구,서울특별시 강남구 삼성로 654 B01호,127.0507,37.5186
609,vegan,러빙헛 스마일,먹거리_식당,서울특별시 강남구,서울특별시 강남구 논현로6길 18 1층,127.0509968,37.47350509
610,vegan,러빙헛 역삼점,먹거리_식당,서울특별시 강남구,서울특별시 강남구 테헤란로14길 48 103호,127.03421,37.4964
611,vegan,러빙헛 카페,먹거리_식당,서울특별시 강남구,서울특별시 강남구 개포로22길 35,127.049442,37.47690896
612,vegan,로봇김밥 강남역,먹거리_식당,서울특별시 강남구,서울특별시 강남구 테헤란로 101,127.028,37.4986
613,vegan,롤링파스타 강남역씨티,먹거리_식당,서울특별시 강남구,서울특별시 강남구 테헤란로1길 25,127.0274,37.49997
614,vegan,롯데리아 강남우성사거리,먹거리_식당,서울특별시 강남구,서울특별시 강남구 강남대로 334 SM타워,127.0305,37.493
615,vegan,롯데리아 강남일원,먹거리_식당,서울특별시 강남구,서울특별시 강남구 양재대로55길 21,127.0873,37.49232
616,vegan,롯데리아 개포,먹거리_식당,서울특별시 강남구,서울특별시 강남구 선릉로 26,127.0615,37.48224
617,vegan,롯데리아 선릉,먹거리_식당,서울특별시 강남구,서울특별시 강남구 테헤란로 316 메트라이프타워,127.0456,37.50344
618,vegan,롯데리아 세곡,먹거리_식당,서울특별시 강남구,서울특별시 강남구 헌릉로 569,127.1012,37.46576
619,vegan,롯데리아 수서역,먹거리_식당,서울특별시 강남구,서울특별시 강남구 밤고개로 99,127.1046,37.48542
620,vegan,롯데리아 역삼,먹거리_식당,서울특별시 강남구,서울특별시 강남구 테헤란로 116 동경빌딩,127.0305,37.49848
621,vegan,롯데리아 학동역,먹거리_식당,서울특별시 강남구,서울특별시 강남구 학동로 219 국제빌딩,127.0331,37.515
622,vegan,르알레스카 가로수길,먹거리_식당,서울특별시 강남구,서울특별시 강남구 압구정로14길 15,127.0234,37.52339
623,vegan,리밍,먹거리_식당,서울특별시 강남구,서울특별시 강남구 학동로 219 국제빌딩,127.0401,37.50403
624,vegan,마녀샐러드 역삼,먹거리_식당,서울특별시 강남구,서울특별시 강남구 강남대로94길 75,127.0334,37.50075
625,vegan,마이디,먹거리_카페_디저트,서울특별시 강남구,서울특별시 강남구 테헤란로5길 31,127.0287205,37.50068016
626,vegan,마치래빗 신사,먹거리_식당,서울특별시 강남구,서울특별시 강남구 논현로153길 45,127.0245,37.52032
627,vegan,마히나 비건 테이블,먹거리_식당,서울특별시 강남구,서울특별시 강남구 논현로175길 75 2층,127.0231,37.52366
628,vegan,매그넘 더 바틀샵,먹거리_식당,서울특별시 강남구,서울특별시 강남구 압구정로 120,127.021898,37.523662
629,vegan,명동칼국수,먹거리_식당,서울특별시 강남구,서울특별시 강남구 논현로175길 75 2층,127.0317,37.49878
630,vegan,명동칼국수샤브샤브 역삼디오빌,먹거리_식당,서울특별시 강남구,서울특별시 강남구 언주로 427,127.0427,37.50139
631,vegan,모스가든,먹거리_식당,서울특별시 강남구,서울특별시 강남구 논현로139길 12,127.0284,37.51667
632,vegan,미락,먹거리_식당,서울특별시 강남구,서울특별시 강남구 언주로107길 43,127.0357,37.50691
633,vegan,바토스 신사점,먹거리_식당,서울특별시 강남구,서울특별시 강남구 압구정로12길 14,127.0222982,37.5229802
634,vegan,반미362 대치,먹거리_식당,서울특별시 강남구,서울특별시 강남구 도곡로 458,127.0605,37.4984
635,vegan,베지그린,먹거리_식당,서울특별시 강남구,서울특별시 강남구 개포로20길 24-10,127.0473498,37.4769937
636,vegan,베커린,먹거리_식당,서울특별시 강남구,서울특별시 강남구 봉은사로55길 42-8,127.0442,37.51341
637,vegan,본도시락 신논현역,먹거리_식당,서울특별시 강남구,서울특별시 강남구 강남대로110길 15,127.0262,37.50399
638,vegan,본도시락 역삼초교,먹거리_식당,서울특별시 강남구,서울특별시 강남구 역삼로7길 7,127.033,37.49449
639,vegan,본도시락 차병원사거리,먹거리_식당,서울특별시 강남구,서울특별시 강남구 봉은사로34길 9,127.0364,37.50734
640,vegan,본죽 강남구청역,먹거리_식당,서울특별시 강남구,서울특별시 강남구 선릉로 717,127.0405,37.5187
641,vegan,본죽 강남세브란스사거리,먹거리_식당,서울특별시 강남구,서울특별시 강남구 언주로 314,127.0465,37.49589
642,vegan,본죽 개포동,먹거리_식당,서울특별시 강남구,서울특별시 강남구 선릉로 40,127.0603,37.48323
643,vegan,본죽 개포동역,먹거리_식당,서울특별시 강남구,서울특별시 강남구 개포로 510,127.0684,37.4893
644,vegan,본죽 경복아파트,먹거리_식당,서울특별시 강남구,서울특별시 강남구 언주로114길 23,127.0394,37.51044
645,vegan,본죽 대치롯데,먹거리_식당,서울특별시 강남구,서울특별시 강남구 도곡로 405,127.0547,37.49739
646,vegan,본죽 대치은마,먹거리_식당,서울특별시 강남구,서울특별시 강남구 도곡로 516,127.063,37.49919
647,vegan,본죽 도심공항타워,먹거리_식당,서울특별시 강남구,서울특별시 강남구 테헤란로87길 36,127.0584,37.51022
648,vegan,본죽 매봉역,먹거리_식당,서울특별시 강남구,서울특별시 강남구 남부순환로378길 12,127.0459,37.48543
649,vegan,본죽 삼성차관아파트,먹거리_식당,서울특별시 강남구,서울특별시 강남구 봉은사로 474,127.0516,37.51225
650,vegan,본죽 선릉역,먹거리_식당,서울특별시 강남구,서울특별시 강남구 선릉로93길 26,127.0464,37.50483
651,vegan,본죽 세곡,먹거리_식당,서울특별시 강남구,서울특별시 강남구 헌릉로569길 9,127.1008,37.46679
652,vegan,본죽 수서,먹거리_식당,서울특별시 강남구,서울특별시 강남구 밤고개로1길 10,127.1018,37.48803
653,vegan,본죽 신사,먹거리_식당,서울특별시 강남구,서울특별시 강남구 도산대로11길 5,127.0223,37.51786
654,vegan,본죽 압구정로데오,먹거리_식당,서울특별시 강남구,서울특별시 강남구 압구정로 330,127.0377,37.52828
655,vegan,본죽 압구정역,먹거리_식당,서울특별시 강남구,서울특별시 강남구 압구정로 151,127.0243,37.52779
656,vegan,본죽 양재은광여고,먹거리_식당,서울특별시 강남구,서울특별시 강남구 남부순환로361길 9,127.037,37.48556
657,vegan,본죽 역삼역,먹거리_식당,서울특별시 강남구,서울특별시 강남구 봉은사로30길 78,127.037,37.50249
658,vegan,본죽 역삼특허청,먹거리_식당,서울특별시 강남구,서울특별시 강남구 테헤란로14길 8,127.0329,37.49863
659,vegan,본죽 일원,먹거리_식당,서울특별시 강남구,서울특별시 강남구 일원로 43,127.0814,37.49006
660,vegan,본죽 청담,먹거리_식당,서울특별시 강남구,서울특별시 강남구 학동로 441,127.0491,37.51889
661,vegan,본죽 청담프리마,먹거리_식당,서울특별시 강남구,서울특별시 강남구 도산대로 521,127.0504,37.52487
662,vegan,본죽 코엑스몰,먹거리_식당,서울특별시 강남구,서울특별시 강남구 봉은사로 524,127.0572,37.51281
663,vegan,본죽 학동역,먹거리_식당,서울특별시 강남구,서울특별시 강남구 학동로 165,127.0289,37.51381
664,vegan,본죽&비빔밥cafe 선릉,먹거리_식당,서울특별시 강남구,서울특별시 강남구 선릉로 424,127.0501,37.50291
665,vegan,블랑제리 쉐종,먹거리_카페_디저트,서울특별시 강남구,서울특별시 강남구 자곡로 120,127.0963663,37.47216529
666,vegan,블렌드랩,먹거리_식당,서울특별시 강남구,서울특별시 강남구 언주로113길 14,127.0362,37.50941
667,vegan,비건이삼 비건23,먹거리_식당,서울특별시 강남구,서울특별시 강남구 삼성로115길 40 1층,127.0489,37.51413
668,vegan,빵어니스타 압구정점,먹거리_카페_디저트,서울특별시 강남구,서울특별시 강남구 도산대로25길 43,127.0258449,37.5223562
669,zero,빽다방 본사,먹거리_카페_디저트,서울특별시 강남구,서울특별시 강남구 봉은사로1길 39,127.023893,37.507286
670,vegan,사뜨바,먹거리_식당,서울특별시 강남구,서울특별시 강남구 도산대로49길 10-6,127.0379031,37.5236392
671,vegan,산촌,먹거리_식당,서울특별시 강남구,서울특별시 강남구 언주로71길 5-10,127.0446,37.49695
672,vegan,샐러디 강남역,먹거리_식당,서울특별시 강남구,서울특별시 강남구 강남대로84길 23,127.0304,37.49716
673,vegan,샐러디 삼성,먹거리_식당,서울특별시 강남구,서울특별시 강남구 삼성로96길 6,127.0566,37.50845
674,vegan,샐러디 선릉,먹거리_식당,서울특별시 강남구,서울특별시 강남구 선릉로93길 26,127.0464,37.50483
675,vegan,샐러디 역삼,먹거리_식당,서울특별시 강남구,서울특별시 강남구 논현로85길 13,127.0363,37.49911
676,vegan,샐러디 익스프레스 압구정,먹거리_식당,서울특별시 강남구,서울특별시 강남구 압구정로 144,127.0246,37.52498
677,vegan,스무디킹 강남역,먹거리_식당,서울특별시 강남구,서울특별시 강남구 강남대로 420,127.0271,37.50014
678,vegan,스무디킹 논현,먹거리_식당,서울특별시 강남구,서울특별시 강남구 강남대로 512,127.0233,37.50796
679,vegan,스무디킹 스타필드코엑스몰,먹거리_식당,서울특별시 강남구,서울특별시 강남구 테헤란로87길 22 B1,127.0595,37.50964
680,vegan,스윗밸런스 역삼,먹거리_식당,서울특별시 강남구,서울특별시 강남구 테헤란로25길 9,127.035,37.5013
681,vegan,스타일비건,먹거리_식당,서울특별시 강남구,서울특별시 강남구 학동로43길 38,127.0380301,37.51842732
682,vegan,쏭타이 역삼,먹거리_식당,서울특별시 강남구,서울특별시 강남구 테헤란로39길 51,127.0403,37.50569
683,zero,아로마티카 제로스테이션,생활용품,서울특별시 강남구,서울특별시 강남구 도산대로1길 62 1층,127.0194,37.52074
684,zero,아름다운가게 강남구청역점,생활용품,서울특별시 강남구,서울특별시 강남구 봉은사로 524 코엑스인터콘티넨탈서울,127.0378842,37.51636948
685,zero,아름다운가게 압구정점,생활용품,서울특별시 강남구,서울특별시 강남구 압구정로34길 11,127.0310929,37.52733126
686,zero,아름다운가게 양재점,생활용품,서울특별시 강남구,서울특별시 강남구 남부순환로351길 34,127.0339481,37.48695103
687,vegan,아모리노 현대백화점 압구정본점,먹거리_카페_디저트,서울특별시 강남구,서울특별시 강남구 압구정로 165,127.0274682,37.52733576
688,vegan,아이엠,먹거리_식당,서울특별시 강남구,서울특별시 강남구 강남대로48길 25,127.035,37.48739
689,vegan,어게인리프레쉬 가로수길,먹거리_식당,서울특별시 강남구,서울특별시 강남구 논현로153길 57,127.0236,37.52005
690,vegan,어글리스토브 신논현강남역,먹거리_식당,서울특별시 강남구,서울특별시 강남구 강남대로98길 20,127.0282,37.50079
691,vegan,에너지키친,먹거리_식당,서울특별시 강남구,서울특별시 강남구 선릉로152길 12,127.031483,37.523542
692,vegan,역삼정,먹거리_식당,서울특별시 강남구,서울특별시 강남구 역삼로19길 31,127.0375,37.49726
693,vegan,오곡당,먹거리_식당,서울특별시 강남구,서울특별시 강남구 테헤란로19길 19,127.0332,37.50134
694,vegan,온더보더 코엑스도심공항,먹거리_식당,서울특별시 강남구,서울특별시 강남구 역삼로19길 31,127.0595,37.50964
695,vegan,왓어바웃 롤,먹거리_식당,서울특별시 강남구,서울특별시 강남구 학동로43길 38,127.038,37.51839
696,vegan,왓어쉐프,먹거리_식당,서울특별시 강남구,서울특별시 강남구 선릉로157길 23-3,127.0379,37.526
697,vegan,외계인방앗간 강남구청점,먹거리_카페_디저트,서울특별시 강남구,서울특별시 강남구 선릉로129길 26,127.0393753,37.51594209
698,vegan,외계인방앗간 강남언주역점,먹거리_카페_디저트,서울특별시 강남구,서울특별시 강남구 봉은사로37길 8 윤원빌딩 1층,127.0370952,37.50897167
699,vegan,외계인방앗간 본점,먹거리_카페_디저트,서울특별시 강남구,서울특별시 강남구 논현로149길 19,127.0268703,37.518064
700,vegan,운봉에덴식당 강남점,먹거리_식당,서울특별시 강남구,서울특별시 강남구 테헤란로4길 6,127.0289239,37.4977713
701,vegan,인도야시장,먹거리_식당,서울특별시 강남구,서울특별시 강남구 강남대로96길 11-4,127.0281,37.50011
702,vegan,죠샌드위치 논현학사,먹거리_식당,서울특별시 강남구,서울특별시 강남구 도산대로24길 15,127.0267,37.51803
703,vegan,죠샌드위치 대치사거리,먹거리_식당,서울특별시 강남구,서울특별시 강남구 삼성로 345,127.0587,37.50231
704,vegan,죠샌드위치 도곡렉슬,먹거리_식당,서울특별시 강남구,서울특별시 강남구 선릉로 225,127.0527,37.49528
705,vegan,죠샌드위치 삼성2호,먹거리_식당,서울특별시 강남구,서울특별시 강남구 테헤란로82길 11,127.0581,37.50624
706,vegan,죠샌드위치 선릉,먹거리_식당,서울특별시 강남구,서울특별시 강남구 테헤란로77길 13 창조빌딩 1층,127.0543,37.50729
707,vegan,죠샌드위치 압구정,먹거리_식당,서울특별시 강남구,서울특별시 강남구 논현로159길 11,127.0272,37.52291
708,vegan,죠샌드위치 일원역,먹거리_식당,서울특별시 강남구,서울특별시 강남구 일원로 115 120호 죠샌드위치,127.0845,37.48402
709,vegan,죠샌드위치 포스코사거리,먹거리_식당,서울특별시 강남구,서울특별시 강남구 삼성로85길 42 대치동대우아이빌멤버스,127.0537,37.50456
710,vegan,죠샌드위치 학동디오빌,먹거리_식당,서울특별시 강남구,서울특별시 강남구 학동로 165 1층  103호,127.0289,37.51381
711,vegan,채근담 대치점,먹거리_식당,서울특별시 강남구,서울특별시 강남구 역삼로98길 23,127.0650206,37.50343031
712,vegan,채근담 역삼점,먹거리_식당,서울특별시 강남구,서울특별시 강남구 테헤란로 152 강남파이낸스센터 B1,127.0366287,37.49981012
713,vegan,칙피스,먹거리_식당,서울특별시 강남구,서울특별시 강남구 강남대로152길 69,127.0247,37.51913
714,vegan,카페 딜리델리,먹거리_식당,서울특별시 강남구,서울특별시 강남구 테헤란로43길 19 지상2층 202호,127.0437,37.50461
715,vegan,카페 어니스타 도곡점,먹거리_카페_디저트,서울특별시 강남구,서울특별시 강남구 논현로64길 18,127.0419373,37.4934452
716,vegan,카페마마스 압구정점,먹거리_카페_디저트,서울특별시 강남구,서울특별시 강남구 압구정로 343,127.0400987,37.52847462
717,vegan,카페마마스 역삼점,먹거리_카페_디저트,서울특별시 강남구,서울특별시 강남구 논현로85길 7,127.0368192,37.49897681
718,vegan,카페마마스 코엑스점,먹거리_카페_디저트,서울특별시 강남구,서울특별시 강남구 영동대로 513,127.0584592,37.51272463
719,vegan,캘리포니아피자키친 역삼 GFC,먹거리_식당,서울특별시 강남구,서울특별시 강남구 테헤란로 152 강남파이낸스센터 B1F,127.0365,37.50003
720,vegan,캘리포니아피자키친 코엑스,먹거리_식당,서울특별시 강남구,서울특별시 강남구 영동대로 513 1층,127.0588,37.51256
721,zero,커피빈코리아,먹거리_카페_디저트,서울특별시 강남구,서울특별시 강남구 봉은사로99길 7,127.0591687,37.5146635
722,vegan,퀴즈노스 대치사거리,먹거리_식당,서울특별시 강남구,서울특별시 강남구 역삼로 519 케이제이빌딩 1층 1호,127.0601,37.50377
723,vegan,퀴즈노스 신사위워크,먹거리_식당,서울특별시 강남구,서울특별시 강남구 강남대로 586 위워크 빌딩 1층,127.0206,37.51421
724,vegan,퀴즈노스 압구정,먹거리_식당,서울특별시 강남구,서울특별시 강남구 압구정로 144 한주빌딩,127.0246,37.52498
725,vegan,퀴즈노스 역삼,먹거리_식당,서울특별시 강남구,서울특별시 강남구 테헤란로 230 인호 IP 빌딩,127.0415,37.50183
726,zero,탐앤탐스 본사,먹거리_카페_디저트,서울특별시 강남구,서울특별시 강남구 논현로163길 10,127.0273267,37.524209
727,vegan,투고샐러드 압구정점,먹거리_식당,서울특별시 강남구,서울특별시 강남구 압구정로28길 22-5,127.0271836,37.52498061
728,vegan,트루 라이트,먹거리_카페_디저트,서울특별시 강남구,서울특별시 강남구 도산대로17길 22,127.0245995,37.5200068
729,zero,파리바게뜨 본사,먹거리_카페_디저트,서울특별시 강남구,서울특별시 강남구 도곡1동 남부순환로 2627,127.0371929,37.48531277
730,zero,플래닛키퍼스,기타,서울특별시 강남구,서울특별시 강남구 언주로30길 13 C동 23층 2314호,127.051055,37.4881064
731,vegan,할랄가이즈 삼성,먹거리_식당,서울특별시 강남구,서울특별시 강남구 테헤란로 83길 11 지하 2층 8호,127.0575,37.50815
732,vegan,해피돌핀 비건분식,먹거리_식당,서울특별시 강남구,서울특별시 강남구 학동로43길 38 지하2층 B201호 주방7호,127.038,37.51839
733,vegan,허머스키친,먹거리_식당,서울특별시 강남구,서울특별시 강남구 테헤란로 521 파르나스몰 지하 1층 F-26호,127.06087,37.5093
734,vegan,고모네원조콩탕북어찜,먹거리_식당,서울특별시 강동구,서울특별시 강동구 풍성로57길 13,127.1359,37.52967
735,zero,대안생활공기,생활용품,서울특별시 강동구,서울특별시 강동구 상암로3길 24,127.1271,37.55151
736,vegan,디어그린,먹거리_식당,서울특별시 강동구,서울특별시 강동구 천호대로 1005 현대백화점천호점 지하 2층,127.1248,37.53879
737,vegan,롯데리아 강동구청DT,먹거리_식당,서울특별시 강동구,서울특별시 강동구 올림픽로 556 코알라주유소,127.1212,37.53122
738,vegan,롯데리아 강일,먹거리_식당,서울특별시 강동구,서울특별시 강동구 아리수로93길 33-9 강일프라자,127.1732,37.5657
739,vegan,롯데리아 고덕역,먹거리_식당,서울특별시 강동구,서울특별시 강동구 동남로73길 26 고덕복합빌딩,127.1547,37.55317
740,vegan,롯데리아 길동,먹거리_식당,서울특별시 강동구,서울특별시 강동구 천호대로 1124,127.1361681,37.53447065
741,vegan,롯데리아 상일동,먹거리_식당,서울특별시 강동구,서울특별시 강동구 상일로 33,127.1727,37.55017
742,vegan,롯데리아 암사역,먹거리_식당,서울특별시 강동구,서울특별시 강동구 올림픽로 792,127.1284,37.55168
743,vegan,롯데리아 천호역,먹거리_식당,서울특별시 강동구,서울특별시 강동구 올림픽로 654 삼영빌딩,127.1241,37.53985
744,vegan,본죽 강동구청,먹거리_식당,서울특별시 강동구,서울특별시 강동구 성내로 4,127.1212,37.53041
745,vegan,본죽 강동성심병원,먹거리_식당,서울특별시 강동구,서울특별시 강동구 성안로 155,127.1347,37.53715
746,vegan,본죽 강일지구,먹거리_식당,서울특별시 강동구,서울특별시 강동구 아리수로93길 33,127.1735,37.56587
747,vegan,본죽 길동시장,먹거리_식당,서울특별시 강동구,서울특별시 강동구 양재대로116길 20,127.1414,37.53836
748,vegan,본죽 둔촌동,먹거리_식당,서울특별시 강동구,서울특별시 강동구 양재대로 1319,127.1345,37.5242
749,vegan,본죽 명일동,먹거리_식당,서울특별시 강동구,서울특별시 강동구 동남로73길 13,127.1554,37.55275
750,vegan,본죽 명일역,먹거리_식당,서울특별시 강동구,서울특별시 강동구 양재대로 1626,127.1443,37.55065
751,vegan,본죽 암사롯데팰리스,먹거리_식당,서울특별시 강동구,서울특별시 강동구 고덕로 140,127.1407,37.55447
752,vegan,본죽 암사역,먹거리_식당,서울특별시 강동구,서울특별시 강동구 상암로 44,127.1283,37.54965
753,vegan,본죽 천호로데오,먹거리_식당,서울특별시 강동구,서울특별시 강동구 천호대로 1033,127.127,37.5379
754,vegan,본죽 천호초교,먹거리_식당,서울특별시 강동구,서울특별시 강동구 구천면로 300,127.1343,37.5464
755,vegan,본죽&비빔밥cafe 굽은다리역,먹거리_식당,서울특별시 강동구,서울특별시 강동구 상암로 195,127.1442,37.54662
756,vegan,본죽&비빔밥cafe 둔촌보훈병원,먹거리_식당,서울특별시 강동구,서울특별시 강동구 진황도로 189,127.1433,37.52945
757,vegan,세향마라탕,먹거리_식당,서울특별시 강동구,서울특별시 강동구 천호대로155길 11,127.126,37.5386
758,zero_vegan,송포어스,생활용품,서울특별시 강동구,서울특별시 강동구 풍성로35길 34 1층 ,127.125474,37.533426
759,zero,아름다운가게 강동고덕점,생활용품,서울특별시 강동구,서울특별시 강동구 동남로 926,127.1569372,37.55642705
760,zero,아름다운가게 강동구청역점,생활용품,서울특별시 강동구,서울특별시 강동구 성내로 19,127.1228061,37.53029256
761,vegan,죠샌드위치 현대백화점천호,먹거리_식당,서울특별시 강동구,서울특별시 강동구 천호대로 1005 현대백화점 천호점,127.1251,37.53873
762,vegan,카페 평상시,먹거리_카페_디저트,서울특별시 강동구,서울특별시 강동구 고덕로20길 26,127.1336077,37.5535316
763,vegan,카페마마스 딜리버리 천호,먹거리_카페_디저트,서울특별시 강동구,서울특별시 강동구 상암로 126,127.1364657,37.54620994
764,vegan,콩플레,먹거리_카페_디저트,서울특별시 강동구,서울특별시 강동구 동남로83길 67,127.1531772,37.55957466
765,vegan,퀴즈노스 둔촌사거리,먹거리_식당,서울특별시 강동구,서울특별시 강동구 양재대로 1299,127.1337,37.52249
766,vegan,투고샐러드 천호점,먹거리_식당,서울특별시 강동구,서울특별시 강동구 올림픽로 664 1층 M101-2호,127.1249758,37.54055538
767,vegan,김밥은,먹거리_식당,서울특별시 강북구,서울특별시 강북구 한천로 1016,127.0288,37.63892
768,vegan,레드라인,먹거리_식당,서울특별시 강북구,서울특별시 강북구 삼양로87길 30,127.0162,37.63583
769,vegan,롯데리아 덕성여대,먹거리_식당,서울특별시 강북구,서울특별시 강북구 삼양로 507,127.0139,37.6485
770,vegan,롯데리아 번동DT,먹거리_식당,서울특별시 강북구,서울특별시 강북구 한천로 963,127.033,37.63558
771,vegan,롯데리아 삼양사거리,먹거리_식당,서울특별시 강북구,서울특별시 강북구 솔샘로 237,127.0191,37.62004
772,vegan,롯데리아 삼양사거리점,먹거리_식당,서울특별시 강북구,서울특별시 강북구 솔샘로 237,127.01795,37.62591
773,vegan,마주이야기,먹거리_카페_디저트,서울특별시 강북구,서울특별시 강북구 인수봉로55길 10,127.012304,37.63686669
774,vegan,본죽 미아역,먹거리_식당,서울특별시 강북구,서울특별시 강북구 도봉로 174,127.0273,37.62445
775,vegan,본죽 번동,먹거리_식당,서울특별시 강북구,서울특별시 강북구 오현로32길 28,127.0407,37.62802
776,vegan,본죽 삼양사거리,먹거리_식당,서울특별시 강북구,서울특별시 강북구 삼양로 167,127.0211,37.61887
777,vegan,본죽 수유,먹거리_식당,서울특별시 강북구,서울특별시 강북구 한천로 1043,127.0261,37.6403
778,vegan,본죽 우이사거리,먹거리_식당,서울특별시 강북구,서울특별시 강북구 삼양로 423,127.0166,37.64126
779,vegan,샐러데이 수유,먹거리_식당,서울특별시 강북구,서울특별시 강북구 삼양로 500-3 1층,127.0149,37.64786
780,zero,아름다운가게 미아점,생활용품,서울특별시 강북구,서울특별시 강북구 도봉로 242,127.0250024,37.63042444
781,vegan,얌미타이,먹거리_식당,서울특별시 강북구,서울특별시 강북구 오패산로31길 43,127.0316,37.61346
782,vegan,올드델리 수유,먹거리_식당,서울특별시 강북구,서울특별시 강북구 도봉로 355,127.0267,37.63935
783,vegan,요요의 부엌,먹거리_식당,서울특별시 강북구,서울특별시 강북구 한천로 1163 2층,127.016,37.64749
784,vegan,투고샐러드 덕성여대,먹거리_식당,서울특별시 강북구,서울특별시 강북구 삼양로 531,127.0131,37.65022
785,vegan,히피스베이글,먹거리_식당,서울특별시 강북구,서울특별시 강북구 삼양로 528,127.0137,37.65009
786,vegan,가네샤,먹거리_식당,서울특별시 강서구,서울특별시 강서구 마곡동로3길 26 3층 305호,126.8305,37.5602
787,vegan,골목주방,먹거리_식당,서울특별시 강서구,서울특별시 강서구 등촌로13길 12,126.8626,37.53566
788,vegan,공간녹음,먹거리_식당,서울특별시 강서구,서울특별시 강서구 공항대로 227,126.8326843,37.55959872
789,vegan,그리너 마곡점,먹거리_식당,서울특별시 강서구,서울특별시 강서구 마곡중앙4로 18 마곡그랑트윈타워 B동 217호,126.8286,37.55853
790,vegan,김말자 까치산역점,먹거리_식당,서울특별시 강서구,서울특별시 강서구 강서로 지하54,126.8463214,37.5325506
791,vegan,김말자 우장산역점,먹거리_식당,서울특별시 강서구,서울특별시 강서구 강서로 지하262,126.8363106,37.549107
792,vegan,다래목해물손칼국수전문점,먹거리_식당,서울특별시 강서구,서울특별시 강서구 강서로47가길 27,126.8357,37.55143
793,vegan,닥터로빈 강서점,먹거리_식당,서울특별시 강서구,서울특별시 강서구 공항대로 396,126.851113,37.55581398
794,vegan,로봇김밥 김포공항,먹거리_식당,서울특별시 강서구,서울특별시 강서구 하늘길 112 국내선청사 4층,126.8021,37.55958
795,vegan,롯데리아 까치산역,먹거리_식당,서울특별시 강서구,서울특별시 강서구 강서로 35 롯데리아,126.8469,37.53096
796,vegan,롯데리아 롯데백화점김포공항,먹거리_식당,서울특별시 강서구,서울특별시 강서구 하늘길 38 롯데백화점김포공항점 B1,126.8032,37.56395
797,vegan,롯데리아 마곡역,먹거리_식당,서울특별시 강서구,서울특별시 강서구 마곡서로 56,126.8239,37.559
798,vegan,롯데리아 발산역,먹거리_식당,서울특별시 강서구,서울특별시 강서구 강서로56길 24,126.8401,37.55938
799,vegan,롯데리아 방화,먹거리_식당,서울특별시 강서구,서울특별시 강서구 양천로 73 멤브로메디컬센터,126.8118,37.57373
800,vegan,롯데리아 신방화역,먹거리_식당,서울특별시 강서구,서울특별시 강서구 마곡중앙5로 81,126.8186,37.56711
801,vegan,롯데리아 염창,먹거리_식당,서울특별시 강서구,서울특별시 강서구 양천로 657 우계상가,126.8704,37.55265
802,vegan,롯데리아 홈플러스 강서,먹거리_식당,서울특별시 강서구,서울특별시 강서구 화곡로 398 홈플러스강서점 1F,126.8548,37.55844
803,vegan,롯데리아 화곡시장,먹거리_식당,서울특별시 강서구,서울특별시 강서구 가로공원로76길 56 최인제내과의원,126.8378,37.53453
804,vegan,롯데리아 화곡역,먹거리_식당,서울특별시 강서구,서울특별시 강서구 화곡로 157 1층 롯데리아,126.8391,37.54157
805,vegan,롯데리아 NC백화점 강서,먹거리_식당,서울특별시 강서구,서울특별시 강서구 강서로56길 17 NC백화점 강서점 B1,126.8405,37.55994
806,vegan,마리짱 김포공항국내선점,먹거리_식당,서울특별시 강서구,서울특별시 강서구 하늘길 112,126.8033553,37.55878415
807,vegan,마리짱 김포국제공항Express점,먹거리_식당,서울특별시 강서구,서울특별시 강서구 하늘길 38,126.8029604,37.57136985
808,vegan,샐러디 가양역,먹거리_식당,서울특별시 강서구,서울특별시 강서구 양천로 500 등촌동노블리움오피스텔 113호,126.8556,37.56055
809,vegan,샐러디 마곡나루역,먹거리_식당,서울특별시 강서구,서울특별시 강서구 마곡중앙5로 6 107호,126.8266,37.56713
810,vegan,샐러디 마곡발산역,먹거리_식당,서울특별시 강서구,서울특별시 강서구 공항대로 269-15 1층 104호,126.8372,37.55961
811,zero,아름다운가게 강서화곡점,생활용품,서울특별시 강서구,서울특별시 강서구 강서로 200,126.838395,37.54403744
812,vegan,온더보더 롯데몰김포공항,먹거리_식당,서울특별시 강서구,서울특별시 강서구 하늘길 38,126.8032,37.56395
813,vegan,죠샌드위치 마곡,먹거리_식당,서울특별시 강서구,서울특별시 강서구 공항대로 195 힐스테이트 에코동익 상가 1층,126.8292,37.55988
814,vegan,카페마마스 딜리버리 목동,먹거리_카페_디저트,서울특별시 강서구,서울특별시 강서구 화곡로 296,126.849082,37.55053877
815,vegan,캘리포니아피자키친 김포공항롯데몰,먹거리_식당,서울특별시 강서구,서울특별시 강서구 하늘길 38 김포공항 MF층,126.8032,37.56395
816,vegan,퀴즈노스 마곡나루역,먹거리_식당,서울특별시 강서구,서울특별시 강서구 마곡중앙5로 6,126.8266,37.56713
817,zero,허그어웨일,생활용품,서울특별시 강서구,서울특별시 강서구 화곡로55길 23 1층 허그어웨일,126.848458,37.5526104
818,vegan,홍린,먹거리_식당,서울특별시 강서구,서울특별시 강서구 우장산로15길 25,126.8506,37.55428
819,vegan,강릉형제장칼국수,먹거리_식당,서울특별시 관악구,서울특별시 관악구 대학5길 10-7,126.9384,37.46901
820,vegan,낭만모로코,먹거리_식당,서울특별시 관악구,서울특별시 관악구 관악로14길 88,126.9572,37.47799
821,vegan,더멜팅팟,먹거리_식당,서울특별시 관악구,서울특별시 관악구 관악로14가길 2,126.9561,37.47837
822,vegan,도스타코스 서울대입구역,먹거리_식당,서울특별시 관악구,서울특별시 관악구 관악로14길 6,126.9529,37.47914
823,vegan,두부공작소 사당직영점,먹거리_식당,서울특별시 관악구,서울특별시 관악구 남현2길 4,126.9772,37.47598
824,vegan,등꺼비 식당,먹거리_식당,서울특별시 관악구,서울특별시 관악구 대학14길 18 104호,126.9368,37.46643
825,vegan,라미스콘,먹거리_식당,서울특별시 관악구,서울특별시 관악구 관악로14길 88,126.9572,37.47799
826,vegan,롯데리아 구로디지털역,먹거리_식당,서울특별시 관악구,서울특별시 관악구 시흥대로 578 광안프라자,126.9033,37.48425
827,vegan,롯데리아 봉천,먹거리_식당,서울특별시 관악구,서울특별시 관악구 관악로 212 관악프라자,126.9552,37.48363
828,vegan,롯데리아 봉천역,먹거리_식당,서울특별시 관악구,서울특별시 관악구 남부순환로 1724,126.9416,37.48219
829,vegan,롯데리아 서울대,먹거리_식당,서울특별시 관악구,서울특별시 관악구 관악로 1,126.9527,37.4589
830,vegan,롯데리아 서울대입구역,먹거리_식당,서울특별시 관악구,서울특별시 관악구 관악로 165,126.9521,37.48007
831,vegan,롯데리아 세이브마트,먹거리_식당,서울특별시 관악구,서울특별시 관악구 난곡로 220 세이브마트,126.9181,37.47429
832,vegan,롯데리아 신림녹두,먹거리_식당,서울특별시 관악구,서울특별시 관악구 신림로23길 16 1층,126.9345,37.47043
833,vegan,롯데리아 신림역,먹거리_식당,서울특별시 관악구,서울특별시 관악구 남부순환로 1610,126.9293,37.48388
834,vegan,롯데리아 홈플러스 남현,먹거리_식당,서울특별시 관악구,서울특별시 관악구 과천대로 909 남현프라자,126.9824,37.47141
835,vegan,방콕야시장,먹거리_식당,서울특별시 관악구,서울특별시 관악구 관악로14길 38,126.9547,37.47876
836,vegan,본죽 관악구청,먹거리_식당,서울특별시 관악구,서울특별시 관악구 관악로 144,126.9526,37.47794
837,vegan,본죽 난곡미성,먹거리_식당,서울특별시 관악구,서울특별시 관악구 난곡로 219,126.9174,37.47389
838,vegan,본죽 봉일시장,먹거리_식당,서울특별시 관악구,서울특별시 관악구 은천로 38-1,126.9396,37.48604
839,vegan,본죽 봉천,먹거리_식당,서울특별시 관악구,서울특별시 관악구 남부순환로 1741,126.9437,37.48246
840,vegan,본죽 서림,먹거리_식당,서울특별시 관악구,서울특별시 관악구 신림로 210-1,126.9375,37.47624
841,vegan,본죽 서울대입구역,먹거리_식당,서울특별시 관악구,서울특별시 관악구 관악로 237,126.956,37.48585
842,vegan,본죽 신대방역,먹거리_식당,서울특별시 관악구,서울특별시 관악구 신사로 94,126.9132,37.48667
843,vegan,본죽 신림고시촌,먹거리_식당,서울특별시 관악구,서울특별시 관악구 대학길 30,126.9377,37.46946
844,vegan,본죽 신림녹두거리,먹거리_식당,서울특별시 관악구,서울특별시 관악구 호암로 598,126.9337,37.47057
845,vegan,본죽 신림역,먹거리_식당,서울특별시 관악구,서울특별시 관악구 신림로 309,126.9297,37.48202
846,vegan,본죽&비빔밥cafe 관악우체국,먹거리_식당,서울특별시 관악구,서울특별시 관악구 남부순환로 1631-1,126.932,37.48483
847,vegan,본죽&비빕밥 낙성대,먹거리_식당,서울특별시 관악구,서울특별시 관악구 솔밭로 2,126.9627,37.47784
848,vegan,삼미제면,먹거리_식당,서울특별시 관악구,서울특별시 관악구 관악로14길 50,126.9553,37.47858
849,vegan,서울대학교 3식당,먹거리_식당,서울특별시 관악구,서울특별시 관악구 관악로 1 75-1동 3층,126.9486389,37.4560874
850,vegan,서울대학교 감골식당,먹거리_식당,서울특별시 관악구,서울특별시 관악구 관악로 1 아시아연구소101동 1층,126.9501382,37.4631964
851,vegan,스무디킹 신림포도몰,먹거리_식당,서울특별시 관악구,서울특별시 관악구 신림로 330,126.9302,37.48387
852,vegan,스윗밸런스 샤로수길,먹거리_식당,서울특별시 관악구,서울특별시 관악구 관악로14길 99,126.9579,37.47798
853,vegan,써니스 멕시칸 키친,먹거리_식당,서울특별시 관악구,서울특별시 관악구 봉천로 251 1층,126.9295,37.48901
854,zero,아름다운가게 관악자명점,생활용품,서울특별시 관악구,서울특별시 관악구 남부순환로 1679,126.9373392,37.48459757
855,vegan,알프리베,먹거리_카페_디저트,서울특별시 관악구,서울특별시 관악구 남부순환로188길 9,126.9335581,37.4841396
856,vegan,엔조,먹거리_식당,서울특별시 관악구,서울특별시 관악구 관악로 154 대도빌딩,126.9526,37.47894
857,vegan,엘리펀트키친,먹거리_식당,서울특별시 관악구,서울특별시 관악구 관악로14길 15,126.9535,37.47926
858,vegan,원더로우,먹거리_식당,서울특별시 관악구,서울특별시 관악구 관악로12길 105,126.9581,37.47732
859,zero,일점오도씨,생활용품,서울특별시 관악구,서울특별시 관악구 조원로18길 15,126.912639,37.4835786
860,vegan,카페마마스 딜리버리 관악,먹거리_카페_디저트,서울특별시 관악구,서울특별시 관악구 관악로 287,126.9569461,37.4893952
861,vegan,퀴즈노스 서울대 제1공학관,먹거리_식당,서울특별시 관악구,서울특별시 관악구 관악로 1,126.9527,37.4589
862,vegan,투고샐러드 서울대입구점,먹거리_식당,서울특별시 관악구,서울특별시 관악구 남부순환로234길 34 1층,126.9566281,37.47792146
863,vegan,퍼블리코타코,먹거리_식당,서울특별시 관악구,서울특별시 관악구 관악로14길 106,126.9582,37.47767
864,vegan,화상손만두,먹거리_식당,서울특별시 관악구,서울특별시 관악구 남부순환로244길 18,126.963,37.47628
865,vegan,8빵,먹거리_식당,서울특별시 광진구,서울특별시 광진구 능동로32길 51 1층,127.0814,37.55444
866,vegan,날일달월,먹거리_식당,서울특별시 광진구,서울특별시 광진구 구의강변로 57,127.0920491,37.53592422
867,vegan,능동샐러드,먹거리_식당,서울특별시 광진구,서울특별시 광진구 능동로13길 10-7,127.0713,37.54302
868,zero,디어에코,생활용품,서울특별시 광진구,서울특별시 광진구 아차산로 65길 22,127.093771,37.5412487
869,vegan,롯데리아 강변씨네마,먹거리_식당,서울특별시 광진구,서울특별시 광진구 광나루로56길 85 테크노-마트21,127.0957,37.53573
870,vegan,롯데리아 강변테크노,먹거리_식당,서울특별시 광진구,서울특별시 광진구 광나루로56길 85 테크노-마트21,127.0957,37.53573
871,vegan,롯데리아 건대스타시티,먹거리_식당,서울특별시 광진구,서울특별시 광진구 아차산로 262 더샵스타시티 C동,127.0729,37.53759
872,vegan,롯데리아 건대역,먹거리_식당,서울특별시 광진구,서울특별시 광진구 능동로 110,127.0714,37.54054
873,vegan,롯데리아 구의,먹거리_식당,서울특별시 광진구,서울특별시 광진구 강변역로 50 동서울종합터미널,127.0934,37.53345
874,vegan,롯데리아 구의역,먹거리_식당,서울특별시 광진구,서울특별시 광진구 아차산로 370,127.084,37.53645
875,vegan,롯데리아 군자역,먹거리_식당,서울특별시 광진구,서울특별시 광진구 천호대로 548,127.079,37.55693
876,vegan,롯데리아 뚝섬유원지,먹거리_식당,서울특별시 광진구,서울특별시 광진구 능동로 7 한강복합빌딩,127.0667,37.53229
877,vegan,롯데리아 롯데마트 강변,먹거리_식당,서울특별시 광진구,서울특별시 광진구 광나루로56길 85 테크노-마트21,127.0957,37.53573
878,vegan,롯데리아 아차산역,먹거리_식당,서울특별시 광진구,서울특별시 광진구 천호대로 665,127.0903,37.55169
879,vegan,롯데리아 중곡,먹거리_식당,서울특별시 광진구,서울특별시 광진구 면목로 136 창원빌딩,127.0812,37.56542
880,zero,롯데시네마 건대입구,기타,서울특별시 광진구,서울특별시 광진구 아차산로 272 스타시티 2층,127.073,37.53857
881,vegan,릴리베이커리,먹거리_식당,서울특별시 광진구,서울특별시 광진구 능동로13길 21 1층 릴리베이커리,127.0707,37.54299
882,vegan,본죽 강변테크노마트,먹거리_식당,서울특별시 광진구,서울특별시 광진구 광나루로56길 29,127.0977,37.53726
883,vegan,본죽 광장동,먹거리_식당,서울특별시 광진구,서울특별시 광진구 천호대로 808,127.1029,37.54499
884,vegan,본죽 구의,먹거리_식당,서울특별시 광진구,서울특별시 광진구 자양로 113,127.0829,37.53784
885,vegan,본죽 구의시장,먹거리_식당,서울특별시 광진구,서울특별시 광진구 광나루로 532,127.0885,37.5447
886,vegan,본죽 군자역,먹거리_식당,서울특별시 광진구,서울특별시 광진구 능동로 285,127.0782,37.55548
887,vegan,본죽 뚝섬유원지역,먹거리_식당,서울특별시 광진구,서울특별시 광진구 능동로 18,127.0681,37.53315
888,vegan,본죽 아차산,먹거리_식당,서울특별시 광진구,서울특별시 광진구 자양로 283,127.0916,37.5512
889,vegan,본죽 자양동,먹거리_식당,서울특별시 광진구,서울특별시 광진구 뚝섬로 642,127.0808,37.53151
890,vegan,본죽 중곡신성시장,먹거리_식당,서울특별시 광진구,서울특별시 광진구 긴고랑로 115,127.088,37.55935
891,vegan,본죽 화양사거리,먹거리_식당,서울특별시 광진구,서울특별시 광진구 광나루로 341,127.0679,37.54852
892,vegan,본죽&비빔밥cafe 건대,먹거리_식당,서울특별시 광진구,서울특별시 광진구 능동로 95,127.0702,37.53953
893,vegan,샐러디 건대역,먹거리_식당,서울특별시 광진구,서울특별시 광진구 아차산로34길 5-3,127.0699,37.53981
894,vegan,스무디킹 건대입구 롯데시네마,먹거리_식당,서울특별시 광진구,서울특별시 광진구 아차산로 262 더샵스타시티 2층,127.0725,37.53786
895,vegan,슬로우브레드 오고,먹거리_식당,서울특별시 광진구,서울특별시 광진구 자양로26길 95,127.0891,37.54039
896,zero,아름다운가게 광진자양점,생활용품,서울특별시 광진구,서울특별시 광진구 능동로 50,127.0691804,37.53567638
897,zero,아모레퍼시픽 이마트자양점,생활용품,서울특별시 광진구,서울특별시 광진구 아차산로 272 더샵스타시티 지하1층,127.0725,37.53786
898,vegan,옥루몽 어린이대공원점,먹거리_식당,서울특별시 광진구,서울특별시 광진구 능동로 183,127.0737,37.54702
899,vegan,죠샌드위치 광장동,먹거리_식당,서울특별시 광진구,서울특별시 광진구 광나루로 604 1층 105호,127.0949,37.54158
900,vegan,지속,먹거리_식당,서울특별시 광진구,서울특별시 광진구 동일로20길 20,127.0648,37.54111
901,vegan,투고샐러드 건국대,먹거리_식당,서울특별시 광진구,서울특별시 광진구 광나루로24길 9,127.0765,37.54592
902,vegan,포에버,먹거리_식당,서울특별시 광진구,서울특별시 광진구 자양로43길 87,127.0894,37.55439
903,vegan,허씨전통중경마라쌍궈석기시대 건대점,먹거리_식당,서울특별시 광진구,서울특별시 광진구 동일로18길 50,127.0655,37.53918
904,vegan,헬스클럽 샐러드&요거트,먹거리_식당,서울특별시 광진구,서울특별시 광진구 광나루로12길 6,127.0677,37.54738
905,zero,Dear.eco,생활용품,서울특별시 광진구,서울특별시 광진구 아차산로65길 22 101호,127.093771,37.5412487
906,vegan,닥터로빈 고척점,먹거리_식당,서울특별시 구로구,서울특별시 구로구 경인로46길 51,126.8657705,37.49561582
907,vegan,롯데리아 개봉,먹거리_식당,서울특별시 구로구,서울특별시 구로구 경인로47길 26,126.8666,37.50065
908,vegan,롯데리아 개봉역,먹거리_식당,서울특별시 구로구,서울특별시 구로구 경인로40길 47,126.8587,37.49485
909,vegan,롯데리아 구로시장,먹거리_식당,서울특별시 구로구,서울특별시 구로구 도림로 73 인성빌딩,126.8915,37.48986
910,vegan,롯데리아 구로IT,먹거리_식당,서울특별시 구로구,서울특별시 구로구 디지털로31길 20,126.8943,37.4855
911,vegan,롯데리아 신도림역,먹거리_식당,서울특별시 구로구,서울특별시 구로구 경인로 661 신도림1차푸르지오,126.8862,37.50855
912,vegan,롯데리아 오류동역,먹거리_식당,서울특별시 구로구,서울특별시 구로구 경인로20길 10 1층,126.8436,37.49529
913,vegan,롯데리아 천왕역,먹거리_식당,서울특별시 구로구,서울특별시 구로구 오리로 1149,126.8382,37.4866
914,vegan,본죽 구로디지털역,먹거리_식당,서울특별시 구로구,서울특별시 구로구 시흥대로 557,126.9011,37.483
915,zero,아름다운가게 개봉점,생활용품,서울특별시 구로구,서울특별시 구로구 경인로 334,126.8570466,37.49716252
916,vegan,죠샌드위치 고려대구로병원,먹거리_식당,서울특별시 구로구,서울특별시 구로구 구로동로 148 본관 지하1층,126.885,37.49186
917,vegan,죠샌드위치 구로디지털단지,먹거리_식당,서울특별시 구로구,서울특별시 구로구 디지털로26길 110 1층 6103호,126.898,37.48252
918,vegan,대두네순두부,먹거리_식당,서울특별시 금천구,서울특별시 금천구 가산디지털1로 131,126.8821,37.47708
919,zero,데일리로스팅노플맘,먹거리_카페_디저트,서울특별시 금천구,서울특별시 금천구 독산로 312 1층,126.9036,37.47453
920,vegan,롯데리아 구로가산,먹거리_식당,서울특별시 금천구,서울특별시 금천구 디지털로 188 W - MALL,126.8877,37.47733
921,zero,롯데리아 본사,먹거리_식당,서울특별시 금천구,서울특별시 금천구 벚꽃로 104,126.8909138,37.4645292
922,vegan,롯데리아 시흥중앙,먹거리_식당,서울특별시 금천구,서울특별시 금천구 금하로 712,126.9088,37.45085
923,vegan,롯데리아 시흥현대시장,먹거리_식당,서울특별시 금천구,서울특별시 금천구 독산로 128,126.9053,37.45876
924,vegan,롯데리아 홈플러스 금천,먹거리_식당,서울특별시 금천구,서울특별시 금천구 시흥대로 391 홈플러스금천점 1F,126.8969,37.46865
925,vegan,본도시락 가산,먹거리_식당,서울특별시 금천구,서울특별시 금천구 벚꽃로56길 182 램킨푸르지오시티106호,126.8883,37.47967
926,vegan,본도시락 가산디지털3단지,먹거리_식당,서울특별시 금천구,서울특별시 금천구 가산디지털1로 219 벽산 디지털밸리6,126.879,37.48449
927,vegan,본도시락 금천구청,먹거리_식당,서울특별시 금천구,서울특별시 금천구 시흥대로 251 도일산호시티빌,126.8995,37.45611
928,vegan,본죽 가산디지털,먹거리_식당,서울특별시 금천구,서울특별시 금천구 가산디지털1로 186 제이플라츠,126.8816,37.48193
929,vegan,본죽 금천롯데캐슬,먹거리_식당,서울특별시 금천구,서울특별시 금천구 벚꽃로 40 롯데캐슬골드파크1차 113동 113호,126.8944,37.45966
930,vegan,본죽 독산동씨티렉스,먹거리_식당,서울특별시 금천구,서울특별시 금천구 시흥대로 399 시티렉스CT-LEX,126.8971,37.4694
931,vegan,본죽 시흥동,먹거리_식당,서울특별시 금천구,서울특별시 금천구 금하로 760,126.914,37.44991
932,vegan,본죽 신림푸르지오,먹거리_식당,서울특별시 금천구,서울특별시 금천구 남부순환로 1432,126.9097,37.4806
933,vegan,본죽&비빔밥cafe 가산테라타워,먹거리_식당,서울특별시 금천구,서울특별시 금천구 디지털로10길 78,126.8897,37.47455
934,vegan,본죽&비빔밥cafe 독산역,먹거리_식당,서울특별시 금천구,서울특별시 금천구 범안로 1130 디지털엠파이어빌딩,126.8876,37.46544
935,vegan,본죽&비빔밥cafe 시흥사거리,먹거리_식당,서울특별시 금천구,서울특별시 금천구 금하로 619,126.9,37.45469
936,vegan,샐러디 가산디지털단지,먹거리_식당,서울특별시 금천구,서울특별시 금천구 가산디지털1로 181 sk w센터 106호,126.8804,37.48142
937,vegan,스무디킹 가산마리오아울렛,먹거리_식당,서울특별시 금천구,서울특별시 금천구 벚꽃로 266 마리오아울렛3관 B1,126.8851,37.47847
938,vegan,스무디킹 이마트24가산SKV1,먹거리_식당,서울특별시 금천구,서울특별시 금천구 가산디지털1로 171,126.8805,37.4809
939,vegan,스윗밸런스 가산더블유센터,먹거리_식당,서울특별시 금천구,서울특별시 금천구 가산디지털1로 181 가산W센터 1층 118호,126.8804,37.48142
940,zero,엔제리너스 본사,먹거리_카페_디저트,서울특별시 금천구,서울특별시 금천구 벚꽃로  104,126.8904535,37.4650835
941,zero,커피베이 본사,먹거리_카페_디저트,서울특별시 금천구,서울특별시 금천구 벚꽃로 254,126.8854836,37.4777595
942,zero,크리스피크림도넛 본사,먹거리_카페_디저트,서울특별시 금천구,서울특별시 금천구 벚꽃로  104,126.8904535,37.4650835
943,vegan,502 세컨즈카페,먹거리_식당,서울특별시 노원구,서울특별시 노원구 섬밭로 232 우성아파트,127.0663,37.63681
944,vegan,5길반찬,먹거리_식당,서울특별시 노원구,서울특별시 노원구 초안산로5길 12,127.0518,37.63256
945,vegan,고향보리밥쌈밥,먹거리_식당,서울특별시 노원구,서울특별시 노원구 중계로2길 88 2층,127.0835,37.6436
946,vegan,굿피자파스타,먹거리_식당,서울특별시 노원구,서울특별시 노원구 동일로180길 37-7 1층 101호 굿피자파스타,127.0762,37.62299
947,vegan,권순옥김밥,먹거리_식당,서울특별시 노원구,서울특별시 노원구 동일로 1354,127.0623,37.64956
948,vegan,귀빈반점,먹거리_식당,서울특별시 노원구,서울특별시 노원구 화랑로51길 81 공릉아파트,127.0876,37.62469
949,vegan,김말자 노원역점,먹거리_식당,서울특별시 노원구,서울특별시 노원구 상계로 69-1,127.0619911,37.6558674
950,vegan,김말자 화랑대점,먹거리_식당,서울특별시 노원구,서울특별시 노원구 노원로1길 78-13,127.0824341,37.6213015
951,vegan,까르보네 중계은행사거리점,먹거리_식당,서울특별시 노원구,서울특별시 노원구 한글비석로 273,127.0772,37.65217
952,vegan,꽃제비칼국수,먹거리_식당,서울특별시 노원구,서울특별시 노원구 광운로12길 13,127.0599,37.62132
953,vegan,나빈,먹거리_식당,서울특별시 노원구,서울특별시 노원구 노해로 494,127.063,37.65454
954,vegan,닐리 중계점,먹거리_식당,서울특별시 노원구,서울특별시 노원구 중계로 205 동진빌딩,127.0784,37.64969
955,zero,되살림사회적협동조합,생활용품,서울특별시 노원구,서울특별시 노원구 상계로10길 33,127.0681,37.65607
956,vegan,롯데리아 공릉역,먹거리_식당,서울특별시 노원구,서울특별시 노원구 동일로192길 27,127.0744,37.6264
957,vegan,롯데리아 노원역,먹거리_식당,서울특별시 노원구,서울특별시 노원구 상계로 64,127.0623,37.6558
958,vegan,롯데리아 롯데노원,먹거리_식당,서울특별시 노원구,서울특별시 노원구 동일로 1414,127.0619,37.65543
959,vegan,롯데리아 롯데마트중계,먹거리_식당,서울특별시 노원구,서울특별시 노원구 노원로 330 롯데마트중계점 B1,127.0709,37.6468
960,vegan,롯데리아 마들역,먹거리_식당,서울특별시 노원구,서울특별시 노원구 동일로 1532 거북빌딩,127.058,37.66532
961,vegan,롯데리아 상계,먹거리_식당,서울특별시 노원구,서울특별시 노원구 한글비석로 369 코끼리약국,127.074,37.65836
962,vegan,롯데리아 석계,먹거리_식당,서울특별시 노원구,서울특별시 노원구 화랑로 325 우현빌딩,127.064,37.61496
963,vegan,롯데리아 수락산역,먹거리_식당,서울특별시 노원구,서울특별시 노원구 동일로 1668,127.0556,37.67714
964,vegan,롯데리아 홈플러스중계,먹거리_식당,서울특별시 노원구,서울특별시 노원구 동일로204가길 12 홈플러스중계점 B2,127.0687,37.63986
965,vegan,롯데리아 GS마트상계,먹거리_식당,서울특별시 노원구,서울특별시 노원구 한글비석로 471 LG슈퍼마켓,127.0654,37.6641
966,zero,리사이클링 마켓,생활용품,서울특별시 노원구,서울특별시 노원구 한글비석로46가길 34,127.0671,37.66553
967,vegan,마리짱 2001아울렛 중계점,먹거리_식당,서울특별시 노원구,서울특별시 노원구 동일로204가길 46,127.0679074,37.64128649
968,vegan,마마미베이커리,먹거리_카페_디저트,서울특별시 노원구,서울특별시 노원구 한글비석로 405,127.0710846,37.6608941
969,vegan,메밀부엌,먹거리_식당,서울특별시 노원구,서울특별시 노원구 노해로 491 109호,127.0626,37.65504
970,zero,무포장가게 새록 1호점,생활용품,서울특별시 노원구,서울특별시 노원구 동일로 1409,127.060752,37.6535687
971,zero,무포장가게 새록 2호점,생활용품,서울특별시 노원구,"서울특별시 노원구 상계로 305 당고개역3,4번 출구 사이",127.0794,37.6706224
972,zero,무포장가게 새록 마을과 마디,생활용품,서울특별시 노원구,서울특별시 노원구 화랑로 464 공릉2희망하우징,127.078847,37.6184651
973,zero,무포장가게 새록 행복중심생협 공릉점,생활용품,서울특별시 노원구,서울특별시 노원구 공릉로34길 23,127.080313,37.622942
974,zero,무포장가게 새록 행복중심생협 중계점,생활용품,서울특별시 노원구,서울특별시 노원구 노원로22길 77 건영아파트 상가동 건영3차상가 126호,127.074968,37.6484162
975,vegan,본죽 공릉원자력병원,먹거리_식당,서울특별시 노원구,서울특별시 노원구 공릉로4길 6,127.07982,37.62757
976,vegan,본죽 공릉점,먹거리_식당,서울특별시 노원구,서울특별시 노원구 섬밭로 134,127.0692,37.62839
977,vegan,본죽 광운대역,먹거리_식당,서울특별시 노원구,서울특별시 노원구 광운로 54,127.0597,37.62218
978,vegan,본죽 노원7단지,먹거리_식당,서울특별시 노원구,서울특별시 노원구 상계로1길 14-11,127.0618,37.65692
979,vegan,본죽 노원점,먹거리_식당,서울특별시 노원구,서울특별시 노원구 동일로217가길 35,127.0584,37.65313
980,vegan,본죽 마들역,먹거리_식당,서울특별시 노원구,서울특별시 노원구 동일로 1547,127.0569,37.66657
981,vegan,본죽 상계백병원,먹거리_식당,서울특별시 노원구,서울특별시 노원구 동일로 1356,127.0622,37.64994
982,vegan,본죽 상계보람,먹거리_식당,서울특별시 노원구,서울특별시 노원구 한글비석로 463,127.0665,37.66421
983,vegan,본죽 상계역,먹거리_식당,서울특별시 노원구,서울특별시 노원구 덕릉로 699,127.0752,37.66014
984,vegan,본죽 석계역,먹거리_식당,서울특별시 노원구,서울특별시 노원구 석계로 11-1,127.0644,37.61595
985,vegan,본죽 월계점,먹거리_식당,서울특별시 노원구,서울특별시 노원구 월계로 370,127.061,37.63098
986,vegan,본죽 중계브라운스톤점,먹거리_식당,서울특별시 노원구,서울특별시 노원구 동일로203가길 29,127.0643,37.63989
987,vegan,본죽 중계점,먹거리_식당,서울특별시 노원구,서울특별시 노원구 한글비석로 245,127.0763,37.64951
988,vegan,본죽 하계점,먹거리_식당,서울특별시 노원구,서울특별시 노원구 노원로 248,127.0738,37.63992
989,vegan,본죽 화랑대역,먹거리_식당,서울특별시 노원구,서울특별시 노원구 노원로1길 67,127.0836,37.62084
990,vegan,본죽&비빔밥cafe 태릉입구역,먹거리_식당,서울특별시 노원구,서울특별시 노원구 동일로 992,127.0756,37.61881
991,zero,상계9동주민자치회,기타,서울특별시 노원구,"서울특별시 노원구 한글비석로 487, 상계9동주민센터",127.063809,37.664532
992,zero,아름다운가게 노원공릉점,생활용품,서울특별시 노원구,서울특별시 노원구 동일로 1053,127.0732223,37.62395331
993,zero,영그램,생활용품,서울특별시 노원구,서울특별시 노원구 공릉1동 동일로182길 63-3,127.077515,37.6236826
994,vegan,올드델리 노원점,먹거리_식당,서울특별시 노원구,서울특별시 노원구 노해로85길 14,127.0652712,37.6560286
995,vegan,이탈리안 비스트로 쿠오레,먹거리_식당,서울특별시 노원구,서울특별시 노원구 동일로218길 29 204호,127.0625,37.65402
996,vegan,작지만 카페,먹거리_식당,서울특별시 노원구,서울특별시 노원구 동일로 237가길 56 101호,127.0545,37.6763
997,zero,지구랑 가게,생활용품,서울특별시 노원구,서울특별시 노원구 광운로 53 1층 3호,127.0593,37.62238
998,vegan,카페마마스 월계점,먹거리_카페_디저트,서울특별시 노원구,서울특별시 노원구 마들로3길 15,127.0619783,37.62650774
999,vegan,퀴즈노스 서울여대,먹거리_식당,서울특별시 노원구,서울특별시 노원구 화랑로 621 101호,127.0899,37.63058
1000,vegan,퀴즈노스 중계점,먹거리_식당,서울특별시 노원구,서울특별시 노원구 노원로 330 롯데마트중계점 B1,127.0709,37.6468
1001,vegan,투고샐러드 노원역,먹거리_식당,서울특별시 노원구,서울특별시 노원구 동일로218길 29 우진빌딩 104호,127.0625,37.65402
1002,zero,행복중심생협 공릉매장,생활용품,서울특별시 노원구,서울특별시 노원구 공릉로34길 23,127.0803,37.62297
1003,vegan,황칠가힐링카페,먹거리_카페_디저트,서울특별시 노원구,서울특별시 노원구 동일로246길 39,127.0564255,37.67776203
1004,vegan,롯데리아 방학,먹거리_식당,서울특별시 도봉구,서울특별시 도봉구 방학로 173,127.0329,37.66211
1005,vegan,롯데리아 쌍문역,먹거리_식당,서울특별시 도봉구,서울특별시 도봉구 도봉로 484,127.0351,37.64862
1006,vegan,롯데리아 창동역,먹거리_식당,서울특별시 도봉구,서울특별시 도봉구 노해로63길 78,127.0463,37.65258
1007,vegan,롯데리아 홈플러스방학,먹거리_식당,서울특별시 도봉구,서울특별시 도봉구 도봉로 678 홈플러스데스코㈜방학점,127.0437,37.66487
1008,vegan,먀쿠아,기타,서울특별시 도봉구,서울특별시 도봉구 삼양로146길 20,127.013825,37.6523487
1009,vegan,본죽 도봉월드,먹거리_식당,서울특별시 도봉구,서울특별시 도봉구 마들로 650,127.0471,37.66804
1010,vegan,본죽 신창,먹거리_식당,서울특별시 도봉구,서울특별시 도봉구 덕릉로 250,127.0394,37.63974
1011,vegan,본죽 쌍문,먹거리_식당,서울특별시 도봉구,서울특별시 도봉구 도당로 14,127.0352,37.65949
1012,vegan,본죽 쌍문한일병원,먹거리_식당,서울특별시 도봉구,서울특별시 도봉구 도봉로109길 58,127.0302,37.64718
1013,vegan,본죽 창동,먹거리_식당,서울특별시 도봉구,서울특별시 도봉구 노해로63가길 12,127.0453,37.6532
1014,zero,제로웨이스트샵 안녕상점,생활용품,서울특별시 도봉구,서울특별시 도봉구 도봉로143길 18 2층,127.0412,37.66188
1015,vegan,죠샌드위치 도봉한신,먹거리_식당,서울특별시 도봉구,서울특별시 도봉구 도봉로180나길 41,127.0499,37.68435
1016,vegan,콩밭뜰,먹거리_식당,서울특별시 도봉구,서울특별시 도봉구 도봉로110아길 10,127.0373,37.64581
1017,zero,아름다운가게 방학점,생활용품,서울특별시 도봉구 ,서울특별시 도봉구 도봉로 578,127.0395644,37.65612373
1018,vegan,구포국수,먹거리_식당,서울특별시 동대문구,서울특별시 동대문구 답십리로 70,127.0486,37.57527
1019,vegan,국수천천히,먹거리_식당,서울특별시 동대문구,서울특별시 동대문구 서울특별시립대로28길 6,127.053,37.58248
1020,vegan,김말자 회기역점,먹거리_식당,서울특별시 동대문구,서울특별시 동대문구 회기로 196,127.057977,37.589756
1021,vegan,김씨네돌솥밥순두부,먹거리_식당,서울특별시 동대문구,서울특별시 동대문구 망우로21길 4,127.063,37.59066
1022,vegan,꽃갈피,먹거리_식당,서울특별시 동대문구,서울특별시 동대문구 망우로18가길 36,127.0608,37.58867
1023,zero,꽃피는삼월에 제로웨이스트 가게,생활용품,서울특별시 동대문구,서울특별시 동대문구 답십리로30길 22-1,127.04831,37.57435
1024,zero,나도나도 리필러리,생활용품,서울특별시 동대문구,서울특별시 동대문구 안암로 6 대광고 60주년 기념관 1층,127.0248,37.57795
1025,vegan,뉴델리,먹거리_식당,서울특별시 동대문구,서울특별시 동대문구 경희대로6길 5,127.0532,37.59338
1026,zero,도꼬마리,먹거리_카페_디저트,서울특별시 동대문구,서울특별시 동대문구 휘경로7길 3 이문동,127.062766,37.5955085
1027,vegan,롯데리아 외대역,먹거리_식당,서울특별시 동대문구,서울특별시 동대문구 휘경로 5-1,127.0609,37.59637
1028,vegan,롯데리아 장안사거리,먹거리_식당,서울특별시 동대문구,서울특별시 동대문구 답십리로 287,127.0723,37.57269
1029,vegan,롯데리아 제기역,먹거리_식당,서울특별시 동대문구,서울특별시 동대문구 왕산로 86,127.0326,37.57776
1030,vegan,롯데리아 청량리,먹거리_식당,서울특별시 동대문구,서울특별시 동대문구 왕산로 209,127.0458,37.58098
1031,vegan,롯데리아 청량리역,먹거리_식당,서울특별시 동대문구,서울특별시 동대문구 왕산로 214 청량리역사 3층,127.0482,37.58055
1032,vegan,메이크샐러드,먹거리_식당,서울특별시 동대문구,서울특별시 동대문구 휘경로2길 16,127.0607,37.59539
1033,vegan,미바드래프트,기타,서울특별시 동대문구,서울특별시 동대문구 이문1동 천장산로7길 8 2층,127.057356,37.5986286
1034,vegan,베지앙,먹거리_카페_디저트,서울특별시 동대문구,서울특별시 동대문구 회기로25길 16,127.0552686,37.5908565
1035,vegan,본죽 경희대점,먹거리_식당,서울특별시 동대문구,서울특별시 동대문구 회기로 143,127.0525,37.59173
1036,vegan,본죽 답십리점,먹거리_식당,서울특별시 동대문구,서울특별시 동대문구 천호대로 313,127.0553,37.56545
1037,vegan,본죽 신설동점,먹거리_식당,서울특별시 동대문구,서울특별시 동대문구 천호대로 23,127.0262,37.57451
1038,vegan,본죽 외대점,먹거리_식당,서울특별시 동대문구,서울특별시 동대문구 이문로 100,127.06,37.59572
1039,vegan,본죽 용두점,먹거리_식당,서울특별시 동대문구,서울특별시 동대문구 고산자로 420,127.0386,37.57715
1040,vegan,본죽 위생병원점,먹거리_식당,서울특별시 동대문구,서울특별시 동대문구 망우로21가길 4,127.0625,37.59063
1041,vegan,본죽 장안동삼거리점,먹거리_식당,서울특별시 동대문구,서울특별시 동대문구 사가정로 229,127.0705,37.57897
1042,vegan,본죽 장안동점,먹거리_식당,서울특별시 동대문구,서울특별시 동대문구 장안벚꽃로 107,127.0745,37.56943
1043,vegan,본죽 전농뉴타운점,먹거리_식당,서울특별시 동대문구,서울특별시 동대문구 답십리로 76,127.049,37.57506
1044,vegan,본죽 전농동점,먹거리_식당,서울특별시 동대문구,서울특별시 동대문구 사가정로 136,127.0599,37.5776
1045,vegan,본죽 청량리점,먹거리_식당,서울특별시 동대문구,서울특별시 동대문구 홍릉로 12,127.045,37.58143
1046,vegan,본죽&비빔밥cafe 장한평역점,먹거리_식당,서울특별시 동대문구,서울특별시 동대문구 천호대로 427-4,127.0668,37.56185
1047,vegan,스무디킹 청량리역사점,먹거리_식당,서울특별시 동대문구,서울특별시 동대문구 왕산로 214 3층,127.0482,37.58055
1048,vegan,옛살비 강된장,먹거리_식당,서울특별시 동대문구,서울특별시 동대문구 전농로 38,127.0573,37.56828
1049,vegan,요띠드,먹거리_식당,서울특별시 동대문구,서울특별시 동대문구 천장산로7길 26-2,127.0566,37.59847
1050,vegan,자연밥상,먹거리_식당,서울특별시 동대문구,서울특별시 동대문구 천장산로 39,127.0574,37.59938
1051,vegan,정순이네 밥상,먹거리_식당,서울특별시 동대문구,서울특별시 동대문구 망우로18길 26,127.0626484,37.5887474
1052,vegan,죠샌드위치 시립대,먹거리_식당,서울특별시 동대문구,서울특별시 동대문구 서울시립대로 147 우성빌딩 1층 103호 죠샌드위치,127.0532,37.58325
1053,vegan,초록뜰,먹거리_식당,서울특별시 동대문구,서울특별시 동대문구 망우로18길 6,127.0624,37.58963
1054,vegan,춘천막국수,먹거리_식당,서울특별시 동대문구,서울특별시 동대문구 망우로18길 30,127.062751,37.5886022
1055,vegan,카페반창고,먹거리_카페_디저트,서울특별시 동대문구,서울특별시 동대문구 경희대로1가길 18,127.0516417,37.59256704
1056,vegan,캘리포니아피자키친 청량리역,먹거리_식당,서울특별시 동대문구,서울특별시 동대문구 왕산로 214,127.0482,37.58055
1057,vegan,컴플리트커피,먹거리_식당,서울특별시 동대문구,서울특별시 동대문구 이문로9나길 6-14,127.0566,37.59828
1058,vegan,퀴즈노스 경희의료원,먹거리_식당,서울특별시 동대문구,"서울특별시 동대문구 경희대로 23 경희의료원부속동 전면프라자 1층 2,3호",127.0526,37.595
1059,vegan,퀴즈노스 롯데백화점 청량리,먹거리_식당,서울특별시 동대문구,서울특별시 동대문구 왕산로 214 지하 2층,127.0482,37.58055
1060,vegan,투고샐러드 경희대,먹거리_식당,서울특별시 동대문구,서울특별시 동대문구 경희대로4길 50,127.055,37.59161
1061,vegan,투고샐러드 한국외국어대,먹거리_식당,서울특별시 동대문구,서울특별시 동대문구 휘경로 18,127.0618,37.5956
1062,vegan,홍천막국수,먹거리_식당,서울특별시 동대문구,서울특별시 동대문구 망우로20길 16,127.063405,37.5900335
1063,vegan,후문첫집,먹거리_식당,서울특별시 동대문구,서울특별시 동대문구 망우로18다길 44,127.0609,37.58534
1064,vegan,국수나무 남성역,먹거리_식당,서울특별시 동작구,서울특별시 동작구 사당로 215 서림빌딩,126.9723,37.48444
1065,vegan,그리너 구디단점,먹거리_식당,서울특별시 동작구,서울특별시 동작구 신대방11길 35 1호,126.9078,37.48849
1066,vegan,닥터로빈 흑석점,먹거리_식당,서울특별시 동작구,서울특별시 동작구 현충로 124,126.9673256,37.50649062
1067,vegan,롯데리아 남성역,먹거리_식당,서울특별시 동작구,서울특별시 동작구 사당로 200 1층 롯데리아 남성역점,126.9704,37.48469
1068,vegan,롯데리아 노량진,먹거리_식당,서울특별시 동작구,서울특별시 동작구 장승배기로 171 아이비빌딩 1층,126.9399,37.51302
1069,vegan,롯데리아 보라매타운,먹거리_식당,서울특별시 동작구,서울특별시 동작구 보라매로5길 35,126.9235,37.49209
1070,vegan,롯데리아 성대시장,먹거리_식당,서울특별시 동작구,서울특별시 동작구 상도로 102 성대시장,126.9318,37.49994
1071,vegan,롯데리아 숭실대입구역,먹거리_식당,서울특별시 동작구,서울특별시 동작구 상도로 352,126.9526,37.49699
1072,vegan,롯데리아 이수역,먹거리_식당,서울특별시 동작구,서울특별시 동작구 동작대로 129,126.9819,37.4883
1073,vegan,롯데리아 중앙대,먹거리_식당,서울특별시 동작구,서울특별시 동작구 흑석로 110-1,126.9614,37.50831
1074,vegan,마리짱 중앙대점,먹거리_식당,서울특별시 동작구,서울특별시 동작구 서달로12길 13,126.9625517,37.50700341
1075,vegan,본죽 남성역,먹거리_식당,서울특별시 동작구,서울특별시 동작구 사당로 215,126.9723,37.48444
1076,vegan,본죽 대림,먹거리_식당,서울특별시 동작구,서울특별시 동작구 시흥대로 658,126.9081,37.49037
1077,vegan,본죽 대방,먹거리_식당,서울특별시 동작구,서울특별시 동작구 노량진로 48,126.9311,37.51302
1078,vegan,본죽 보라매,먹거리_식당,서울특별시 동작구,서울특별시 동작구 보라매로5길 43,126.9234,37.49143
1079,vegan,본죽 보라매역,먹거리_식당,서울특별시 동작구,서울특별시 동작구 여의대방로 126,126.9206,37.49812
1080,vegan,본죽 사당,먹거리_식당,서울특별시 동작구,서울특별시 동작구 동작대로 43,126.9814,37.48042
1081,vegan,본죽 숭실대역,먹거리_식당,서울특별시 동작구,서울특별시 동작구 상도로 351,126.9531,37.49735
1082,vegan,본죽 신대방삼거리역,먹거리_식당,서울특별시 동작구,서울특별시 동작구 상도로 77,126.9292,37.4999
1083,vegan,본죽 이수,먹거리_식당,서울특별시 동작구,서울특별시 동작구 동작대로27길 18,126.981,37.48765
1084,vegan,본죽 장승배기역,먹거리_식당,서울특별시 동작구,서울특별시 동작구 상도로 193,126.9402,37.50529
1085,vegan,본죽 중앙대,먹거리_식당,서울특별시 동작구,서울특별시 동작구 흑석로 91,126.9597,37.50742
1086,vegan,본죽&비빔밥cafe 노량진,먹거리_식당,서울특별시 동작구,서울특별시 동작구 만양로 81,126.9445,37.51081
1087,zero,브릿지엣지,먹거리_카페_디저트,서울특별시 동작구,서울특별시 동작구 상도로53길 70 상가동 311호,126.954348,37.5021091
1088,zero_vegan,비그린,생활용품,서울특별시 동작구,서울특별시 동작구 노량진로 10 1층  ,126.927,37.51228
1089,vegan,샐러디 보라매,먹거리_식당,서울특별시 동작구,서울특별시 동작구 보라매로5길 43,126.9234,37.49143
1090,zero,아름다운가게 남성역점,생활용품,서울특별시 동작구,서울특별시 동작구 사당로 250,126.9755193,37.48310787
1091,vegan,우부래도,먹거리_카페_디저트,서울특별시 동작구,서울특별시 동작구 상도로37길 3,126.9486144,37.50315925
1092,vegan,죠샌드위치 이수역,먹거리_식당,서울특별시 동작구,서울특별시 동작구 동작대로23길 12,126.9811,37.48436
1093,zero,지구샵,생활용품,서울특별시 동작구,서울특별시 동작구 성대로1길 16,126.9338846,37.5008494
1094,zero,커피팩토리쏘 본점,먹거리_카페_디저트,서울특별시 동작구,서울특별시 동작구 노량진로 196,126.9475006,37.5129824
1095,vegan,터바채,먹거리_식당,서울특별시 동작구,서울특별시 동작구 상도로37길 3,126.948641,37.50313
1096,vegan,판타스타코,먹거리_식당,서울특별시 동작구,서울특별시 동작구 흑석로 85,126.9591,37.5073
1097,zero,플라프리,생활용품,서울특별시 동작구,서울특별시 동작구 동작대로 157-4 1F,126.982149,37.4906111
1098,vegan,하르망,먹거리_카페_디저트,서울특별시 동작구,서울특별시 동작구 동작대로9길 22,126.9802964,37.4806678
1099,zero,홀썸,먹거리_카페_디저트,서울특별시 동작구,서울특별시 동작구 노량진로 10,126.9269578,37.512284
1100,vegan,가원,먹거리_식당,서울특별시 마포구,서울특별시 마포구 월드컵로 65,126.9108597,37.55486058
1101,vegan,걸스타운,먹거리_식당,서울특별시 마포구,서울특별시 마포구 와우산로 11길 9-9,126.922243,37.548713
1102,vegan,고려죽,먹거리_식당,서울특별시 마포구,서울특별시 마포구 월드컵로 86,126.9099824,37.5564805
1103,vegan,구내식당,먹거리_식당,서울특별시 마포구,서울특별시 마포구 월드컵로19길 74 어쩌다가게 101호,126.9069,37.55433
1104,vegan,권가김밥,먹거리_식당,서울특별시 마포구,서울특별시 마포구 숭문길 63,126.9456,37.5493
1105,vegan,그러팡야,먹거리_식당,서울특별시 마포구,서울특별시 마포구 포은로 48,126.9071,37.55175
1106,vegan,그리너 마포점,먹거리_식당,서울특별시 마포구,서울특별시 마포구 양화로23길 22-6 1층 그리너,126.9254,37.55949
1107,vegan,그린바이브,먹거리_식당,서울특별시 마포구,서울특별시 마포구 월드컵로34길 14 벽산상암스마트큐브 1층,126.9039,37.56506
1108,zero_vegan,기웃기웃,먹거리_식당,서울특별시 마포구,서울특별시 마포구 신촌로12다길 20,126.9336,37.55457
1109,vegan,내여자를부탁해 메세나폴리스,먹거리_식당,서울특별시 마포구,서울특별시 마포구 양화로 45 2F,126.9139,37.55097
1110,vegan,녹기전에,먹거리_식당,서울특별시 마포구,서울특별시 마포구 백범로 127-24,126.9456,37.54668
1111,vegan,뉴욕비앤씨 성산점,먹거리_식당,서울특별시 마포구,서울특별시 마포구 월드컵로34길 20 201호,126.9125,37.55253
1112,vegan,니니네,먹거리_식당,서울특별시 마포구,서울특별시 마포구 광성로6길 30 1층,126.9388,37.54857
1113,vegan,다이너재키,먹거리_식당,서울특별시 마포구,서울특별시 마포구 포은로 82,126.9055489,37.554332
1114,vegan,닥터로빈 공덕점,먹거리_식당,서울특별시 마포구,서울특별시 마포구 백범로 192,126.9515131,37.54329113
1115,vegan,닥터로빈 상암점,먹거리_식당,서울특별시 마포구,서울특별시 마포구 매봉산로 75,126.8931205,37.57825643
1116,vegan,닥터로빈 AK&홍대점,먹거리_식당,서울특별시 마포구,서울특별시 마포구 양화로 188,126.9264316,37.55778153
1117,vegan,당도,먹거리_카페_디저트,서울특별시 마포구,서울특별시 마포구 포은로 106,126.9048422,37.5563762
1118,vegan,더로바이트윈스,먹거리_카페_디저트,서울특별시 마포구,서울특별시 마포구 포은로2가길 6,126.9077597,37.55135602
1119,vegan,더브레드블루 신촌,먹거리_식당,서울특별시 마포구,서울특별시 마포구 신촌로12다길 3,126.9328,37.55515
1120,vegan,더캐스크 맥주,먹거리_식당,서울특별시 마포구,서울특별시 마포구 잔다리로3안길 27,126.9197612,37.5503919
1121,vegan,델리인디아,먹거리_식당,서울특별시 마포구,서울특별시 마포구 독막로9길 8 2층,126.9197,37.54869
1122,vegan,드렁큰비건,먹거리_식당,서울특별시 마포구,서울특별시 마포구 와우산로30길 13,126.9299657,37.55416834
1123,vegan,들풀 서교동,먹거리_식당,서울특별시 마포구,서울특별시 마포구 동교로 156-5,126.9198,37.55551
1124,vegan,띵크비건,먹거리_식당,서울특별시 마포구,서울특별시 마포구 월드컵로13길 55,126.9071257,37.55518657
1125,vegan,라뽀즈,먹거리_식당,서울특별시 마포구,서울특별시 마포구 양화로6길 60,126.9174,37.54855
1126,vegan,로우베가,먹거리_카페_디저트,서울특별시 마포구,서울특별시 마포구 신촌로12길,126.9324962,37.5553608
1127,vegan,르봉땅,먹거리_카페_디저트,서울특별시 마포구,서울특별시 마포구 월드컵로21길 18,126.9080563,37.5568163
1128,zero,리틀베러,생활용품,서울특별시 마포구,서울특별시 마포구 백범로31길 8 공덕SK리더스뷰 2동 1층 117호,126.9496,37.54509
1129,vegan,마이클식당,먹거리_식당,서울특별시 마포구,서울특별시 마포구 포은로6길 39,126.9072,37.55615
1130,vegan,마치래빗 상암,먹거리_식당,서울특별시 마포구,서울특별시 마포구 월드컵북로 402,126.8887,37.58008
1131,vegan,메종드비건,먹거리_식당,서울특별시 마포구,서울특별시 마포구 와우산로11길 9-8,126.9223,37.54858
1132,vegan,멜라,먹거리_식당,서울특별시 마포구,서울특별시 마포구 월드컵북로 352-10 1층,126.8932,37.57732
1133,vegan,모던죽집 스믓스 망원본점,먹거리_식당,서울특별시 마포구,서울특별시 마포구 희우정로16길 23,126.90323,37.554613
1134,vegan,몽타이,먹거리_식당,서울특별시 마포구,서울특별시 마포구 포은로5길 47,126.9023773,37.55499173
1135,vegan,무대륙,먹거리_식당,서울특별시 마포구,서울특별시 마포구 토정로5길 12,126.9185,37.54598
1136,vegan,미니멀키친,먹거리_식당,서울특별시 마포구,서울특별시 마포구 포은로 13,126.9090726,37.5493269
1137,vegan,밀토니아,먹거리_식당,서울특별시 마포구,서울특별시 마포구 월드컵로7길 73,126.9082,37.55245
1138,vegan,발리인망원,먹거리_식당,서울특별시 마포구,서울특별시 마포구 포은로 67,126.906,37.55329
1139,vegan,베이스이즈나이스,먹거리_식당,서울특별시 마포구,서울특별시 마포구 도화2길 20,126.9490855,37.53962511
1140,vegan,별자리마라탕&훠궈,먹거리_식당,서울특별시 마포구,서울특별시 마포구 와우산로23길 50 지하1층,126.9237,37.55503
1141,vegan,보물섬김밥,먹거리_식당,서울특별시 마포구,서울특별시 마포구 월드컵로13길 50,126.907405,37.5554196
1142,vegan,복춘정,먹거리_식당,서울특별시 마포구,서울특별시 마포구 월드컵로21길 18,126.908,37.55684
1143,vegan,브라와,먹거리_식당,서울특별시 마포구,서울특별시 마포구 희우정로10길 30,126.905651,37.5531553
1144,vegan,비비빔,먹거리_식당,서울특별시 마포구,서울특별시 마포구 동교로19길 96 1층,126.9163,37.55955
1145,zero,빛바람,먹거리_카페_디저트,서울특별시 마포구,서울특별시 마포구 월드컵북로 57 1층 101호  ,126.917,37.55918
1146,vegan,삼삼오오커피공작소,먹거리_식당,서울특별시 마포구,서울특별시 마포구 월드컵북로12길 20,126.9158,37.56183
1147,vegan,색다른한잔,먹거리_식당,서울특별시 마포구,서울특별시 마포구 독막로2길 35,126.9143577,37.5469803
1148,vegan,샐러마리,먹거리_식당,서울특별시 마포구,서울특별시 마포구 희우정로 93 1층,126.9023,37.55362
1149,zero,성미산마을회관 온동네순환거점,생활용품,서울특별시 마포구,서울특별시 마포구 성미산로3길 2,126.9096,37.5586
1150,vegan,셰발레리,먹거리_식당,서울특별시 마포구,서울특별시 마포구 포은로 52,126.907,37.55207
1151,vegan,손오공 마라탕 동교동,먹거리_식당,서울특별시 마포구,서울특별시 마포구 양화로18길 15 2층,126.921727,37.551056
1152,vegan,손오공 마라탕 서교점,먹거리_식당,서울특별시 마포구,서울특별시 마포구 잔다리로6길 23,126.9203053,37.5523369
1153,vegan,수잔네 허브식당,먹거리_식당,서울특별시 마포구,서울특별시 마포구 월드컵로8길 41,126.9146,37.55351
1154,vegan,수카라,먹거리_식당,서울특별시 마포구,서울특별시 마포구 와우산로 157,126.9301,37.55508
1155,vegan,슬런치팩토리,먹거리_식당,서울특별시 마포구,서울특별시 마포구 와우산로3길 38,126.9208476,37.54585862
1156,vegan,슬로우캘리,먹거리_식당,서울특별시 마포구,서울특별시 마포구 동교로 38길 35,126.9258,37.56136
1157,vegan,아날로그 가든,먹거리_카페_디저트,서울특별시 마포구,서울특별시 마포구 동교로 145,126.9180104,37.5554268
1158,zero,아름다운가게 망원역점,생활용품,서울특별시 마포구,서울특별시 마포구 월드컵로 69,126.9105299,37.55524686
1159,vegan,아시아쿠진,먹거리_식당,서울특별시 마포구,서울특별시 마포구 독막로7길 45,126.9195474,37.5498052
1160,vegan,아이엠샐러드,먹거리_식당,서울특별시 마포구,서울특별시 마포구 월드컵북로54길 17,126.8885,37.58133
1161,vegan,아필립,먹거리_식당,서울특별시 마포구,서울특별시 마포구 성미산로 191 1층 아필립,126.9266,37.56296
1162,vegan,알디프 티 바 & 라운지,먹거리_식당,서울특별시 마포구,서울특별시 마포구 와우산로 35길 19 B1-1F,126.92938,37.55599
1163,zero,알맹상점,생활용품,서울특별시 마포구,서울특별시 마포구 월드컵로 49,126.911618,37.5536634
1164,vegan,앙뗄,먹거리_식당,서울특별시 마포구,서울특별시 마포구 동교로41길 10,126.9242,37.56289
1165,vegan,야미요밀,먹거리_카페_디저트,서울특별시 마포구,서울특별시 마포구 양화로7길 6-5,126.9152198,37.5515235
1166,vegan,어게인리프레쉬 연남,먹거리_식당,서울특별시 마포구,서울특별시 마포구 양화로21길 15,126.925,37.55892
1167,vegan,어라운드그린,먹거리_식당,서울특별시 마포구,서울특별시 마포구 망원로 79,126.9056107,37.55763428
1168,vegan,어반도투리,먹거리_식당,서울특별시 마포구,서울특별시 마포구 백범로 152,126.9474,37.54515
1169,vegan,언플러그드,먹거리_식당,서울특별시 마포구,서울특별시 마포구 와우산로33길 26,126.9292,37.5555
1170,zero,얼스어스,먹거리_카페_디저트,서울특별시 마포구,서울특별시 마포구 성미산로 150  ,126.9233,37.56414
1171,vegan,연우김밥,먹거리_식당,서울특별시 마포구,서울특별시 마포구 와우산로 31,126.9228,37.54731
1172,zero,오즈타운,생활용품,서울특별시 마포구,서울특별시 마포구 동교로 272-8 2층,126.9261,37.56353
1173,vegan,요노미 키친,먹거리_식당,서울특별시 마포구,서울특별시 마포구 와우산로29길 4-40,126.929338,37.5551592
1174,zero,유민얼랏,생활용품,서울특별시 마포구,서울특별시 마포구 성미산로17길 68,126.9174948,37.5644127
1175,vegan,이뮤 베이크샵,먹거리_식당,서울특별시 마포구,서울특별시 마포구 양화로6길 57-13 2층 202호,126.9177,37.54925
1176,vegan,죠티인도레스토랑 신촌점,먹거리_식당,서울특별시 마포구,서울특별시 마포구 신촌로20길 6,126.9379543,37.55495091
1177,zero_vegan,지구샵 홈&베이커리 연남점,먹거리_카페_디저트,서울특별시 마포구,서울특별시 마포구 성미산로 155 1층,126.923499,37.5645498
1178,vegan,충칭호모두샤브샤브 홍대,먹거리_식당,서울특별시 마포구,서울특별시 마포구 홍익로6길 46 2층,126.9241,37.55609
1179,vegan,카카오다다,먹거리_식당,서울특별시 마포구,서울특별시 마포구 희우정로10길 15 대림1차아파트 상가동 102호,126.90479,37.55354
1180,vegan,카페 썬,먹거리_식당,서울특별시 마포구,서울특별시 마포구 동교로17안길 51,126.9188,37.55657
1181,vegan,카페 어니스타 연남점,먹거리_카페_디저트,서울특별시 마포구,서울특별시 마포구 성미산로 153-13,126.9229707,37.5649108
1182,vegan,카페마마스 딜리버리 마포,먹거리_카페_디저트,서울특별시 마포구,서울특별시 마포구 서강로9길 17,126.9322203,37.55311693
1183,vegan,카페마마스 상암MBC점,먹거리_카페_디저트,서울특별시 마포구,서울특별시 마포구 성암로 267,126.8901027,37.58112782
1184,vegan,코미치,먹거리_식당,서울특별시 마포구,서울특별시 마포구 와우산로29길 4-13,126.9293874,37.5550335
1185,vegan,쿡앤북,먹거리_카페_디저트,서울특별시 마포구,서울특별시 마포구 성지3길 61,126.9163299,37.54625375
1186,vegan,크리스피프레시 합정,먹거리_식당,서울특별시 마포구,서울특별시 마포구 월드컵로3길 14 딜라이트스퀘어 2차 지하1층,126.9114,37.55135
1187,vegan,키다리 아저씨,먹거리_식당,서울특별시 마포구,서울특별시 마포구 성미산로 22,126.9107,37.55843
1188,zero_vegan,타이거릴리,생활용품,서울특별시 마포구,서울특별시 마포구 포은로 119 1층,126.90421,37.5575618
1189,vegan,투고샐러드 홍익대점,먹거리_식당,서울특별시 마포구,서울특별시 마포구 홍익로 10,126.9236241,37.553716
1190,vegan,퍼블리크,먹거리_카페_디저트,서울특별시 마포구,서울특별시 마포구 토정로 195,126.9327206,37.54554342
1191,vegan,펠앤콜,먹거리_식당,서울특별시 마포구,서울특별시 마포구 와우산로 39-21,126.9222,37.54816
1192,vegan,포인트프레드릭,먹거리_식당,서울특별시 마포구,서울특별시 마포구 동교로12길 12,126.9123,37.55371
1193,vegan,포탈라 마포,먹거리_식당,서울특별시 마포구,서울특별시 마포구 월드컵북로4길 13,126.9205,37.55713
1194,zero,플라워에이블,기타,서울특별시 마포구,서울특별시 마포구 성미산로17길 101,126.917012,37.5659239
1195,vegan,플로리다반점 구웨이바오,먹거리_식당,서울특별시 마포구,서울특별시 마포구 월드컵로3길 56,126.9096208,37.5499987
1196,vegan,할랄가이즈 홍대,먹거리_식당,서울특별시 마포구,서울특별시 마포구 양화로 161,126.9233,37.55693
1197,vegan,해밀,먹거리_카페_디저트,서울특별시 마포구,서울특별시 마포구 동교로19길 101,126.915939,37.5596069
1198,vegan,해콩 망원,먹거리_식당,서울특별시 마포구,서울특별시 마포구 월드컵로 103,126.9084,37.55764
1199,vegan,호수꼬치 홍대합정점,먹거리_식당,서울특별시 마포구,서울특별시 마포구 독막로 55 1층,126.9194,37.54812
1200,vegan,홍쉐프,먹거리_식당,서울특별시 마포구,서울특별시 마포구 동교로 164 1층 홍쉐프,126.9202,37.55572
1201,vegan,황금룡,먹거리_식당,서울특별시 마포구,서울특별시 마포구 포은로 90,126.9053,37.55511
1202,vegan,거북이집,먹거리_식당,서울특별시 서대문구,서울특별시 서대문구 연희맛로 12-1,126.9294,37.56627
1203,zero,까페여름,먹거리_카페_디저트,서울특별시 서대문구,서울특별시 서대문구 가재울로6길 53-3,126.923781,37.5764611
1204,vegan,논지당,먹거리_식당,서울특별시 서대문구,서울특별시 서대문구 연세로 42-22,126.9381864,37.559219
1205,vegan,뉴욕비앤씨 창천점,먹거리_식당,서울특별시 서대문구,서울특별시 서대문구 연세로12길 39,126.93918,37.55931
1206,vegan,닥터로빈 이대,먹거리_식당,서울특별시 서대문구,서울특별시 서대문구 이화여대길 52,126.9469,37.56245
1207,zero,도돌이,생활용품,서울특별시 서대문구,서울특별시 서대문구 가좌로 77,126.928113,37.5799597
1208,zero,디어얼스,생활용품,서울특별시 서대문구,서울특별시 서대문구 수색로 43,126.9134215,37.5697544
1209,vegan,또르띠,먹거리_식당,서울특별시 서대문구,서울특별시 서대문구 이화여대7길 31,126.9439,37.55863
1210,vegan,레인보울,먹거리_카페_디저트,서울특별시 서대문구,서울특별시 서대문구 신촌역로 22-5,126.9429466,37.5589357
1211,vegan,로드샌드위치,먹거리_식당,서울특별시 서대문구,서울특별시 서대문구 연대동문길 45,126.9444386,37.5644144
1212,vegan,로봇김밥 연대,먹거리_식당,서울특별시 서대문구,서울특별시 서대문구 연세로 50-1,126.9397,37.56155
1213,vegan,롯데리아 명지대학,먹거리_식당,서울특별시 서대문구,서울특별시 서대문구 거북골로 31,126.9244,37.57958
1214,vegan,롯데리아 서대문역,먹거리_식당,서울특별시 서대문구,서울특별시 서대문구 통일로 127,126.966,37.56583
1215,vegan,롯데리아 이대,먹거리_식당,서울특별시 서대문구,서울특별시 서대문구 이화여대길 59 1층,126.9452,37.55899
1216,vegan,롯데리아 창천,먹거리_식당,서울특별시 서대문구,서울특별시 서대문구 신촌로 15,126.9287,37.55827
1217,vegan,롯데리아 홍은포방,먹거리_식당,서울특별시 서대문구,서울특별시 서대문구 홍은중앙로 100 1층,126.9484,37.59918
1218,vegan,머노까머나 신촌,먹거리_식당,서울특별시 서대문구,서울특별시 서대문구 연세로11길 13,126.936,37.55883
1219,vegan,미스터 리,먹거리_식당,서울특별시 서대문구,서울특별시 서대문구 연세로7안길 41 지하1층,126.9345,37.55818
1220,vegan,반,먹거리_식당,서울특별시 서대문구,서울특별시 서대문구 연세로11길 21,126.935557,37.5588313
1221,vegan,베지베어,먹거리_식당,서울특별시 서대문구,서울특별시 서대문구 신촌역로 22-5,126.6314444,37.471906
1222,vegan,보울룸 신촌,먹거리_식당,서울특별시 서대문구,서울특별시 서대문구 연세로 13 현대백화점 유플렉스 11층,126.9366,37.55674
1223,zero,보틀라운지,먹거리_카페_디저트,서울특별시 서대문구,서울특별시 서대문구 홍연길 26 1층,126.9285,37.57518
1224,zero,보틀팩토리,먹거리_카페_디저트,서울특별시 서대문구,서울특별시 서대문구 홍연길 26 지하 1층,126.9285,37.57518
1225,vegan,본죽 가재울뉴타운,먹거리_식당,서울특별시 서대문구,서울특별시 서대문구 거북골로 120,126.9156,37.57578
1226,vegan,본죽 남가좌,먹거리_식당,서울특별시 서대문구,서울특별시 서대문구 증가로 128,126.9235,37.57757
1227,vegan,본죽 독립문,먹거리_식당,서울특별시 서대문구,서울특별시 서대문구 통일로 193,126.9616,37.57057
1228,vegan,본죽 세브란스직영,먹거리_식당,서울특별시 서대문구,서울특별시 서대문구 연세로 50-1,126.9397,37.56155
1229,vegan,본죽 연대대신동,먹거리_식당,서울특별시 서대문구,서울특별시 서대문구 연대동문길 71,126.9454,37.56537
1230,vegan,본죽 이대,먹거리_식당,서울특별시 서대문구,서울특별시 서대문구 이화여대1길 9,126.9453,37.55723
1231,vegan,본죽 인왕산,먹거리_식당,서울특별시 서대문구,서울특별시 서대문구 통일로 404,126.9477,37.58579
1232,vegan,본죽 홍은1동,먹거리_식당,서울특별시 서대문구,서울특별시 서대문구 홍은중앙로 103,126.9485,37.5998
1233,vegan,본죽 홍은서대문구청,먹거리_식당,서울특별시 서대문구,서울특별시 서대문구 연희로 267,126.9359,37.58095
1234,vegan,본죽 홍제,먹거리_식당,서울특별시 서대문구,서울특별시 서대문구 통일로 427,126.9457,37.58717
1235,vegan,본죽&비빔밥cafe 신촌,먹거리_식당,서울특별시 서대문구,서울특별시 서대문구 연세로 20,126.9371,37.55752
1236,vegan,본죽&비빔밥cafe 연세암병원,먹거리_식당,서울특별시 서대문구,서울특별시 서대문구 연세로 50-1,126.9397,37.56155
1237,vegan,본죽&비빔밥cafe 연희,먹거리_식당,서울특별시 서대문구,서울특별시 서대문구 연희맛로 18,126.9298,37.56672
1238,vegan,블랙번즈,먹거리_카페_디저트,서울특별시 서대문구,서울특별시 서대문구 이화여대7길 29,126.9440152,37.5585873
1239,vegan,비건 앤 비욘드 베이커리,먹거리_카페_디저트,서울특별시 서대문구,서울특별시 서대문구 연희로11길 41,126.9291477,37.56824827
1240,vegan,비건키친,먹거리_식당,서울특별시 서대문구,서울특별시 서대문구 연희로26가길 15,126.9361887,37.57369555
1241,vegan,비밀,먹거리_카페_디저트,서울특별시 서대문구,서울특별시 서대문구 이화여대7길 48,126.9431029,37.558508
1242,vegan,산타비,먹거리_식당,서울특별시 서대문구,서울특별시 서대문구 이화여대7길 10,126.9452,37.55882
1243,vegan,샐러디 연세대,먹거리_식당,서울특별시 서대문구,서울특별시 서대문구 연세로 50-1,126.9397,37.56155
1244,vegan,샐러디 이화여대,먹거리_식당,서울특별시 서대문구,서울특별시 서대문구 이화여대길 52,126.9469,37.56245
1245,zero,샘,먹거리_카페_디저트,서울특별시 서대문구,서울특별시 서대문구 홍제천로 86-1 1층,126.924611,37.5733262
1246,vegan,세아마라탕,먹거리_식당,서울특별시 서대문구,서울특별시 서대문구 이화여대길 16,126.946,37.5576
1247,vegan,스무디킹 이대ECC,먹거리_식당,서울특별시 서대문구,서울특별시 서대문구 이화여대길 52,126.9469,37.56245
1248,vegan,엄마식탁,먹거리_식당,서울특별시 서대문구,서울특별시 서대문구 연희맛로 17-21,126.9288,37.56663
1249,vegan,오늘 베이커리,먹거리_카페_디저트,서울특별시 서대문구,서울특별시 서대문구 연희로 119,126.9319107,37.5683925
1250,vegan,옥루몽 신촌본점,먹거리_식당,서울특별시 서대문구,서울특별시 서대문구 연대동문길 18,126.9436,37.56337
1251,vegan,완차이,먹거리_식당,서울특별시 서대문구,서울특별시 서대문구 명물길 50-7,126.9394,37.55873
1252,zero,우디무드,생활용품,서울특별시 서대문구,서울특별시 서대문구 연희로 52-6 코너,126.928345,37.562841
1253,vegan,위샐러듀,먹거리_식당,서울특별시 서대문구,서울특별시 서대문구 이화여대길 52-31,126.9447,37.55945
1254,vegan,이세계는놀이터예요,먹거리_식당,서울특별시 서대문구,서울특별시 서대문구 이화여대길 88-15,126.9437792,37.55947413
1255,vegan,이화성,먹거리_식당,서울특별시 서대문구,서울특별시 서대문구 이화여대길 50-8,126.9462,37.55904
1256,vegan,전골떡볶이 덕미가,먹거리_식당,서울특별시 서대문구,서울특별시 서대문구 이화여대길 26,126.946,37.55799
1257,vegan,지구커리,먹거리_식당,서울특별시 서대문구,서울특별시 서대문구 증가로6길 82-23,126.9296315,37.5784697
1258,vegan,지니네컵밥,먹거리_식당,서울특별시 서대문구,서울특별시 서대문구 신촌역로 22-5,126.943,37.5589
1259,vegan,카우떡볶이,먹거리_식당,서울특별시 서대문구,서울특별시 서대문구 이화여대길 88-21,126.9439316,37.5595417
1260,zero_vegan,카페 샘,먹거리_카페_디저트,서울특별시 서대문구,서울특별시 서대문구 홍제천로2길 100,126.923311,37.5715684
1261,vegan,퀴즈노스 가재울,먹거리_식당,서울특별시 서대문구,서울특별시 서대문구 가재울미래로 2 201동 112호,126.9169,37.5728
1262,vegan,투고샐러드 신촌,먹거리_식당,서울특별시 서대문구,서울특별시 서대문구 연세로12길 30,126.9386,37.55895
1263,zero,페이퍼넛츠,먹거리_카페_디저트,서울특별시 서대문구,서울특별시 서대문구 거북골로24길 37-8 1층,126.908221,37.5812251
1264,vegan,포케포케,먹거리_식당,서울특별시 서대문구,서울특별시 서대문구 이화여대5길 15,126.9449,37.55829
1265,zero_vegan,포포브레드,먹거리_카페_디저트,서울특별시 서대문구,서울특별시 서대문구 증가로 18,126.93127,37.5700237
1266,zero,협동플랫폼카페이웃,먹거리_카페_디저트,서울특별시 서대문구,서울특별시 서대문구 가좌로 77,126.9281,37.57997
1267,vegan,홍도깨비,먹거리_식당,서울특별시 서대문구,서울특별시 서대문구 이화여대1길 42-8,126.9436,37.55754
1268,vegan,김말자 서초역점,먹거리_식당,서울특별시 서초구,서울특별시 서초구 서초대로 지하233,127.0075808,37.491823
1269,vegan,깔리,먹거리_식당,서울특별시 서초구,서울특별시 서초구 방배천로 21,126.9823,37.47847
1270,zero_vegan,남미플랜트랩,먹거리_식당,서울특별시 서초구,서울특별시 서초구 방배천로4안길 55,126.983214,37.4806101
1271,vegan,닥터로빈 반포점,먹거리_식당,서울특별시 서초구,서울특별시 서초구 고무래로 8,127.0100202,37.50365655
1272,vegan,더브레드블루 서초,먹거리_식당,서울특별시 서초구,서울특별시 서초구 서초중앙로8길 17,127.0163,37.48676
1273,zero,덕분애,생활용품,서울특별시 서초구,서울특별시 서초구 서초대로 389,127.023653,37.4970572
1274,zero,던킨도너츠 본사,먹거리_카페_디저트,서울특별시 서초구,서울특별시 서초구 남부순환로 2620,127.0372961,37.4843832
1275,vegan,도반,먹거리_식당,서울특별시 서초구,서울특별시 서초구 마방로6길 7-27,127.0427141,37.47630718
1276,vegan,도스타코스 강남역,먹거리_식당,서울특별시 서초구,서울특별시 서초구 강남대로 455,127.0247,37.50285
1277,vegan,로봇김밥 강남고속터미널,먹거리_식당,서울특별시 서초구,서울특별시 서초구 신반포로 194,127.0071,37.50538
1278,vegan,로봇김밥 신분당선양재역,먹거리_식당,서울특별시 서초구,서울특별시 서초구 남부순환로 2585,127.00861,37.49042
1279,vegan,롯데리아 남부터미널,먹거리_식당,서울특별시 서초구,서울특별시 서초구 효령로 289 장곡빌딩 103호,127.0159,37.48513
1280,vegan,롯데리아 방배역,먹거리_식당,서울특별시 서초구,서울특별시 서초구 방배로 96 1층,126.997,37.48303
1281,vegan,롯데리아 사당,먹거리_식당,서울특별시 서초구,서울특별시 서초구 동작대로 24,126.9822,37.47867
1282,vegan,롯데리아 양재동,먹거리_식당,서울특별시 서초구,서울특별시 서초구 동산로 22,127.042,37.46984
1283,vegan,마리짱 고속터미널점,먹거리_식당,서울특별시 서초구,서울특별시 서초구 신반포로 194,127.0068344,37.50643574
1284,zero,방배살롱,기타,서울특별시 서초구,서울특별시 서초구 동광로10길 2 덕원빌딩 4층,126.985869,37.4908189
1285,zero,배스킨라빈스 본사,먹거리_카페_디저트,서울특별시 서초구,서울특별시 서초구 남부순환로 2620,127.0372961,37.4843832
1286,vegan,본도시락 교대역,먹거리_식당,서울특별시 서초구,서울특별시 서초구 서초대로54길 15,127.0161,37.49344
1287,vegan,본죽 강남터미널,먹거리_식당,서울특별시 서초구,서울특별시 서초구 신반포로 194,127.0071,37.50538
1288,vegan,본죽 교대,먹거리_식당,서울특별시 서초구,서울특별시 서초구 사임당로 28,127.0132,37.48773
1289,vegan,본죽 교대역지파이브,먹거리_식당,서울특별시 서초구,서울특별시 서초구 서초중앙로24길 27,127.0164,37.49541
1290,vegan,본죽 구반포,먹거리_식당,서울특별시 서초구,서울특별시 서초구 신반포로 49,126.9901,37.50218
1291,vegan,본죽 남부터미널,먹거리_식당,서울특별시 서초구,서울특별시 서초구 효령로 303,127.0173,37.48548
1292,vegan,본죽 내방역,먹거리_식당,서울특별시 서초구,서울특별시 서초구 방배로 195,126.9915,37.4907
1293,vegan,본죽 논현,먹거리_식당,서울특별시 서초구,서울특별시 서초구 신반포로 333,127.0202,37.51094
1294,vegan,본죽 반포,먹거리_식당,서울특별시 서초구,서울특별시 서초구 고무래로 18-4,127.0101,37.50298
1295,vegan,본죽 반포KCC,먹거리_식당,서울특별시 서초구,서울특별시 서초구 주흥길 3,127.0208,37.50376
1296,vegan,본죽 방배까페골목,먹거리_식당,서울특별시 서초구,서울특별시 서초구 방배중앙로 196,126.9858,37.496
1297,vegan,본죽 방배메트로,먹거리_식당,서울특별시 서초구,서울특별시 서초구 효령로 22,126.9875,37.47743
1298,vegan,본죽 방배상문고,먹거리_식당,서울특별시 서초구,서울특별시 서초구 명달로 49,127.0047,37.48174
1299,vegan,본죽 방배역,먹거리_식당,서울특별시 서초구,서울특별시 서초구 방배로 104,126.9966,37.48356
1300,vegan,본죽 서초구청,먹거리_식당,서울특별시 서초구,서울특별시 서초구 남부순환로 2561,127.0306,37.48432
1301,vegan,본죽 서초우체국,먹거리_식당,서울특별시 서초구,서울특별시 서초구 동산로 14,127.0413,37.4694
1302,vegan,본죽 우면,먹거리_식당,서울특별시 서초구,서울특별시 서초구 바우뫼로7길 8,127.0254,37.47086
1303,vegan,본죽 잠원,먹거리_식당,서울특별시 서초구,서울특별시 서초구 나루터로 42,127.0143,37.51493
1304,vegan,본죽&비빔밥cafe 강남역,먹거리_식당,서울특별시 서초구,서울특별시 서초구 서초대로78길 36,127.0282,37.49472
1305,vegan,본죽&비빔밥cafe 반포서래,먹거리_식당,서울특별시 서초구,서울특별시 서초구 서래로 31,126.9981,37.49801
1306,vegan,본죽&비빔밥cafe 서초법원,먹거리_식당,서울특별시 서초구,서울특별시 서초구 반포대로30길 53,127.0114,37.49245
1307,vegan,본죽&비빔밥cafe 포이,먹거리_식당,서울특별시 서초구,서울특별시 서초구 마방로10길 18-1,127.0437,37.47644
1308,vegan,봄날,먹거리_식당,서울특별시 서초구,서울특별시 서초구 바우뫼로39길 32-18,127.0409969,37.4811995
1309,vegan,샐러디 교대역,먹거리_식당,서울특별시 서초구,서울특별시 서초구 서초대로54길 15,127.0161,37.49344
1310,vegan,소울브레드,먹거리_카페_디저트,서울특별시 서초구,서울특별시 서초구 바우뫼로7길 27,127.0243095,37.47133711
1311,vegan,스무디킹 강남터미널,먹거리_식당,서울특별시 서초구,서울특별시 서초구 신반포로 194 경부선 지하 1층,127.0071,37.50538
1312,vegan,스무디킹 뉴코아강남,먹거리_식당,서울특별시 서초구,서울특별시 서초구 잠원로 51,127.0074,37.50922
1313,vegan,스무디킹 파스텔시티,먹거리_식당,서울특별시 서초구,서울특별시 서초구 방배천로 11 1층,126.9822,37.47772
1314,zero,아름다운가게 서초점,생활용품,서울특별시 서초구,서울특별시 서초구 서초대로56길 35,127.0177082,37.49306702
1315,vegan,야미요밀 서래마을,먹거리_카페_디저트,서울특별시 서초구,서울특별시 서초구 서래로 29,126.9981149,37.4974797
1316,vegan,어니스트그린,먹거리_카페_디저트,서울특별시 서초구,서울특별시 서초구 효령로77길 34,127.0288483,37.49199443
1317,zero,어몽트리 그림공간,기타,서울특별시 서초구,서울특별시 서초구 방배천로6길 33-1,126.9843332,37.4793895
1318,zero,에코스토어 신세계백화점 강남점,생활용품,서울특별시 서초구,서울특별시 서초구 신반포로 176,127.0032,37.50421
1319,vegan,외계인방앗간 서초점,먹거리_카페_디저트,서울특별시 서초구,"서울특별시 서초구 고무래로 90-7 25,26호",127.01747,37.5
1320,zero,웨이스트업소,생활용품,서울특별시 서초구,서울특별시 서초구 방배로 189 4층  ,126.9917,37.4903
1321,vegan,잇스파이스,먹거리_식당,서울특별시 서초구,서울특별시 서초구 서초대로77길 7 서초빌딩 2층,127.0264,37.49846
1322,vegan,죠샌드위치 고속터미널,먹거리_식당,서울특별시 서초구,서울특별시 서초구 신반포로 194 1층,127.0071,37.50538
1323,vegan,죠샌드위치 교대역,먹거리_식당,서울특별시 서초구,서울특별시 서초구 사임당로17길 101 1층,127.0184,37.49308
1324,vegan,죠샌드위치 반포,먹거리_식당,서울특별시 서초구,서울특별시 서초구 서초중앙로 217 대동빌딩,127.0116,37.50106
1325,vegan,죠샌드위치 방배,먹거리_식당,서울특별시 서초구,서울특별시 서초구 방배중앙로 204 금호리첸시아 103호,126.9857,37.49718
1326,vegan,죠샌드위치 오토갤러리,먹거리_식당,서울특별시 서초구,서울특별시 서초구 양재대로11길 36,127.0354,37.46181
1327,vegan,천년식향 & 델리,먹거리_식당,서울특별시 서초구,서울특별시 서초구 효령로 316-1 3층,127.019,37.48542
1328,zero_vegan,카페 거북이,먹거리_카페_디저트,서울특별시 서초구,서울특별시 서초구 방배천로4안길 48 1층,126.983395,37.4802047
1329,vegan,카페마마스 강남뉴코아점,먹거리_카페_디저트,서울특별시 서초구,서울특별시 서초구 잠원로 69,127.0068813,37.51024132
1330,vegan,카페마마스 강남역점,먹거리_카페_디저트,서울특별시 서초구,서울특별시 서초구 서운로 138,127.0254551,37.4960182
1331,vegan,퀴즈노스 남부터미널,먹거리_식당,서울특별시 서초구,서울특별시 서초구 효령로 276 1층,127.0145,37.48439
1332,vegan,퀴즈노스 서울성모병원,먹거리_식당,서울특별시 서초구,서울특별시 서초구 반포대로 222 지하1층,127.0055,37.50049
1333,zero,파스쿠찌 본사,먹거리_카페_디저트,서울특별시 서초구,서울특별시 서초구 남부순환로 2620,127.0372961,37.4843832
1334,vegan,푸드더즈매터,먹거리_식당,서울특별시 서초구,서울특별시 서초구 서래로1길 10,126.9976,37.49626
1335,vegan,피봇,먹거리_카페_디저트,서울특별시 서초구,서울특별시 서초구 방배중앙로25길 5,126.9858288,37.493882
1336,vegan,할랄가이즈 강남,먹거리_식당,서울특별시 서초구,서울특별시 서초구 강남대로69길 8,127.0246,37.50183
1337,vegan,훅트포케 강남역,먹거리_식당,서울특별시 서초구,서울특별시 서초구 서운로 138 동아타워 지하1층 27호,127.0252,37.49599
1338,zero,Wasteupso,생활용품,서울특별시 서초구,서울특별시 서초구 방배로 189 4층,126.991681,37.4901978
1339,vegan,강남교자 뚝섬,먹거리_식당,서울특별시 성동구,서울특별시 성동구 상원1길 26  서울숲A타워 1층,127.0484,37.5462
1340,vegan,구수하당,먹거리_카페_디저트,서울특별시 성동구,서울특별시 성동구 광나루로4길 8-1,127.0537418,37.54957783
1341,vegan,그레이스톤,먹거리_식당,서울특별시 성동구,서울특별시 성동구 성수이로7길 27 서울숲코오롱디지탈타워,127.0534,37.54158
1342,vegan,다포케,먹거리_식당,서울특별시 성동구,서울특별시 성동구 연무장길 41,127.0539,37.54303
1343,vegan,닥터로빈 옥수점,먹거리_식당,서울특별시 성동구,서울특별시 성동구 독서당로 194,127.0126631,37.5426679
1344,zero,더피커,생활용품,서울특별시 성동구,서울특별시 성동구 서울숲2길 29 1층,127.04207,37.54698
1345,vegan,로컬릿,먹거리_식당,서울특별시 성동구,서울특별시 성동구 한림말길 33 2층,127.0147,37.54094
1346,vegan,롯데리아 금호,먹거리_식당,서울특별시 성동구,서울특별시 성동구 장터길 23,127.0185,37.54845
1347,vegan,롯데리아 답십리,먹거리_식당,서울특별시 성동구,서울특별시 성동구 천호대로 308 인암빌딩,127.0543,37.56523
1348,vegan,롯데리아 롯데마트행당역,먹거리_식당,서울특별시 성동구,서울특별시 성동구 행당로 84,127.0284,37.55768
1349,vegan,롯데리아 성수역,먹거리_식당,서울특별시 성동구,서울특별시 성동구 아차산로7길 28 성수쇼핑센터,127.0555,37.54755
1350,vegan,롯데리아 왕십리역,먹거리_식당,서울특별시 성동구,서울특별시 성동구 왕십리광장로 17,127.0384,37.55926
1351,vegan,르베지왕,먹거리_식당,서울특별시 성동구,서울특별시 성동구 왕십리로2길 30,127.0481,37.5428
1352,vegan,마리오네,먹거리_식당,서울특별시 성동구,서울특별시 성동구 성수이로12길 15 1층,127.0569,37.53969
1353,vegan,마켓온오프 성수,먹거리_식당,서울특별시 성동구,서울특별시 성동구 서울숲2길 43,127.0435,37.5465
1354,vegan,반미362 센트라스,먹거리_식당,서울특별시 성동구,서울특별시 성동구 왕십리로 410 센트라스상가 B동 104호,127.0241,37.56674
1355,vegan,보난자베이커리,먹거리_카페_디저트,서울특별시 성동구,서울특별시 성동구 왕십리로5길 9-2,127.044136,37.5467997
1356,vegan,본죽 뚝섬,먹거리_식당,서울특별시 성동구,서울특별시 성동구 왕십리로 114,127.0448,37.54769
1357,vegan,본죽 서울금호,먹거리_식당,서울특별시 성동구,서울특별시 성동구 독서당로 311,127.0235,37.54832
1358,vegan,본죽 성수역,먹거리_식당,서울특별시 성동구,서울특별시 성동구 아차산로7길 15,127.0546,37.54662
1359,vegan,본죽 성수힐스테이트,먹거리_식당,서울특별시 성동구,서울특별시 성동구 성수일로4길 37,127.053,37.54215
1360,vegan,본죽 신금호역,먹거리_식당,서울특별시 성동구,서울특별시 성동구 금호산길 59,127.0193,37.55353
1361,vegan,본죽 왕십리,먹거리_식당,서울특별시 성동구,서울특별시 성동구 왕십리로 330,127.0333,37.5629
1362,vegan,본죽 한양대,먹거리_식당,서울특별시 성동구,서울특별시 성동구 마조로 25,127.0409,37.56006
1363,vegan,본죽 행당동,먹거리_식당,서울특별시 성동구,서울특별시 성동구 행당로 101,127.0302,37.55783
1364,vegan,샐러디 한양대,먹거리_식당,서울특별시 성동구,서울특별시 성동구 마조로 24,127.0413,37.55983
1365,zero_vegan,서스테이너블해빗 서울숲,먹거리_카페_디저트,서울특별시 성동구,서울특별시 성동구 서울숲2길 24-8,127.041056,37.5467742
1366,vegan,소소하게,먹거리_식당,서울특별시 성동구,서울특별시 성동구 성덕정길 27 1층,127.0468,37.53928
1367,zero,아름다운가게 상왕십리역점,생활용품,서울특별시 성동구,서울특별시 성동구 무학로 18,127.0303165,37.56577168
1368,zero,아름다운가게 용답되살림터,생활용품,서울특별시 성동구,서울특별시 성동구 자동차시장길 45,127.0563062,37.55869473
1369,vegan,정선부뚜막,먹거리_식당,서울특별시 성동구,서울특별시 성동구 서울숲6길 14,127.043,37.54752
1370,vegan,칙피스 성수,먹거리_식당,서울특별시 성동구,서울특별시 성동구 연무장5길 9-16 블루스톤타워 1층 101호,127.0527,37.54436
1371,zero,카페 연무장,먹거리_카페_디저트,서울특별시 성동구,서울특별시 성동구 연무장길 36,127.0533147,37.5428826
1372,zero,카페베네 본사,먹거리_카페_디저트,서울특별시 성동구,서울특별시 성동구 상원1길 25,127.0479363,37.5458038
1373,vegan,콩빠두,먹거리_식당,서울특별시 성동구,서울특별시 성동구 한림말1길 8,127.0165,37.54201
1374,vegan,쿠소이,먹거리_식당,서울특별시 성동구,서울특별시 성동구 성수이로16길 50,127.0616,37.53948
1375,vegan,투고샐러드 한양대,먹거리_식당,서울특별시 성동구,서울특별시 성동구 사근동길 6,127.042,37.56015
1376,vegan,푸울파티,먹거리_식당,서울특별시 성동구,서울특별시 성동구 뚝섬로9길 20,127.0562,37.53993
1377,vegan,플랜브이,먹거리_카페_디저트,서울특별시 성동구,서울특별시 성동구 뚝섬로3길 9,127.0491878,37.5410053
1378,vegan,헤이보울,먹거리_식당,서울특별시 성동구,서울특별시 성동구 성수이로7가길 13,127.0551,37.54145
1379,vegan,홈그라운드,먹거리_식당,서울특별시 성동구,서울특별시 성동구 한림말길 22-20 지하 1층,127.0132,37.54047
1380,vegan,Ndd,먹거리_식당,서울특별시 성동구,서울특별시 성동구 서울숲2길 19-18 2층,127.0412,37.54743
1381,vegan,가미꼬마김밥,먹거리_식당,서울특별시 성북구,서울특별시 성북구 동소문로18길 12-8,127.0155,37.59182
1382,vegan,그린벨리,먹거리_카페_디저트,서울특별시 성북구,서울특별시 성북구 성북로8나길 8,127.0044295,37.59145742
1383,vegan,김말자 길음역점,먹거리_식당,서울특별시 성북구,서울특별시 성북구 동소문로 지하248,127.024914,37.603185
1384,vegan,김말자 성신여대입구역점,먹거리_식당,서울특별시 성북구,서울특별시 성북구 동소문로 지하102,127.0164776,37.59271793
1385,zero,녹색연합,기타,서울특별시 성북구,서울특별시 성북구 성북로19길 15,126.996185,37.5925871
1386,vegan,더담백,먹거리_식당,서울특별시 성북구,서울특별시 성북구 화랑로 210-6,127.0533,37.60845
1387,vegan,도란도란,먹거리_식당,서울특별시 성북구,서울특별시 성북구 북악산로 1059 2층,127.0356,37.59265
1388,zero,동선나눔점방,생활용품,서울특별시 성북구,서울특별시 성북구 동소문로26길 27  ,127.0204,37.59393
1389,vegan,디어브레드 고대,먹거리_식당,서울특별시 성북구,서울특별시 성북구 개운사1길 29,127.0287,37.58733
1390,vegan,디저트작업실,먹거리_식당,서울특별시 성북구,서울특별시 성북구 성북로14길 8 1층 디저트작업실,127.0014,37.59372
1391,vegan,롤링파스타 성신여대,먹거리_식당,서울특별시 성북구,서울특별시 성북구 동소문로22길 5,127.0176,37.59279
1392,vegan,롯데리아 길음뉴타운점,먹거리_식당,서울특별시 성북구,서울특별시 성북구 길음로7길 6 길음뉴타운,127.0224,37.6043
1393,vegan,롯데리아 미아삼거리,먹거리_식당,서울특별시 성북구,서울특별시 성북구 도봉로 29,127.03,37.61185
1394,vegan,롯데리아 보문역,먹거리_식당,서울특별시 성북구,서울특별시 성북구 보문로 99,127.0198,37.584
1395,vegan,롯데리아 석관,먹거리_식당,서울특별시 성북구,서울특별시 성북구 돌곶이로 75,127.0575,37.61009
1396,vegan,롯데리아 성신여대,먹거리_식당,서울특별시 성북구,서울특별시 성북구 동소문로 117,127.0177,37.5937
1397,vegan,롯데리아 정릉,먹거리_식당,서울특별시 성북구,서울특별시 성북구 보국문로8길 4,127.0108,37.60708
1398,vegan,롯데리아 종암,먹거리_식당,서울특별시 성북구,서울특별시 성북구 종암로 93,127.0343,37.5985
1399,vegan,롯데리아 한성대입구역,먹거리_식당,서울특별시 성북구,서울특별시 성북구 동소문로 2,127.0068,37.58842
1400,vegan,롯데리아 홈플러스월곡,먹거리_식당,서울특별시 성북구,서울특별시 성북구 화랑로 76,127.0405,37.60187
1401,vegan,리틀마나님,먹거리_식당,서울특별시 성북구,서울특별시 성북구 종암로22길 41 1층,127.0361,37.60059
1402,zero_vegan,맞이한,먹거리_카페_디저트,서울특별시 성북구,서울특별시 성북구 혜화로 88,126.9980977,37.584176
1403,vegan,보리보리옥선이 시골밥상 성북,먹거리_식당,서울특별시 성북구,서울특별시 성북구 솔샘로1길 19 그린존,127.0039,37.60826
1404,vegan,본죽 길음뉴타운,먹거리_식당,서울특별시 성북구,서울특별시 성북구 길음로 74,127.0206,37.60972
1405,vegan,본죽 길음역,먹거리_식당,서울특별시 성북구,서울특별시 성북구 동소문로 248,127.0242,37.60288
1406,vegan,본죽 돌곶이역,먹거리_식당,서울특별시 성북구,서울특별시 성북구 돌곶이로 65,127.0582,37.60946
1407,vegan,본죽 미아사거리,먹거리_식당,서울특별시 성북구,서울특별시 성북구 숭인로 70-1,127.0294,37.61225
1408,vegan,본죽 보문역,먹거리_식당,서울특별시 성북구,서울특별시 성북구 보문로 116,127.0195,37.58558
1409,vegan,본죽 월곡,먹거리_식당,서울특별시 성북구,서울특별시 성북구 오패산로 46 월곡두산위브아파트,127.0388,37.60655
1410,vegan,본죽 정릉,먹거리_식당,서울특별시 성북구,서울특별시 성북구 보국문로 38,127.0104,37.60786
1411,vegan,본죽 종암,먹거리_식당,서울특별시 성북구,서울특별시 성북구 종암로 78,127.0355,37.59727
1412,vegan,본죽 한성대입구,먹거리_식당,서울특별시 성북구,서울특별시 성북구 삼선교로 8,127.0068,37.58784
1413,vegan,본죽&비빔밥cafe 고려대,먹거리_식당,서울특별시 성북구,서울특별시 성북구 인촌로 90,127.0293,37.58614
1414,vegan,본죽&비빔밥cafe 돈암동,먹거리_식당,서울특별시 성북구,서울특별시 성북구 아리랑로 6-1,127.0165,37.59341
1415,vegan,본죽&비빔밥cafe 성신여대,먹거리_식당,서울특별시 성북구,서울특별시 성북구 보문로34길 51,127.0181,37.59093
1416,vegan,사랑마라탕,먹거리_식당,서울특별시 성북구,서울특별시 성북구 개운사길 21-3,127.0288936,37.5872626
1417,vegan,샐러데이 고려대,먹거리_식당,서울특별시 성북구,서울특별시 성북구 개운사길 45,127.0291,37.5884
1418,vegan,샐러데이 한성대,먹거리_식당,서울특별시 성북구,서울특별시 성북구 성북로4길 52 1층,127.0103,37.59457
1419,vegan,샐러디 국민대,먹거리_식당,서울특별시 성북구,서울특별시 성북구 정릉로 77 국민대학교 종합복지관 b105호,126.9973,37.61093
1420,vegan,선동보리밥,먹거리_식당,서울특별시 성북구,서울특별시 성북구 성북로 134-4,126.9951,37.59472
1421,zero,순환지구,생활용품,서울특별시 성북구,서울특별시 성북구 동소문로25길 8,127.018595,37.5948144
1422,vegan,신룽푸마라탕고대점,먹거리_식당,서울특별시 성북구,서울특별시 성북구 고려대로24길 35,127.029545,37.5846252
1423,zero,아띠누림,먹거리_카페_디저트,서울특별시 성북구,서울특별시 성북구 장월로 89-6,127.0485053,37.6140621
1424,zero,아름다운가게 삼선교점,생활용품,서울특별시 성북구,서울특별시 성북구 창경궁로 327,127.0055978,37.58853095
1425,vegan,아케미,먹거리_카페_디저트,서울특별시 성북구,서울특별시 성북구 숭인로2길 82,127.0239513,37.6078051
1426,zero,아토모스,"먹거리_카페_디저트, 생활용품",서울특별시 성북구,서울특별시 성북구 성북로8길 11 1층,127.004372,37.5911276
1427,vegan,어느 정도의 빈틈,먹거리_식당,서울특별시 성북구,서울특별시 성북구 보문로30가길 27-2,127.0213575,37.5892331
1428,vegan,언니네반점,먹거리_식당,서울특별시 성북구,서울특별시 성북구 인촌로27길 42,127.0299,37.58827
1429,vegan,오샬 커리146,먹거리_식당,서울특별시 성북구,서울특별시 성북구 고려대로24길 6,127.0292,37.58598
1430,vegan,외계인방앗간 월곡점,먹거리_카페_디저트,서울특별시 성북구,서울특별시 성북구 오패산로 84,127.035981,37.60961095
1431,vegan,카레경반,먹거리_식당,서울특별시 성북구,서울특별시 성북구 동소문로20다길 2 2층,127.0169,37.59152
1432,vegan,카페 패밀리앤프렌즈,먹거리_카페_디저트,서울특별시 성북구,서울특별시 성북구 삼선교로14길 37,127.0104115,37.5865036
1433,vegan,카페58.4,먹거리_식당,서울특별시 성북구,서울특별시 성북구 성북로16길 4-13,127.0011,37.59366
1434,zero,카페설곡,먹거리_카페_디저트,서울특별시 성북구,서울특별시 성북구 안암로5길 22,127.0239166,37.5801176
1435,vegan,퀴즈노스 미아,먹거리_식당,서울특별시 성북구,서울특별시 성북구 동소문로 312 1층,127.0292,37.60751
1436,vegan,투고샐러드 고려대,먹거리_식당,서울특별시 성북구,서울특별시 성북구 인촌로28길 5,127.0305,37.58601
1437,vegan,투고샐러드 성신여대,먹거리_식당,서울특별시 성북구,서울특별시 성북구 보문로34나길 3,127.0204,37.5915
1438,vegan,트라타,먹거리_식당,서울특별시 성북구,서울특별시 성북구 고려대로28길 14,127.0306249,37.5857194
1439,vegan,패밀리앤프렌즈,먹거리_카페_디저트,서울특별시 성북구,서울특별시 성북구 삼선교로14길 37,127.0104299,37.58654123
1440,vegan,강가 잠실,먹거리_식당,서울특별시 송파구,서울특별시 송파구 가락로 111,127.1027,37.51288
1441,vegan,걸구쟁이네 문정동점,먹거리_식당,서울특별시 송파구,서울특별시 송파구 가락로 111,127.10831,37.50166
1442,vegan,그리너 잠실점,먹거리_식당,서울특별시 송파구,서울특별시 송파구 가락로15길 7-1,127.1063,37.50156
1443,vegan,김말자 잠실역점,먹거리_식당,서울특별시 송파구,서울특별시 송파구 올림픽로 지하265,127.1001336,37.5132612
1444,vegan,나위,먹거리_식당,서울특별시 송파구,서울특별시 송파구 삼전로 90 금화빌딩 1층,127.0901,37.50633
1445,vegan,남경막국수 잠실,먹거리_식당,서울특별시 송파구,서울특별시 송파구 백제고분로7길 52-29,127.0851,37.50946
1446,vegan,도스타코스 송파,먹거리_식당,서울특별시 송파구,서울특별시 송파구 올림픽로 119,127.0842,37.51206
1447,vegan,로봇김밥 롯데월드,먹거리_식당,서울특별시 송파구,서울특별시 송파구 올림픽로 240,127.097,37.51125
1448,vegan,롯데리아 가든파이브,먹거리_식당,서울특별시 송파구,서울특별시 송파구 충민로 66 NC백화점 송파점 가든파이브라이프영관 B1,127.1237,37.47763
1449,vegan,롯데리아 롯데마트송파,먹거리_식당,서울특별시 송파구,서울특별시 송파구 중대로 80 GS마트,127.1178,37.49174
1450,vegan,롯데리아 롯데백잠실광장,먹거리_식당,서울특별시 송파구,서울특별시 송파구 올림픽로 240 지하 1층,127.097,37.51125
1451,vegan,롯데리아 롯데월드,먹거리_식당,서울특별시 송파구,서울특별시 송파구 올림픽로 240 1층 롯데월드 스포츠센타,127.097,37.51125
1452,vegan,롯데리아 마천,먹거리_식당,서울특별시 송파구,서울특별시 송파구 마천로 315 현대그린빌,127.1509,37.49514
1453,vegan,롯데리아 문정로데오,먹거리_식당,서울특별시 송파구,서울특별시 송파구 동남로 134 명노빌딩,127.1259,37.491
1454,vegan,롯데리아 방이역,먹거리_식당,서울특별시 송파구,서울특별시 송파구 마천로 23,127.1237,37.50976
1455,vegan,롯데리아 송파,먹거리_식당,서울특별시 송파구,서울특별시 송파구 가락로 16 파인힐빌딩,127.0984,37.49815
1456,vegan,롯데리아 송파삼전,먹거리_식당,서울특별시 송파구,서울특별시 송파구 백제고분로 254 유림빌딩,127.0945,37.50233
1457,vegan,롯데리아 송파하비오,먹거리_식당,서울특별시 송파구,"서울특별시 송파구 송파대로 111 205동 115,116,118호",127.1236,37.48049
1458,vegan,롯데리아 언더랜드,먹거리_식당,서울특별시 송파구,서울특별시 송파구 올림픽로 240 지하 1층 Y-39호,127.097,37.51125
1459,vegan,롯데리아 오금,먹거리_식당,서울특별시 송파구,서울특별시 송파구 동남로 313,127.138,37.50342
1460,vegan,롯데리아 잠실롯데월드몰B1,먹거리_식당,서울특별시 송파구,서울특별시 송파구 올림픽로 300 롯데월드몰 B1,127.1027,37.51288
1461,vegan,롯데리아 잠실새내,먹거리_식당,서울특별시 송파구,서울특별시 송파구 올림픽로 114,127.0832,37.51139
1462,vegan,롯데리아 잠실아이스링크,먹거리_식당,서울특별시 송파구,서울특별시 송파구 올림픽로 240,127.097,37.51125
1463,vegan,롯데리아 캐슬플라자,먹거리_식당,서울특별시 송파구,서울특별시 송파구 올림픽로 269 롯데캐스잠실점 지하 1층,127.1011,37.5142
1464,vegan,롯데리아 키자니아,먹거리_식당,서울특별시 송파구,서울특별시 송파구 올림픽로 240 2층,127.097,37.51125
1465,vegan,맛집 보울,먹거리_식당,서울특별시 송파구,서울특별시 송파구 올림픽로 240,127.0920358,37.5358625
1466,vegan,모던파머스,먹거리_식당,서울특별시 송파구,서울특별시 송파구 올림픽로35가길 11,127.1041,37.51627
1467,vegan,바토스 잠실점,먹거리_식당,서울특별시 송파구,서울특별시 송파구 올림픽로 240,127.0980274,37.5112348
1468,vegan,베르베르,먹거리_식당,서울특별시 송파구,서울특별시 송파구 오금로18길 14,127.1103,37.50977
1469,vegan,본죽 개롱역,먹거리_식당,서울특별시 송파구,서울특별시 송파구 오금로 414,127.1359,37.49722
1470,vegan,본죽 거여동,먹거리_식당,서울특별시 송파구,서울특별시 송파구 오금로 508,127.145,37.49287
1471,vegan,본죽 마천동,먹거리_식당,서울특별시 송파구,서울특별시 송파구 성내천로 236,127.1536,37.49892
1472,vegan,본죽 문정로데오,먹거리_식당,서울특별시 송파구,서울특별시 송파구 동남로6길 3,127.1242,37.48991
1473,vegan,본죽 방이시장,먹거리_식당,서울특별시 송파구,서울특별시 송파구 백제고분로48길 12,127.1145,37.51132
1474,vegan,본죽 방이역,먹거리_식당,서울특별시 송파구,서울특별시 송파구 마천로 28,127.1239,37.50937
1475,vegan,본죽 삼전동,먹거리_식당,서울특별시 송파구,서울특별시 송파구 백제고분로 202,127.089,37.50382
1476,vegan,본죽 송파,먹거리_식당,서울특별시 송파구,서울특별시 송파구 가락로 176,127.1146,37.50422
1477,vegan,본죽 송파가락,먹거리_식당,서울특별시 송파구,서울특별시 송파구 송파대로30길 16,127.1191,37.49451
1478,vegan,본죽 송파석촌,먹거리_식당,서울특별시 송파구,서울특별시 송파구 송파대로 451,127.1055,37.50655
1479,vegan,본죽 송파엄마손,먹거리_식당,서울특별시 송파구,서울특별시 송파구 가락로 113,127.1087,37.50168
1480,vegan,본죽 송파위례중앙,먹거리_식당,서울특별시 송파구,서울특별시 송파구 위례광장로 136,127.1421,37.47636
1481,vegan,본죽 신천,먹거리_식당,서울특별시 송파구,서울특별시 송파구 올림픽로 119,127.0842,37.51206
1482,vegan,본죽 오금,먹거리_식당,서울특별시 송파구,서울특별시 송파구 중대로23길 20,127.1258,37.50257
1483,vegan,본죽 올림픽,먹거리_식당,서울특별시 송파구,서울특별시 송파구 양재대로 1222,127.1321,37.51549
1484,vegan,본죽 잠실나루역,먹거리_식당,서울특별시 송파구,서울특별시 송파구 올림픽로 435,127.1093,37.52118
1485,vegan,본죽 풍납동,먹거리_식당,서울특별시 송파구,서울특별시 송파구 토성로 52,127.1157,37.52925
1486,vegan,본죽&비빔밥cafe 잠실,먹거리_식당,서울특별시 송파구,서울특별시 송파구 올림픽로35길 112,127.1016,37.51779
1487,vegan,본죽&비빔밥cafe 잠실레이크팰리스,먹거리_식당,서울특별시 송파구,서울특별시 송파구 석촌호수로 138,127.0923,37.50706
1488,vegan,본죽&비빔밥cafe 장지파인타운,먹거리_식당,서울특별시 송파구,서울특별시 송파구 충민로2길 24,127.1273,37.47764
1489,vegan,뺑드빱바,먹거리_카페_디저트,서울특별시 송파구,서울특별시 송파구 송파대로 111,127.1236662,37.48060476
1490,vegan,샐러드 보투아,먹거리_식당,서울특별시 송파구,서울특별시 송파구 석촌호수로 140 ,127.0925,37.50702
1491,vegan,샐러디 문정엠스테이트,먹거리_식당,서울특별시 송파구,서울특별시 송파구 법원로 114,127.121,37.48576
1492,vegan,샐러디치오도씨,먹거리_식당,서울특별시 송파구,서울특별시 송파구 송파대로48길 7,127.1053,37.50875
1493,zero,샘크래프트,생활용품,서울특별시 송파구,서울특별시 송파구 삼전로4길 3-11,127.0871981,37.5026832
1494,vegan,스무디킹 롯데월드몰,먹거리_식당,서울특별시 송파구,서울특별시 송파구 올림픽로 300 롯데월드몰 B1,127.1027,37.51288
1495,vegan,스윗솔키친,먹거리_식당,서울특별시 송파구,서울특별시 송파구 올림픽로10길 47 2층,127.08173,37.50742
1496,vegan,씨젬므쥬르,먹거리_식당,서울특별시 송파구,서울특별시 송파구 백제고분로41길 25,127.1068963,37.50801866
1497,zero,아름다운가게 송파가락점,생활용품,서울특별시 송파구,서울특별시 송파구 중대로 127,127.1221054,37.49460183
1498,zero,아름다운가게 송파가락점,생활용품,서울특별시 송파구,서울특별시 송파구 중대로127 1층 아름다운가게,127.121904,37.4948129
1499,zero,아름다운가게 송파점,생활용품,서울특별시 송파구,서울특별시 송파구 가락로 164,127.113529,37.50336455
1500,vegan,열매정원,먹거리_식당,서울특별시 송파구,서울특별시 송파구 석촌호수로 135 상가a동 2층 208호,127.0924,37.50757
1501,vegan,온더보더 롯데월드몰,먹거리_식당,서울특별시 송파구,서울특별시 송파구 올림픽로 300,127.1027,37.51288
1502,zero,올가 방이점,생활용품,서울특별시 송파구,서울특별시 송파구 양재대로71길 4,127.1263,37.51043
1503,vegan,외계인방앗간 문정점,먹거리_카페_디저트,서울특별시 송파구,서울특별시 송파구 송파대로 111 114호,127.12347,37.48047
1504,vegan,인딕슬로우 송파,먹거리_식당,서울특별시 송파구,서울특별시 송파구 백제고분로45길 28 벤도치빌딩2층,127.1087,37.51037
1505,vegan,제로비건,먹거리_식당,서울특별시 송파구,서울특별시 송파구 올림픽로 240,127.0979368,37.51128572
1506,vegan,죠샌드위치 문정법조타운,먹거리_식당,서울특별시 송파구,서울특별시 송파구 법원로11길 25 H비지니스파크 A-117호,127.1166,37.48507
1507,vegan,죠샌드위치 잠실엘스,먹거리_식당,서울특별시 송파구,서울특별시 송파구 올림픽로 119 잠실파인애플상가,127.0842,37.51206
1508,vegan,카페마마스 잠실점,먹거리_카페_디저트,서울특별시 송파구,서울특별시 송파구 올림픽로 269,127.1006103,37.51442618
1509,vegan,코코루시아,먹거리_식당,서울특별시 송파구,서울특별시 송파구 마천로 24,127.1236,37.50948
1510,vegan,퀴즈노스 가락,먹거리_식당,서울특별시 송파구,서울특별시 송파구 송파대로28길 27 102-105,127.12,37.49478
1511,vegan,퀴즈노스 롯데월드,먹거리_식당,서울특별시 송파구,서울특별시 송파구 올림픽로 240 2층 후렌치레볼루션앞,127.097,37.51125
1512,vegan,퀴즈노스 문정법조타운,먹거리_식당,서울특별시 송파구,서울특별시 송파구 법원로11길 11 A동 131호,127.1183,37.48502
1513,vegan,퀴즈노스 송파방이,먹거리_식당,서울특별시 송파구,서울특별시 송파구 오금로11길 6,127.108,37.51424
1514,vegan,퀴즈노스 위례,먹거리_식당,서울특별시 송파구,서울특별시 송파구 위례광장로 136,127.1421,37.47636
1515,vegan,퀴즈노스 잠실,먹거리_식당,서울특별시 송파구,서울특별시 송파구 올림픽로 269,127.1011,37.5142
1516,vegan,포켓파크,먹거리_식당,서울특별시 송파구,서울특별시 송파구 법원로11길 11 B동 146호,127.1183,37.48502
1517,vegan,풍납동 미도리,먹거리_식당,서울특별시 송파구,서울특별시 송파구 천호대로152길 13 성신빌라,127.1218,37.53764
1518,vegan,피피샐러드,먹거리_식당,서울특별시 송파구,서울특별시 송파구 송파대로49길 50,127.0994,37.50627
1519,vegan,김말자 목동역점,먹거리_식당,서울특별시 양천구,서울특별시 양천구 오목로 지하245,126.8654311,37.52606
1520,vegan,다온메밀막국수,먹거리_식당,서울특별시 양천구,서울특별시 양천구 오목로50길 8,126.8637,37.52529
1521,vegan,닥터로빈 목동점,먹거리_식당,서울특별시 양천구,서울특별시 양천구 오목로 299,126.8700157,37.52557895
1522,vegan,롯데리아 목동,먹거리_식당,서울특별시 양천구,서울특별시 양천구 신목로 72,126.8738,37.52127
1523,vegan,롯데리아 목동사거리,먹거리_식당,서울특별시 양천구,서울특별시 양천구 등촌로 28,126.864,37.53257
1524,vegan,롯데리아 목동킴스클럽,먹거리_식당,서울특별시 양천구,서울특별시 양천구 목동동로 309,126.876,37.52917
1525,vegan,롯데리아 목동행복한백화점,먹거리_식당,서울특별시 양천구,서울특별시 양천구 목동동로 309,126.876,37.52917
1526,vegan,롯데리아 신곡시장,먹거리_식당,서울특별시 양천구,서울특별시 양천구 신월로 164,126.842,37.51775
1527,vegan,롯데리아 신정네거리,먹거리_식당,서울특별시 양천구,서울특별시 양천구 중앙로 277,126.8523,37.52093
1528,vegan,모모메이드,먹거리_식당,서울특별시 양천구,서울특별시 양천구 목동로9길 12,126.8632,37.52295
1529,zero,아름다운가게 목동점,생활용품,서울특별시 양천구,서울특별시 양천구 목동동로 411,126.8821163,37.53681271
1530,vegan,외계인방앗간 목동점,먹거리_카페_디저트,서울특별시 양천구,서울특별시 양천구 목동동로12길 20,126.8732479,37.5226416
1531,vegan,잇파스타,먹거리_식당,서울특별시 양천구,서울특별시 양천구 은행정로3길 3-1,126.8594,37.52081
1532,zero,지구살림터,생활용품,서울특별시 양천구,서울특별시 양천구 목동중앙북로16길 41 1층,126.874,37.54432
1533,vegan,퀴즈노스 목동오목교,먹거리_식당,서울특별시 양천구,서울특별시 양천구 오목로 300 205동 1층 123호,126.8705,37.52436
1534,vegan,타코벳,먹거리_식당,서울특별시 양천구,서울특별시 양천구 신목로2길 68,126.8708062,37.5246201
1535,vegan,강가 여의도,먹거리_식당,서울특별시 영등포구,서울특별시 영등포구 국제금융로2길 7,126.9268,37.52465
1536,zero,곁애,먹거리_카페_디저트,서울특별시 영등포구,서울특별시 영등포구 영등포로 420-6  ,126.9243,37.51248
1537,zero,공간1616,생활용품,서울특별시 영등포구,서울특별시 영등포구 당산로16길 16 1층,126.8977,37.52245
1538,vegan,그리너리 샐러드,먹거리_식당,서울특별시 영등포구,서울특별시 영등포구 은행로 29,126.9219,37.52909
1539,zero,그린히어로,먹거리_카페_디저트,서울특별시 영등포구,서울특별시 영등포구 영등포로27길 13,126.899086,37.5222205
1540,vegan,김말자 신길역점,먹거리_식당,서울특별시 영등포구,서울특별시 영등포구 영등포로 327,126.9176888,37.5169425
1541,vegan,닥터로빈 메리어트파크센터,먹거리_식당,서울특별시 영등포구,서울특별시 영등포구 여의대로 8 1층 105호,126.9185,37.52138
1542,vegan,닥터로빈 신세계타임스퀘어점,먹거리_식당,서울특별시 영등포구,서울특별시 영등포구 영중로 15,126.9040099,37.51740333
1543,vegan,닥터로빈 여의도부국점,먹거리_식당,서울특별시 영등포구,서울특별시 영등포구 국제금융로6길 17,126.9281491,37.521839
1544,vegan,닥터로빈 여의도파크센터점,먹거리_식당,서울특별시 영등포구,서울특별시 영등포구 여의대로 8,126.9184051,37.5214957
1545,zero,당산분식,먹거리_식당,서울특별시 영등포구,서울특별시 영등포구 당산로28길 9,126.8974778,37.5247802
1546,zero_vegan,두더지손가게,먹거리_카페_디저트,서울특별시 영등포구,서울특별시 영등포구 당산로52길 31-1 1층,126.905135,37.5332448
1547,vegan,두란 롯데백화점 영등포,먹거리_식당,서울특별시 영등포구,서울특별시 영등포구 경인로 846,126.908,37.51587
1548,vegan,두르가 여의도,먹거리_식당,서울특별시 영등포구,서울특별시 영등포구 국제금융로2길 37,126.9243,37.52296
1549,vegan,롯데리아 대림역,먹거리_식당,서울특별시 영등포구,서울특별시 영등포구 도림로 148 대림빌딩,126.8981,37.49339
1550,vegan,롯데리아 대방역,먹거리_식당,서울특별시 영등포구,서울특별시 영등포구 영등포로 416,126.9242,37.51264
1551,vegan,롯데리아 롯데마트서울양평,먹거리_식당,서울특별시 영등포구,서울특별시 영등포구 선유로 138,126.8916,37.52607
1552,vegan,롯데리아 여의도선착장,먹거리_식당,서울특별시 영등포구,서울특별시 영등포구 여의동로 280,126.939,37.52496
1553,vegan,롯데리아 영등포롯데,먹거리_식당,서울특별시 영등포구,서울특별시 영등포구 경인로 846 롯데백화점 영등포점 지하1층,126.908,37.51587
1554,vegan,롯데리아 영등포역,먹거리_식당,서울특별시 영등포구,서울특별시 영등포구 경인로 846 롯데백화점 영등포점 3층,126.908,37.51587
1555,vegan,롯데리아 영등포타임스퀘어B2,먹거리_식당,서울특별시 영등포구,서울특별시 영등포구 영중로 15 타임스퀘어 B2 B209,126.9037,37.51724
1556,vegan,롯데리아 홈플러스영등포,먹거리_식당,서울특별시 영등포구,서울특별시 영등포구 당산로 42,126.8959,37.51824
1557,vegan,본도시락 영등포문래,먹거리_식당,서울특별시 영등포구,서울특별시 영등포구 선유로13길 25,126.8863,37.51898
1558,vegan,본죽 신길,먹거리_식당,서울특별시 영등포구,서울특별시 영등포구 도신로 227,126.9163,37.51215
1559,vegan,본죽 신길사러가쇼핑,먹거리_식당,서울특별시 영등포구,서울특별시 영등포구 신길로 155,126.9104,37.50614
1560,vegan,본죽 신길성애병원옆,먹거리_식당,서울특별시 영등포구,서울특별시 영등포구 영등포로84길 12,126.9218,37.51232
1561,vegan,본죽 신풍역,먹거리_식당,서울특별시 영등포구,서울특별시 영등포구 신풍로 77,126.9136,37.50096
1562,vegan,본죽 여의도KBS,먹거리_식당,서울특별시 영등포구,서울특별시 영등포구 의사당대로 38,126.9193,37.52547
1563,vegan,본죽 영등포로터리,먹거리_식당,서울특별시 영등포구,서울특별시 영등포구 영등포로 195-1,126.9033,37.52049
1564,vegan,본죽 영등포역,먹거리_식당,서울특별시 영등포구,서울특별시 영등포구 영신로19길 30-3,126.9048,37.51353
1565,vegan,본죽&비빔밥cafe 여의도역,먹거리_식당,서울특별시 영등포구,서울특별시 영등포구 여의나루로 42,126.925,37.52147
1566,zero_vegan,브레드워커,먹거리_카페_디저트,서울특별시 영등포구,서울특별시 영등포구 국회대로29길 14 1층,126.897142,37.5292736
1567,vegan,브레드피트,먹거리_식당,서울특별시 영등포구,서울특별시 영등포구 국제금융로 86 롯데캐슬 아이비,126.932,37.51999
1568,vegan,비터스윗,먹거리_식당,서울특별시 영등포구,서울특별시 영등포구 영등포로 397-1,126.9225,37.51354
1569,vegan,샐러디 당산역,먹거리_식당,서울특별시 영등포구,서울특별시 영등포구 당산로 214,126.9031,37.53185
1570,vegan,샐러디 롯데마트서울양평,먹거리_식당,서울특별시 영등포구,서울특별시 영등포구 선유로 138,126.8916,37.52607
1571,vegan,샐러디 문래동,먹거리_식당,서울특별시 영등포구,서울특별시 영등포구 문래로 84,126.8912,37.51944
1572,vegan,샐러디 선유도역,먹거리_식당,서울특별시 영등포구,서울특별시 영등포구 양평로21길 3,126.8938,37.53741
1573,vegan,스무디킹 영등포타임스퀘어,먹거리_식당,서울특별시 영등포구,서울특별시 영등포구 영중로 15 타임스퀘어 4층,126.9037,37.51724
1574,vegan,신동양반점,먹거리_식당,서울특별시 영등포구,서울특별시 영등포구 여의나루로 42,126.925102,37.52136499
1575,zero,아름다운가게 영등포점,생활용품,서울특별시 영등포구,서울특별시 영등포구 영중로 지하 40,126.904872,37.51993405
1576,vegan,아승지,먹거리_식당,서울특별시 영등포구,서울특별시 영등포구 신길로 176,126.9112487,37.50783961
1577,vegan,에베레스트 영등포,먹거리_식당,서울특별시 영등포구,서울특별시 영등포구 경인로 838-1,126.9061,37.51597
1578,zero,에코스토어 더현대 서울특별시,생활용품,서울특별시 영등포구,서울특별시 영등포구 여의대로 108,126.9281,37.52621
1579,vegan,온더보더 여의도IFC,먹거리_식당,서울특별시 영등포구,서울특별시 영등포구 국제금융로 10,126.9257,37.5253
1580,vegan,온더보더 타임스퀘어,먹거리_식당,서울특별시 영등포구,서울특별시 영등포구 영중로 15,126.9037,37.51724
1581,vegan,외계인방앗간 영등포아크로점,먹거리_카페_디저트,서울특별시 영등포구,서울특별시 영등포구 국회대로54길 10 9동 3호,126.9064302,37.52365869
1582,vegan,운봉에덴식당 영등포점,먹거리_식당,서울특별시 영등포구,서울특별시 영등포구 의사당대로 127,126.9263986,37.5201371
1583,vegan,죠샌드위치 문래GS홈쇼핑,먹거리_식당,서울특별시 영등포구,서울특별시 영등포구 선유로 71 문래임광그대가,126.8891,37.51973
1584,vegan,차호로록,먹거리_식당,서울특별시 영등포구,서울특별시 영등포구 국회대로36길 3,126.8983,37.52702
1585,vegan,카페마마스 여의도점,먹거리_카페_디저트,서울특별시 영등포구,서울특별시 영등포구 국회대로 780,126.9190829,37.52967997
1586,vegan,카페마마스 여의도IFC몰점,먹거리_카페_디저트,서울특별시 영등포구,서울특별시 영등포구 국제금융로 10,126.9259581,37.52507766
1587,vegan,카페마마스 타임스퀘어점,먹거리_카페_디저트,서울특별시 영등포구,서울특별시 영등포구 영중로 15,126.9037057,37.51730037
1588,vegan,카페모닝,먹거리_식당,서울특별시 영등포구,서울특별시 영등포구 선유로 76 동국메뜨리앙,126.8899,37.52065
1589,vegan,퀴즈노스 LG트윈,먹거리_식당,서울특별시 영등포구,서울특별시 영등포구 여의대로 128 지하1층,126.929,37.5278
1590,vegan,투고샐러드 동여의도점,먹거리_식당,서울특별시 영등포구,서울특별시 영등포구 국제금융로 86,126.9318,37.52020612
1591,zero,하우스디비즈,생활용품,서울특별시 영등포구,서울특별시 영등포구 선유로3길 10,126.8868,37.5161
1592,vegan,갯마을칼국수,먹거리_식당,서울특별시 용산구,서울특별시 용산구 청파로45길 33,126.9688,37.54443
1593,vegan,건강한식당,먹거리_식당,서울특별시 용산구,서울특별시 용산구 만리재로 196,126.9679,37.55477
1594,vegan,그랜드하얏트 서울특별시 호텔,먹거리_카페_디저트,서울특별시 용산구,서울특별시 용산구 소월로 322,126.9972683,37.5393346
1595,vegan,그릴도하,먹거리_식당,서울특별시 용산구,서울특별시 용산구 이태원로 268 2층,127.0018,37.53834
1596,vegan,김말자 서울역점,먹거리_식당,서울특별시 용산구,서울특별시 용산구 한강대로 405,126.9704658,37.5490645
1597,vegan,꼬망김밥 서울역,먹거리_식당,서울특별시 용산구,서울특별시 용산구 한강대로 405,126.9717,37.55484
1598,vegan,꿀밤,먹거리_식당,서울특별시 용산구,서울특별시 용산구 우사단로14길 3 2층,126.9959,37.53411
1599,vegan,꿈꾸는메밀 아이파크몰점,먹거리_식당,서울특별시 용산구,서울특별시 용산구 한강로 한강대로23길 동 55 용산아이파크몰 동관7층,126.96442,37.53023
1600,vegan,다방구,먹거리_식당,서울특별시 용산구,서울특별시 용산구 원효로1가 43-18,126.9693577,37.5392975
1601,vegan,더로열푸드앤드링크,먹거리_식당,서울특별시 용산구,서울특별시 용산구 신흥로20길 37,126.9839,37.5472
1602,vegan,더베이커스테이블,먹거리_카페_디저트,서울특별시 용산구,서울특별시 용산구 녹사평대로 244-1,126.987404,37.53943
1603,vegan,도스타코스 한남,먹거리_식당,서울특별시 용산구,서울특별시 용산구 한남대로18길 26,127.0087,37.53455
1604,vegan,두화당 남영,먹거리_식당,서울특별시 용산구,서울특별시 용산구 백범로87길 25,126.9683,37.53867
1605,vegan,드도트,먹거리_식당,서울특별시 용산구,서울특별시 용산구 신흥로2길 78,126.9881,37.5432
1606,vegan,또와또,먹거리_식당,서울특별시 용산구,서울특별시 용산구 청파로47길 59,126.9671,37.54472
1607,vegan,라페름,먹거리_식당,서울특별시 용산구,서울특별시 용산구 이태원로54길 32,127.0017,37.53702
1608,vegan,로푸드랩,먹거리_식당,서울특별시 용산구,서울특별시 용산구 백범로47길 6,126.9584956,37.5407088
1609,vegan,롯데리아 보광,먹거리_식당,서울특별시 용산구,서울특별시 용산구 보광로 24,127.0007,37.52664
1610,vegan,롯데리아 서울역광장,먹거리_식당,서울특별시 용산구,서울특별시 용산구 한강대로 405,126.9717,37.55484
1611,vegan,롯데리아 숙대입구역,먹거리_식당,서울특별시 용산구,서울특별시 용산구 한강대로 283 ,126.9719,37.54341
1612,vegan,롯데리아 용산역사,먹거리_식당,서울특별시 용산구,서울특별시 용산구 한강대로23길 55 용산민자역사,126.9646,37.52963
1613,vegan,롯데리아 후암,먹거리_식당,서울특별시 용산구,서울특별시 용산구 후암로 54,126.9774,37.55071
1614,vegan,멜리에노,먹거리_카페_디저트,서울특별시 용산구,서울특별시 용산구 녹사평대로54길 6,126.98762,37.53937
1615,vegan,모로코코 카페,먹거리_식당,서울특별시 용산구,서울특별시 용산구 신흥로 34,126.9873,37.5414
1616,vegan,몽크스부처,먹거리_식당,서울특별시 용산구,서울특별시 용산구 이태원로 228-1,126.9992,37.53544
1617,vegan,미니마이즈,먹거리_식당,서울특별시 용산구,서울특별시 용산구 독서당로 65-1 지하1층,127.0078,37.53385
1618,vegan,미스터 케밥,먹거리_식당,서울특별시 용산구,서울특별시 용산구 이태원로 192,126.9953,37.53429
1619,vegan,바이두부,먹거리_카페_디저트,서울특별시 용산구,서울특별시 용산구 소월로20길 10,126.9851875,37.54608424
1620,vegan,바토스 이태원점,먹거리_식당,서울특별시 용산구,서울특별시 용산구 이태원로15길 1,126.9902157,37.534568
1621,vegan,반미리 이태원반미점,먹거리_식당,서울특별시 용산구,서울특별시 용산구 신흥로 54,126.9878,37.54302
1622,vegan,반미리 이태원쌀국수점,먹거리_식당,서울특별시 용산구,서울특별시 용산구 신흥로 34,126.9873,37.5414
1623,vegan,베베론,먹거리_식당,서울특별시 용산구,서울특별시 용산구 원효로1가 133-3,126.9676185,37.5380677
1624,vegan,베이커스필드,먹거리_카페_디저트,서울특별시 용산구,서울특별시 용산구 이촌로 303,126.9810099,37.5180535
1625,vegan,베제투스,먹거리_식당,서울특별시 용산구,서울특별시 용산구 신흥로 59,126.9872548,37.54371008
1626,vegan,본죽 숙대입구역,먹거리_식당,서울특별시 용산구,서울특별시 용산구 청파로45길 36,126.9686,37.54465
1627,vegan,본죽 용문동,먹거리_식당,서울특별시 용산구,서울특별시 용산구 새창로 110,126.96,37.53764
1628,vegan,본죽 한남순천향병원,먹거리_식당,서울특별시 용산구,서울특별시 용산구 대사관로 63,127.0053,37.53348
1629,vegan,브릭오븐,먹거리_식당,서울특별시 용산구,서울특별시 용산구 이태원로 197,126.9958938,37.534793
1630,vegan,비글루,먹거리_식당,서울특별시 용산구,서울특별시 용산구 한강대로 276-2 2층,126.9729,37.54301
1631,vegan,비스코티앤파이,먹거리_식당,서울특별시 용산구,서울특별시 용산구 후암로 73,126.9766,37.55238
1632,vegan,빠르크,먹거리_식당,서울특별시 용산구,서울특별시 용산구 이태원로55가길 26-5,126.9995902,37.537489
1633,vegan,빠르크,먹거리_식당,서울특별시 용산구,서울특별시 용산구 한강대로 100 아모레퍼시픽 지하1층,126.9682985,37.5293642
1634,vegan,사우스사이드팔러,먹거리_식당,서울특별시 용산구,서울특별시 용산구 녹사평대로 218,126.9871,37.53713
1635,vegan,샐러디 숙명여대,먹거리_식당,서울특별시 용산구,서울특별시 용산구 청파로47길 67,126.9666,37.54483
1636,vegan,샐러디 신용산,먹거리_식당,서울특별시 용산구,서울특별시 용산구 한강대로 95 지하1층 B124호,126.9668,37.52897
1637,zero,서스테이너블해빗,먹거리_카페_디저트,서울특별시 용산구,서울특별시 용산구 소월로2길 5 1층  ,126.9768,37.55478
1638,vegan,소식,먹거리_식당,서울특별시 용산구,서울특별시 용산구 신흥로 57,126.9873415,37.54353863
1639,vegan,술탄 케밥,먹거리_식당,서울특별시 용산구,서울특별시 용산구 보광로 126,126.9942,37.53403
1640,vegan,스무디킹 서울역사,먹거리_식당,서울특별시 용산구,서울특별시 용산구 한강대로 405 1층,126.9717,37.55484
1641,vegan,스윗밸런스 신용산,먹거리_식당,서울특별시 용산구,서울특별시 용산구 한강대로 95,126.9668,37.52897
1642,vegan,스프라우트,먹거리_식당,서울특별시 용산구,서울특별시 용산구 이태원로14길 21 1층,126.9898,37.54097
1643,vegan,써니브레드,먹거리_카페_디저트,서울특별시 용산구,서울특별시 용산구 우사단로14길 33,126.9974272,37.53444963
1644,vegan,써니브레드,먹거리_카페_디저트,서울특별시 용산구,서울특별시 용산구 우사단로14길 33,126.9974084,37.5343997
1645,vegan,쏭타이 이태원점,먹거리_식당,서울특별시 용산구,서울특별시 용산구 이태원로20가길 7-2,126.9926816,37.53372827
1646,vegan,아그라 이태원,먹거리_식당,서울특별시 용산구,서울특별시 용산구 이태원로 153,126.991,37.5346
1647,vegan,아날로그 소사이어티 키친,먹거리_식당,서울특별시 용산구,서울특별시 용산구 우사단로2길 19,126.9979,37.53061
1648,vegan,아담스타코,먹거리_식당,서울특별시 용산구,서울특별시 용산구 신흥로 44 1층 2호,126.9875,37.54212
1649,zero,아름다운가게 숙대입구역점,생활용품,서울특별시 용산구,서울특별시 용산구 한강대로 278-1,126.9728519,37.54311776
1650,vegan,엔와이84.8,먹거리_식당,서울특별시 용산구,서울특별시 용산구 한강대로 268,126.9731,37.54221
1651,vegan,오월의종,먹거리_카페_디저트,서울특별시 용산구,서울특별시 용산구 이태원로 229,126.9990835,37.53578674
1652,vegan,온더보더 이태원,먹거리_식당,서울특별시 용산구,서울특별시 용산구 이태원로 211,126.9973,37.53499
1653,vegan,왓어샐러드,먹거리_식당,서울특별시 용산구,서울특별시 용산구 보광로59길 31,126.9921996,37.5337794
1654,vegan,왕타이,먹거리_식당,서울특별시 용산구,서울특별시 용산구 이태원로 151,126.9907,37.53449
1655,vegan,외계인방앗간 원효점,먹거리_카페_디저트,서울특별시 용산구,서울특별시 용산구 백범로90길 90,126.9688942,37.5376995
1656,vegan,이드,먹거리_식당,서울특별시 용산구,서울특별시 용산구 우사단로10길 67,126.9992,37.53238
1657,vegan,이웃집 영준이,먹거리_식당,서울특별시 용산구,서울특별시 용산구 한강대로87길 7-6,126.9715,37.54397
1658,vegan,찬스브로스,먹거리_카페_디저트,서울특별시 용산구,서울특별시 용산구 녹사평대로 222-1,126.9869559,37.5375045
1659,vegan,카사블랑카,먹거리_식당,서울특별시 용산구,서울특별시 용산구 용산2가동 신흥로 35,126.9871098,37.5416087
1660,vegan,카페 시바,먹거리_식당,서울특별시 용산구,서울특별시 용산구 한강대로 276-1,126.9728,37.54296
1661,vegan,카페마마스 용산아이파크몰점,먹거리_카페_디저트,서울특별시 용산구,서울특별시 용산구 한강대로23길 55,126.9645441,37.52886173
1662,vegan,타코아미고,먹거리_식당,서울특별시 용산구,서울특별시 용산구 보광로 123,126.9939945,37.53371068
1663,zero,트래쉬버스터즈,기타,서울특별시 용산구,서울특별시 용산구 회나무로13길 14-8,126.9900072,37.5399613
1664,vegan,트레비아 2호점,먹거리_식당,서울특별시 용산구,서울특별시 용산구 이태원로15길 1,126.9869695,37.5373163
1665,vegan,팻캣,먹거리_식당,서울특별시 용산구,서울특별시 용산구 신흥로2길 46,126.9877007,37.541752
1666,vegan,페트라,먹거리_식당,서울특별시 용산구,서울특별시 용산구 녹사평대로40길 33,126.9877,37.53464
1667,vegan,플랜트,먹거리_카페_디저트,서울특별시 용산구,서울특별시 용산구 보광로 117 2층,126.9942144,37.53315856
1668,vegan,플랜트 베이커리,먹거리_카페_디저트,서울특별시 용산구,서울특별시 용산구 이태원로16길 20,126.9913909,37.5333923
1669,vegan,한국술집 안씨막걸리,먹거리_식당,서울특별시 용산구,서울특별시 용산구 회나무로 3,126.9873,37.53855
1670,vegan,할랄가이즈 이태원,먹거리_식당,서울특별시 용산구,서울특별시 용산구 이태원로 187,126.9948,37.53472
1671,vegan,해방식당,먹거리_식당,서울특별시 용산구,서울특별시 용산구 신흥로22길 5,126.9846,37.54567
1672,vegan,MTL 효창,먹거리_식당,서울특별시 용산구,서울특별시 용산구 효창원로69길 25 1층 mtl,126.9609,37.54202
1673,vegan,PALETTE BE,먹거리_식당,서울특별시 용산구,서울특별시 용산구 원효로1가 43-25,126.9692598,37.5392552
1674,vegan,경복궁 우동냉면,먹거리_식당,서울특별시 은평구,서울특별시 은평구 진관3로 33,126.9199,37.63974
1675,vegan,고향식당,먹거리_식당,서울특별시 은평구,서울특별시 은평구 통일로 683,126.9325545,37.6071012
1676,vegan,고향칼국수,먹거리_식당,서울특별시 은평구,서울특별시 은평구 진흥로1길 29,126.9184,37.60308
1677,vegan,김말자 연신내역점,먹거리_식당,서울특별시 은평구,서울특별시 은평구 통일로 지하849,126.920832,37.6188881
1678,vegan,까볼로 연신내,먹거리_식당,서울특별시 은평구,서울특별시 은평구 연서로27길 16-14,126.9183,37.61864
1679,zero_vegan,꿈꾸는고래,먹거리_카페_디저트,서울특별시 은평구,서울특별시 은평구 갈현로9길 5-16,126.909585,37.6043274
1680,vegan,나무선인장,먹거리_식당,서울특별시 은평구,서울특별시 은평구 통일로83길 23,126.9173,37.62062
1681,vegan,놉스,먹거리_카페_디저트,서울특별시 은평구,"서울특별시 은평구 연서로 455, 541동 1층 상가",126.93326,37.63638
1682,vegan,달냥,먹거리_식당,서울특별시 은평구,서울특별시 은평구 통일로 684 서울혁신파크 상상청 1층,126.93375,37.60852
1683,vegan,롯데리아 구산역,먹거리_식당,서울특별시 은평구,서울특별시 은평구 연서로 130,126.9173,37.61031
1684,vegan,롯데리아 구파발역,먹거리_식당,서울특별시 은평구,서울특별시 은평구 진관2로 15-40 구파발역 복합환승센터 1층,126.9192,37.63807
1685,vegan,롯데리아 녹번,먹거리_식당,서울특별시 은평구,서울특별시 은평구 은평로 206,126.9306,37.60109
1686,vegan,롯데리아 불광,먹거리_식당,서울특별시 은평구,서울특별시 은평구 통일로 741 이연빌딩,126.9286,37.61143
1687,vegan,롯데리아 응암,먹거리_식당,서울특별시 은평구,서울특별시 은평구 은평로 136 은경빌딩,126.923,37.60027
1688,vegan,롯데리아 응암오거리,먹거리_식당,서울특별시 은평구,서울특별시 은평구 응암로 177,126.9164,37.58792
1689,vegan,본죽 녹번,먹거리_식당,서울특별시 은평구,서울특별시 은평구 은평로 225,126.9328,37.60131
1690,vegan,불티나 이모네전,먹거리_식당,서울특별시 은평구,서울특별시 은평구 응암로4길 24 1층 3호,126.9174,37.58697
1691,vegan,스무디킹 롯데몰은평,먹거리_식당,서울특별시 은평구,서울특별시 은평구 통일로 1050 롯데몰 2층,126.9505,37.65363
1692,zero,아름다운가게 연신내점,생활용품,서울특별시 은평구,서울특별시 은평구 연서로 253-9,126.9228894,37.62015227
1693,zero,아름다운가게 은평구청점,생활용품,서울특별시 은평구,서울특별시 은평구 은평로 185,126.9282828,37.60182595
1694,vegan,아름분식,먹거리_식당,서울특별시 은평구,서울특별시 은평구 통일로61길 5,126.9324842,37.6065536
1695,vegan,악어,먹거리_식당,서울특별시 은평구,서울특별시 은평구 갈현로 7,126.921029,37.548633
1696,zero,없는가게 쓸,기타,서울특별시 은평구,서울특별시 은평구 통일로 684  ,126.934,37.60855
1697,vegan,온순씨,먹거리_식당,서울특별시 은평구,서울특별시 은평구 증산로15가길 16,126.911901,37.5902918
1698,vegan,외계인방앗간 은평뉴타운점,먹거리_카페_디저트,서울특별시 은평구,서울특별시 은평구 진관2로 19 휴먼프라자 104호,126.9190916,37.6346659
1699,vegan,원슈가데이,먹거리_카페_디저트,서울특별시 은평구,서울특별시 은평구 연서로 455,126.9327606,37.63634921
1700,vegan,잇츠 파스타,먹거리_식당,서울특별시 은평구,서울특별시 은평구 은평로 193 1층 103호,126.9291,37.60176
1701,vegan,전환마을부엌밥풀꽃,먹거리_식당,서울특별시 은평구,서울특별시 은평구 연서로15길 8,126.916101,37.61070483
1702,zero_vegan,창문카페별꼴,먹거리_식당,서울특별시 은평구,서울특별시 은평구 통일로 684 1동 1층,126.933778,37.608608
1703,vegan,채식한끼 베이커리,먹거리_카페_디저트,서울특별시 은평구,서울특별시 은평구 통일로 684 서울혁신파크 청년청 1층,126.9339538,37.6087665
1704,zero_vegan,카페 트랜스,먹거리_카페_디저트,서울특별시 은평구,서울특별시 은평구 녹번동 통일로61길 4 1층,126.932606,37.6067307
1705,vegan,캘리포니아피자키친 은평 롯데몰,먹거리_식당,서울특별시 은평구,서울특별시 은평구 통일로 1050 롯데몰 은평점 4층,126.9505,37.65363
1706,zero,쿠아레비 구산점,먹거리_카페_디저트,서울특별시 은평구,서울특별시 은평구 서오릉로 149 세웅그룹빌딩 1층  ,126.9162,37.61161
1707,zero,트랜스,기타,서울특별시 은평구,서울특별시 은평구 통일로61길 4 1층  ,126.9327,37.60674
1708,vegan,팥동동,먹거리_식당,서울특별시 은평구,서울특별시 은평구 연서로48길 31 1층,126.9383,37.63804
1709,zero,플라눌라,생활용품,서울특별시 은평구,"서울특별시 은평구 은평로21길 32 1층, 즐거운반딧불이",126.930933,37.6026122
1710,vegan,DURI화덕피자 & 파스타,먹거리_식당,서울특별시 은평구,서울특별시 은평구 녹번로 41 상가1층 DURI 화덕피자&파스타,126.9292,37.60556
1711,vegan,건강한빵,먹거리_식당,서울특별시 종로구,서울특별시 종로구 성균관로1길 6-6,126.9979,37.58357
1712,vegan,김말자 대학로점,먹거리_식당,서울특별시 종로구,서울특별시 종로구 명륜4가 46-5,127.0004813,37.5832186
1713,vegan,김말자 동대문역점,먹거리_식당,서울특별시 종로구,서울특별시 종로구 종로 지하302,127.0087664,37.5709391
1714,vegan,김말자 종각역점,먹거리_식당,서울특별시 종로구,서울특별시 종로구 종로 지하55,126.983099,37.570169
1715,vegan,김말자 혜화역점,먹거리_식당,서울특별시 종로구,서울특별시 종로구 대학로 지하120,127.0019784,37.58180362
1716,vegan,뉘조,먹거리_식당,서울특별시 종로구,서울특별시 종로구 인사동14길 27,126.9852,37.57513
1717,vegan,니르바나,먹거리_식당,서울특별시 종로구,서울특별시 종로구 인사동길 58 2층,126.9838,37.57515
1718,vegan,닥터로빈 광화문점,먹거리_식당,서울특별시 종로구,서울특별시 종로구 종로3길 17,126.9790449,37.57130222
1719,vegan,도스타코스 성균관대,먹거리_식당,서울특별시 종로구,서울특별시 종로구 창경궁로29길 5,126.9983,37.58323
1720,vegan,도스타코스 종로,먹거리_식당,서울특별시 종로구,서울특별시 종로구 삼일대로15길 13,126.9867,37.56878
1721,vegan,두르가 종각,먹거리_식당,서울특별시 종로구,서울특별시 종로구 종로8길 5,126.9841,37.56977
1722,vegan,두르가 종로1가,먹거리_식당,서울특별시 종로구,서울특별시 종로구 종로 19,126.9798,37.57084
1723,vegan,뒤주르,먹거리_카페_디저트,서울특별시 종로구,서울특별시 종로구 경희궁2길 9-3,126.9710442,37.57307026
1724,vegan,디마떼오,먹거리_식당,서울특별시 종로구,서울특별시 종로구 동숭길 29,127.0039,37.58003
1725,zero,라마홈,기타,서울특별시 종로구,서울특별시 종로구 자하문로17길 14,126.969819,37.5814468
1726,vegan,롯데리아 동대문광장,먹거리_식당,서울특별시 종로구,서울특별시 종로구 종로 286 이스턴호텔,127.0103,37.57083
1727,vegan,롯데리아 동묘역,먹거리_식당,서울특별시 종로구,서울특별시 종로구 종로 336,127.015,37.57255
1728,vegan,롯데리아 혜화,먹거리_식당,서울특별시 종로구,서울특별시 종로구 창경궁로 273,127.0006,37.5858
1729,vegan,마나님레시피계동마나님,먹거리_식당,서울특별시 종로구,서울특별시 종로구 윤보선길 65,126.9831,37.57884
1730,vegan,마루자연식김밥,먹거리_식당,서울특별시 종로구,서울특별시 종로구 인사동길 35-4 본관 1층 105호,126.9849275,37.57355552
1731,vegan,마지,먹거리_식당,서울특별시 종로구,서울특별시 종로구 자하문로5길 19,126.9707926,37.57759842
1732,vegan,만리장성,먹거리_식당,서울특별시 종로구,서울특별시 종로구 우정국로 42-2,126.9834,37.57285
1733,vegan,만채우,먹거리_식당,서울특별시 종로구,서울특별시 종로구 인사동11길 24,126.9833544,37.57408734
1734,vegan,맥도날드 본사,먹거리_식당,서울특별시 종로구,서울특별시 종로구 종로 51,126.9836145,37.570749
1735,vegan,머노까머나 대학로,먹거리_식당,서울특별시 종로구,서울특별시 종로구 창경궁로 236 이화빌딩,126.9988,37.5826
1736,vegan,메종데쎄종,먹거리_식당,서울특별시 종로구,서울특별시 종로구 필운대로2길 25,126.9697,37.57919
1737,vegan,모던김밥,먹거리_식당,서울특별시 종로구,서울특별시 종로구 자하문로2길 10,126.9732,37.57647
1738,vegan,미당순두부,먹거리_식당,서울특별시 종로구,서울특별시 종로구 청계천로 97-12,126.9881,37.56871
1739,vegan,밀과보리,먹거리_식당,서울특별시 종로구,서울특별시 종로구 창덕궁1길 32,126.9875,37.57942
1740,vegan,반기다,먹거리_식당,서울특별시 종로구,서울특별시 종로구 낙원동 돈화문로11다길 51,126.9893,37.57372
1741,vegan,발우공양,먹거리_식당,서울특별시 종로구,서울특별시 종로구 우정국로 56 템플스테이통합정보센터 5층,126.982548,37.5732621
1742,vegan,발효카페 큔,먹거리_식당,서울특별시 종로구,서울특별시 종로구 자하문로26길 17-2,126.9723,37.58473
1743,zero,버거킹 본사,먹거리_식당,서울특별시 종로구,서울특별시 종로구 삼봉로 71,126.9811093,37.5726647
1744,vegan,별궁식당,먹거리_식당,서울특별시 종로구,서울특별시 종로구 윤보선길 19-16,126.9835888,37.5772257
1745,vegan,본죽 경복궁,먹거리_식당,서울특별시 종로구,서울특별시 종로구 자하문로2길 1,126.9728,37.57661
1746,vegan,본죽 계동,먹거리_식당,서울특별시 종로구,서울특별시 종로구 계동길 15,126.9866,37.57797
1747,vegan,본죽 대학로본,먹거리_식당,서울특별시 종로구,서울특별시 종로구 대학로7길 3,127.0017,37.57877
1748,vegan,본죽 동묘앞역,먹거리_식당,서울특별시 종로구,서울특별시 종로구 지봉로 52-1,127.0159,37.57472
1749,vegan,본죽 성균관대,먹거리_식당,서울특별시 종로구,서울특별시 종로구 창경궁로 247,126.9992,37.58372
1750,vegan,본죽 인사동,먹거리_식당,서울특별시 종로구,서울특별시 종로구 인사동길 51-2,126.9839,37.57468
1751,vegan,본죽 종로3가,먹거리_식당,서울특별시 종로구,서울특별시 종로구 돈화문로 31,126.9917,37.57133
1752,vegan,본죽 종로6가,먹거리_식당,서울특별시 종로구,서울특별시 종로구 종로39길 10-1,127.0063,37.57174
1753,vegan,본죽 평창,먹거리_식당,서울특별시 종로구,서울특별시 종로구 평창12길 3,126.9672,37.60617
1754,vegan,본죽&비빔밥cafe 광화문,먹거리_식당,서울특별시 종로구,서울특별시 종로구 새문안로 105,126.9763,37.57043
1755,vegan,본죽&비빔밥cafe 종각역,먹거리_식당,서울특별시 종로구,서울특별시 종로구 종로 73,126.9857,37.57043
1756,vegan,비건식당 마지,먹거리_식당,서울특별시 종로구,서울특별시 종로구 자하문로5길 19,126.9707957,37.5775672
1757,vegan,뿌리온더플레이트,먹거리_식당,서울특별시 종로구,서울특별시 종로구 계동길 57,126.9866169,37.5798236
1758,zero,사직동그가게,먹거리_식당,서울특별시 종로구,서울특별시 종로구 사직로9길 18  ,126.9678,37.57712
1759,vegan,산촌 본점,먹거리_식당,서울특별시 종로구,서울특별시 종로구 인사동길 30-13,126.986257,37.57379444
1760,vegan,삼소三笑,먹거리_식당,서울특별시 종로구,서울특별시 종로구 우정국로 45,126.982548,37.5732621
1761,vegan,샐러데이 종로,먹거리_식당,서울특별시 종로구,서울특별시 종로구 사직로8길 4 지하1층 푸드코트 7호,126.9689,37.57446
1762,vegan,샐러디 종로광교,먹거리_식당,서울특별시 종로구,서울특별시 종로구 청계천로 61,126.9843,37.56899
1763,vegan,서촌가락,먹거리_식당,서울특별시 종로구,서울특별시 종로구 자하문로7길 59,126.9692,37.57989
1764,vegan,서촌음료연구소,먹거리_카페_디저트,서울특별시 종로구,서울특별시 종로구 옥인길 11,126.9677614,37.5803717
1765,vegan,소이로움,먹거리_식당,서울특별시 종로구,서울특별시 종로구 필운대로 41,126.9685694,37.5796652
1766,vegan,수제비와보리밥,먹거리_식당,서울특별시 종로구,서울특별시 종로구 자하문로5길 4,126.9715,37.57785
1767,zero,숙녀미용실,먹거리_카페_디저트,서울특별시 종로구,서울특별시 종로구 삼일대로32길 41,126.9893224,37.5755916
1768,vegan,스무디킹 삼청동,먹거리_식당,서울특별시 종로구,서울특별시 종로구 삼청로 68,126.9813,37.58158
1769,vegan,스윗밸런스 정동길,먹거리_식당,서울특별시 종로구,서울특별시 종로구 새문안로 42,126.97,37.56859
1770,zero,아름다운가게 동대문점,생활용품,서울특별시 종로구,서울특별시 종로구 난계로 247,127.023007,37.57368767
1771,zero,아름다운가게 안국점,생활용품,서울특별시 종로구,서울특별시 종로구 북촌로 21,126.9849523,37.57881021
1772,vegan,아틀리에 송,먹거리_식당,서울특별시 종로구,서울특별시 종로구 율곡로6길 23 1층 아틀리에 송,126.9894,37.5762
1773,vegan,앞으로의 빵집,먹거리_카페_디저트,서울특별시 종로구,서울특별시 종로구 삼일대로32가길 29-1,126.989359,37.57470035
1774,zero,얼스어스 서촌점,먹거리_카페_디저트,서울특별시 종로구,서울특별시 종로구 자하문로28가길 1  ,126.9712,37.58535
1775,vegan,에베레스트 종로,먹거리_식당,서울특별시 종로구,서울특별시 종로구 종로51가길 2-1,127.0125,37.57258
1776,zero,오도르 가죽공방,기타,서울특별시 종로구,서울특별시 종로구 통일로12길 37,126.960981,37.5742542
1777,vegan,오세계향,먹거리_식당,서울특별시 종로구,서울특별시 종로구 인사동12길 14-5,126.9852738,37.5746764
1778,vegan,온더보더 광화문D타워,먹거리_식당,서울특별시 종로구,서울특별시 종로구 종로3길 17,126.9789,37.571
1779,vegan,온마을,먹거리_식당,서울특별시 종로구,서울특별시 종로구 삼청로 127,126.9815,37.58668
1780,vegan,이밥,먹거리_식당,서울특별시 종로구,서울특별시 종로구 창덕궁1길 29,126.9876,37.57927
1781,vegan,이태리총각 서촌점,먹거리_식당,서울특별시 종로구,서울특별시 종로구 자하문로9길 11,126.9705513,37.5792842
1782,vegan,자하손만두,먹거리_식당,서울특별시 종로구,서울특별시 종로구 백석동길 12,126.9661,37.59316
1783,vegan,작은인디아 리틀인디아,먹거리_식당,서울특별시 종로구,서울특별시 종로구 인사동길 27,126.986,37.57307
1784,vegan,재동순두부,먹거리_식당,서울특별시 종로구,서울특별시 종로구 북촌로2길 6,126.9861,37.57779
1785,vegan,죠샌드위치 독립문역,먹거리_식당,서울특별시 종로구,서울특별시 종로구 통일로 230 124호,126.9591,37.57397
1786,vegan,죠티인도레스토랑 종각점,먹거리_식당,서울특별시 종로구,서울특별시 종로구 종로12길 6,126.9856106,37.56983278
1787,vegan,죠티인도레스토랑 종로점,먹거리_카페_디저트,서울특별시 종로구,서울특별시 종로구 종로12길 6-11,126.985552,37.5697919
1788,vegan,지화자,먹거리_식당,서울특별시 종로구,서울특별시 종로구 자하문로 125,126.9689,37.58776
1789,vegan,채식주의자,먹거리_식당,서울특별시 종로구,서울특별시 종로구 자하문로13길 4-7,126.9707722,37.58037735
1790,vegan,카페 오르다,먹거리_식당,서울특별시 종로구,서울특별시 종로구 동숭1길 4,127.0048,37.57982
1791,vegan,카페마마스 광화문점,먹거리_카페_디저트,서울특별시 종로구,서울특별시 종로구 종로1길 50,126.979044,37.57468636
1792,vegan,퀴즈노스 방송대,먹거리_식당,서울특별시 종로구,서울특별시 종로구 대학로 86 방송통신대 본관 1층,127.003,37.57867
1793,vegan,퀴즈노스 서울대의대,먹거리_식당,서울특별시 종로구,서울특별시 종로구 대학로 103 2층,126.998,37.58092
1794,vegan,퀴즈노스 종로YBM,먹거리_식당,서울특별시 종로구,서울특별시 종로구 삼일대로 394,126.9881,37.56973
1795,zero,터치포굿,생활용품,서울특별시 종로구,서울특별시 종로구 동망산길 28 스카이캐슬 3층,127.0155,37.58044
1796,vegan,페르시안궁전,먹거리_식당,서울특별시 종로구,서울특별시 종로구 명륜2가 성균관로6길 9,126.997508,37.584887
1797,vegan,포탈라 종로,먹거리_식당,서울특별시 종로구,서울특별시 종로구 청계천로 99,126.9887,37.5684
1798,vegan,하궁,먹거리_식당,서울특별시 종로구,서울특별시 종로구 삼청로 106,126.9822742,37.5848937
1799,vegan,한과채,먹거리_식당,서울특별시 종로구,서울특별시 종로구 인사동10길 13,126.9857216,37.57434777
1800,zero,할리스커피 본사,먹거리_카페_디저트,서울특별시 종로구,서울특별시 종로구 율곡로 88,126.9889209,37.5768135
1801,vegan,호질,먹거리_식당,서울특별시 종로구,서울특별시 종로구 자하문로9길 15 백악빌딩,126.9703,37.57931
1802,vegan,효제눅,먹거리_식당,서울특별시 종로구,서울특별시 종로구 창경궁로 16길 69,127.0014,37.57505
1803,vegan,후스테이블,먹거리_식당,서울특별시 종로구,서울특별시 종로구 창덕궁1가길 8,126.9881,37.57961
1804,vegan,훌리오 종로,먹거리_식당,서울특별시 종로구,서울특별시 종로구 청계천로 73,126.9859,37.56866
1805,vegan,힐사이드테이블,먹거리_식당,서울특별시 종로구,서울특별시 종로구 경희궁2길 7,126.971,37.57288
1806,vegan,NOVA KITCHEN,먹거리_식당,서울특별시 종로구,서울특별시 종로구 명륜2가 167-6,126.9991057,37.5837277
1807,vegan,TLC,먹거리_식당,서울특별시 종로구,서울특별시 종로구 사직로8길 34,126.9718,37.57321
1808,vegan,강가 무교,먹거리_식당,서울특별시 중구,서울특별시 중구 세종대로 136,126.9783,37.56842
1809,vegan,그랑블루,먹거리_식당,서울특별시 중구,서울특별시 중구 수표로 66,126.9898,37.56706
1810,vegan,김말자 시청역점,먹거리_식당,서울특별시 중구,서울특별시 중구 세종대로 101,126.9768616,37.5657037
1811,vegan,김말자 을지로입구역점,먹거리_식당,서울특별시 중구,서울특별시 중구 을지로 지하42,126.982662,37.566056
1812,vegan,나마스테,먹거리_식당,서울특별시 중구,서울특별시 중구 퇴계로 182,126.992,37.56083
1813,vegan,도스타코스 시청배달,먹거리_식당,서울특별시 중구,서울특별시 중구 서소문로 115,126.9737,37.56342
1814,vegan,동국대학교 서울캠퍼스 상록원,먹거리_식당,서울특별시 중구,서울특별시 중구 필동로1길 30,127.0005886,37.55839019
1815,zero,뚜레쥬르 본사,먹거리_카페_디저트,서울특별시 중구,서울특별시 중구 마른내로 34,126.9916603,37.5642405
1816,vegan,라그린,먹거리_식당,서울특별시 중구,서울특별시 중구 정동길 26 이화여고100주년기념관,126.9711,37.56603
1817,zero,레디투웰니스,생활용품,서울특별시 중구,서울특별시 중구 퇴계로2길 9-8 4층  ,126.9777,37.55701
1818,vegan,레스토랑 바이 농축원,먹거리_식당,서울특별시 중구,서울특별시 중구 동호로24길 19,127.0052,37.56004
1819,vegan,로봇김밥 현대시티아울렛동대문,먹거리_식당,서울특별시 중구,서울특별시 중구 장충단로13길 20,127.0077,37.56866
1820,vegan,롯데리아 동대문역사문화공원역,먹거리_식당,서울특별시 중구,서울특별시 중구 을지로 255,127.0066,37.56645
1821,vegan,롯데리아 소공2호,먹거리_식당,서울특별시 중구,서울특별시 중구 을지로 30 롯데백화점 본점 지하 1층,126.9814,37.56554
1822,vegan,롯데리아 신당역,먹거리_식당,서울특별시 중구,서울특별시 중구 퇴계로 428-1,127.0193,37.5655
1823,vegan,본죽 동국대제일병원,먹거리_식당,서울특별시 중구,서울특별시 중구 서애로 2,126.9983,37.56187
1824,vegan,본죽 동대문밀리오레,먹거리_식당,서울특별시 중구,서울특별시 중구 장충단로13길 43,127.0066,37.56807
1825,vegan,본죽 명동,먹거리_식당,서울특별시 중구,서울특별시 중구 명동8가길 6,126.9854,37.56153
1826,vegan,본죽 서소문,먹거리_식당,서울특별시 중구,서울특별시 중구 세종대로11길 42 부림빌딩,126.9736,37.56227
1827,vegan,본죽 서울백병원,먹거리_식당,서울특별시 중구,서울특별시 중구 마른내로 14,126.9894,37.56464
1828,vegan,본죽 신당동,먹거리_식당,서울특별시 중구,서울특별시 중구 다산로36길 30,127.0166,37.56212
1829,vegan,본죽 약수역,먹거리_식당,서울특별시 중구,서울특별시 중구 다산로 129-1,127.0108,37.55552
1830,vegan,본죽 충정로역,먹거리_식당,서울특별시 중구,서울특별시 중구 청파로 464,126.9681,37.56101
1831,vegan,본죽 황학동롯데캐슬,먹거리_식당,서울특별시 중구,서울특별시 중구 청계천로 400,127.0213,37.57088
1832,vegan,본죽 회현역,먹거리_식당,서울특별시 중구,서울특별시 중구 퇴계로 72,126.9809,37.55896
1833,vegan,본죽&비빔밥cafe 명동2호,먹거리_식당,서울특별시 중구,서울특별시 중구 명동9길 10,126.985,37.56435
1834,vegan,본죽&비빔밥cafe 시청,먹거리_식당,서울특별시 중구,서울특별시 중구 세종대로 80,126.977,37.56326
1835,vegan,브레라,먹거리_식당,서울특별시 중구,서울특별시 중구 동호로17길 295,127.007,37.54838
1836,vegan,샐러디 덕수궁롯데캐슬,먹거리_식당,서울특별시 중구,서울특별시 중구 서소문로9길 28,126.9703,37.56369
1837,vegan,샐러디 서울스퀘어,먹거리_식당,서울특별시 중구,서울특별시 중구 한강대로 416,126.9738,37.55551
1838,vegan,샐러디 충무로역,먹거리_식당,서울특별시 중구,서울특별시 중구 서애로1길 11,126.9986,37.56134
1839,vegan,스윗밸런스 퍼시픽타워,먹거리_식당,서울특별시 중구,서울특별시 중구 세종대로9길 41 지하1층,126.973,37.56136
1840,zero,스타벅스커피 코리아 본사,먹거리_카페_디저트,서울특별시 중구,서울특별시 중구 퇴계로 100,126.9829206,37.5601739
1841,vegan,아그라 서울로,먹거리_식당,서울특별시 중구,서울특별시 중구 퇴계로 18,126.9752,37.55657
1842,vegan,아그라 센터원,먹거리_식당,서울특별시 중구,서울특별시 중구 을지로5길 26 미래에셋빌딩 지하2층,126.9852,37.56738
1843,zero,알맹상점 리스테이션,생활용품,서울특별시 중구,서울특별시 중구 한강대로 405 4층,126.9707,37.55468
1844,vegan,애프터 저크 오프,먹거리_식당,서울특별시 중구,서울특별시 중구 수표로 42-21,126.9905,37.56504
1845,vegan,에베레스트 동대문 굿모닝씨티,먹거리_식당,서울특별시 중구,서울특별시 중구 장충단로 247,127.0074,37.56687
1846,vegan,에이투지카페 SFC,먹거리_식당,서울특별시 중구,서울특별시 중구 세종대로 136,126.9783,37.56842
1847,zero,에코스토어 신세계백화점 본점,생활용품,서울특별시 중구,서울특별시 중구 소공로 63,126.981,37.56091
1848,vegan,이니스프리 그린카페 명동점,먹거리_카페_디저트,서울특별시 중구,서울특별시 중구 명동길 13,126.9831556,37.5637389
1849,vegan,이찌밥,먹거리_식당,서울특별시 중구,서울특별시 중구 서소문로 38,126.9662,37.56042
1850,vegan,적수방,먹거리_식당,서울특별시 중구,서울특별시 중구 동호로24길 7-6,127.0048702,37.55972519
1851,zero,제로띵스,생활용품,서울특별시 중구,서울특별시 중구 수표로 32-1,126.990302,37.5639803
1852,vegan,죠샌드위치 남산스테이트타워,먹거리_식당,서울특별시 중구,서울특별시 중구 퇴계로 100 B1층,126.9829,37.56017
1853,vegan,죠샌드위치 센터원,먹거리_식당,서울특별시 중구,서울특별시 중구 을지로5길 26 지하1층 푸드코트 8호,126.9852,37.56738
1854,vegan,죠샌드위치 의주로,먹거리_식당,서울특별시 중구,서울특별시 중구 통일로 86 바비엥3,126.9695,37.56308
1855,vegan,죠티인도레스토랑 충무로점,먹거리_식당,서울특별시 중구,서울특별시 중구 서애로 12-4,126.9979582,37.5612994
1856,vegan,지금 여기가 맨 앞,먹거리_식당,서울특별시 중구,서울특별시 중구 을지로20길 16 3층,126.9953,37.56569
1857,vegan,치아바타 몽스,먹거리_식당,서울특별시 중구,서울특별시 중구 퇴계로 199,127.00076,37.58311
1858,vegan,카페마마스 서소문점,먹거리_카페_디저트,서울특별시 중구,서울특별시 중구 서소문로 81,126.9701817,37.5623309
1859,vegan,카페마마스 센터원점,먹거리_카페_디저트,서울특별시 중구,서울특별시 중구 을지로5길 26,126.9851719,37.56741986
1860,vegan,카페마마스 시청점,먹거리_카페_디저트,서울특별시 중구,서울특별시 중구 무교로 16,126.9793686,37.56726852
1861,vegan,카페벗,먹거리_식당,서울특별시 중구,서울특별시 중구 동호로18길 33,127.0100747,37.55787403
1862,vegan,캘리포니아피자키친 명동M플라자,먹거리_식당,서울특별시 중구,서울특별시 중구 명동8길 27 M플라자 6층,126.9852,37.56254
1863,vegan,퀴즈노스 서울스퀘어,먹거리_식당,서울특별시 중구,서울특별시 중구 한강대로 416,126.9738,37.55551
1864,vegan,퀴즈노스 순화덕수궁롯데캐슬,먹거리_식당,서울특별시 중구,서울특별시 중구 서소문로9길 28 덕수궁롯데캐슬상가 1층 113호,126.9703,37.56369
1865,vegan,퀴즈노스 시청대한항공빌딩,먹거리_식당,서울특별시 중구,서울특별시 중구 서소문로 117 대한항공빌딩 1층,126.9741,37.56358
1866,vegan,타지,먹거리_식당,서울특별시 중구,서울특별시 중구 명동길 73,126.9861857,37.5642938
1867,zero,투썸플레이스 본사,먹거리_카페_디저트,서울특별시 중구,서울특별시 중구 을지로 170,126.9967598,37.5663383
1868,vegan,페스타 바이 민구,먹거리_식당,서울특별시 중구,서울특별시 중구 장충단로 60,127.0013,37.55026
1869,vegan,한국의 집,먹거리_식당,서울특별시 중구,서울특별시 중구 퇴계로36길 10,126.9945,37.56009
1870,vegan,한상훈쉐프 카페 모리나리,먹거리_식당,서울특별시 중구,서울특별시 중구 소공로 29,126.9828,37.55797
1871,vegan,홍밀밀,먹거리_식당,서울특별시 중구,서울특별시 중구 명동길 74,126.9869,37.5633
1872,vegan,CEEK,먹거리_식당,서울특별시 중구,서울특별시 중구 동호로17길 13 로컬스티치 약수 1층,127.0086,37.5572
1873,zero,KFC 본사,먹거리_식당,서울특별시 중구,서울특별시 중구 통일로 92,126.9692346,37.5635963
1874,vegan,김말자 사가정역점,먹거리_식당,서울특별시 중랑구,서울특별시 중랑구 사가정로 지하393,127.0885187,37.5809217
1875,vegan,로라오븐,먹거리_식당,서울특별시 중랑구,서울특별시 중랑구 사가정로 409 대도빌딩A 1층,127.0902,37.58058
1876,vegan,롯데리아 망우,먹거리_식당,서울특별시 중랑구,서울특별시 중랑구 봉우재로 239 천우빌딩,127.0995,37.59575
1877,vegan,롯데리아 면목중앙,먹거리_식당,서울특별시 중랑구,서울특별시 중랑구 면목로 415,127.0871,37.58903
1878,vegan,롯데리아 사가정역,먹거리_식당,서울특별시 중랑구,서울특별시 중랑구 면목로 333 조희중산부인과의원,127.0885,37.5818
1879,vegan,롯데리아 상봉역,먹거리_식당,서울특별시 중랑구,서울특별시 중랑구 망우로 282-1,127.0839,37.59569
1880,vegan,롯데리아 중랑역,먹거리_식당,서울특별시 중랑구,서울특별시 중랑구 망우로 192,127.0742,37.5932
1881,vegan,롯데리아 중화역,먹거리_식당,서울특별시 중랑구,서울특별시 중랑구 동일로 802,127.0797,37.60209
1882,vegan,롯데리아 홈플러스상봉,먹거리_식당,서울특별시 중랑구,서울특별시 중랑구 망우로 353 홈플러스상봉점 1F,127.091,37.59815
1883,vegan,롯데리아 홈플러스신내,먹거리_식당,서울특별시 중랑구,서울특별시 중랑구 신내로 201 홈플러스서울신내점,127.0937,37.61582
1884,zero,보탬상점,생활용품,서울특별시 중랑구,서울특별시 중랑구 봉화산로22길 2 1층,127.0819,37.60132
1885,vegan,본죽 동부시장,먹거리_식당,서울특별시 중랑구,서울특별시 중랑구 망우로32길 20,127.0765,37.593
1886,vegan,본죽 망우동,먹거리_식당,서울특별시 중랑구,서울특별시 중랑구 망우로 467,127.104,37.60074
1887,vegan,본죽 망우역,먹거리_식당,서울특별시 중랑구,서울특별시 중랑구 망우로 346,127.0914,37.59694
1888,vegan,본죽 망우우림시장,먹거리_식당,서울특별시 중랑구,서울특별시 중랑구 용마산로 498,127.1003,37.5955
1889,vegan,본죽 먹골역,먹거리_식당,서울특별시 중랑구,서울특별시 중랑구 공릉로2길 8,127.0784,37.61194
1890,vegan,본죽 면목역,먹거리_식당,서울특별시 중랑구,서울특별시 중랑구 겸재로 178,127.0873,37.58806
1891,vegan,본죽 봉화산역,먹거리_식당,서울특별시 중랑구,서울특별시 중랑구 신내로 211,127.0927,37.61636
1892,vegan,본죽 사가정역,먹거리_식당,서울특별시 중랑구,서울특별시 중랑구 사가정로 407,127.0899,37.58063
1893,vegan,본죽 신내,먹거리_식당,서울특별시 중랑구,서울특별시 중랑구 봉화산로 203,127.0957,37.6081
1894,vegan,본죽 중화역,먹거리_식당,서울특별시 중랑구,서울특별시 중랑구 봉화산로 36,127.0784,37.60144
1895,vegan,샐러데이 중랑,먹거리_식당,서울특별시 중랑구,서울특별시 중랑구 겸재로3길 22,127.0766,37.58689
1896,zero,아름다운가게 망우점,생활용품,서울특별시 중랑구,서울특별시 중랑구 망우로 458,127.103013,37.6000873
1897,vegan,어글리스토브 상봉,먹거리_식당,서울특별시 중랑구,서울특별시 중랑구 상봉로 131 1층,127.0924,37.59762
2038,vegan,그럼피 베이비,먹거리_식당,제주특별자치도 서귀포시,제주특별자치도 서귀포시 안덕면 녹차분재로 65,126.3009144,33.29102269
2039,vegan,글라글라하와이,먹거리_식당,제주특별자치도 서귀포시,제주특별자치도 서귀포시 대정읍 하모항구로 70,126.2513694,33.219714
2040,vegan,꼬라지오,먹거리_카페_디저트,제주특별자치도 서귀포시,제주특별자치도 서귀포시 일주동로 8777,126.5508874,33.25269476
2041,vegan,너는 나의 바다,먹거리_카페_디저트,제주특별자치도 서귀포시,제주특별자치도 서귀포시 대정읍 최남단해안로127번길 3-3,126.2576799,33.21196718
2042,vegan,덕성원,먹거리_식당,제주특별자치도 서귀포시,제주특별자치도 서귀포시 태평로401번길 4,126.5634926,33.245005
2043,vegan,도렐 제주본점,먹거리_카페_디저트,제주특별자치도 서귀포시,제주특별자치도 서귀포시 성산읍 동류암로 20,126.9185555,33.45011029
2044,vegan,러빙헛 제주서귀포점,먹거리_식당,제주특별자치도 서귀포시,제주특별자치도 서귀포시 남원읍 일주동로 7036,126.7281752,33.28556405
2045,zero,마이아일랜드,생활용품,제주특별자치도 서귀포시,제주특별자치도 서귀포시 호근로112번길 24,126.528306,33.2584532
2046,vegan,모녀의 부엌,먹거리_식당,제주특별자치도 서귀포시,제주특별자치도 서귀포시 516로 472,126.5948996,33.29346289
2047,vegan,뱅인타코,먹거리_식당,제주특별자치도 서귀포시,제주특별자치도 서귀포시 대정읍 에듀시티로 74 라온프라이빗에듀 상가동 101호,126.2673111,33.27768975
2048,vegan,보틀앤볼 ,먹거리_식당,제주특별자치도 서귀포시,제주특별자치도 서귀포시 일주동로 8712-2,126.5573726,33.2525374
2049,vegan,블랑제리,먹거리_카페_디저트,제주특별자치도 서귀포시,제주특별자치도 서귀포시 동홍중앙로52번길 2,126.5724735,33.2553604
2050,vegan,삼공오공식당,먹거리_식당,제주특별자치도 서귀포시,제주특별자치도 서귀포시 서문로 5-2,126.5606532,33.25212877
2051,vegan,소소식당,먹거리_식당,제주특별자치도 서귀포시,제주특별자치도 서귀포시 대포로 69-12 소소식당,126.4333613,33.24332437
2052,vegan,썬샤인워크,먹거리_카페_디저트,제주특별자치도 서귀포시,제주특별자치도 서귀포시 소보리당로 40-4,126.3894349,33.24818458
2053,zero,아름다운가게 서귀포점,생활용품,제주특별자치도 서귀포시,제주특별자치도 서귀포시 중앙로 167,126.5592997,33.25958527
2054,vegan,엉커리,먹거리_카페_디저트,제주특별자치도 서귀포시,제주특별자치도 서귀포시 일주서로176번길 43,126.5040827,33.25160454
2055,vegan,잇유어그린,먹거리_카페_디저트,제주특별자치도 서귀포시,제주특별자치도 서귀포시 안덕면 난드르로 17,126.3662678,33.2346232
2056,vegan,제주 그대로,먹거리_카페_디저트,제주특별자치도 서귀포시,제주특별자치도 서귀포시 중앙로79번길 8 1층,126.5604987,33.25159868
2057,zero,지구별가게 서호점,먹거리_카페_디저트,제주특별자치도 서귀포시,제주특별자치도 서귀포시 서호로 7-22,126.522568,33.2538329
2058,vegan,캑터스타코스,먹거리_식당,제주특별자치도 서귀포시,제주특별자치도 서귀포시 천제연로 266,126.433255,33.25112563
2059,vegan,커뮤니테이블,먹거리_식당,제주특별자치도 서귀포시,제주특별자치도 서귀포시 월평로 15,126.4592613,33.24514604
2060,vegan,템플스테이푸드,먹거리_식당,제주특별자치도 서귀포시,제주특별자치도 서귀포시 안덕면 난드르로 43,126.3637051,33.23562767
2061,zero,핸드메이드 라이프 샵&공방,생활용품,제주특별자치도 서귀포시,제주특별자치도 서귀포시 대정읍 상모로 256,126.261732,33.224091
2062,vegan,Tropical Hideaway Cafe & Bakery,먹거리_카페_디저트,제주특별자치도 서귀포시,제주특별자치도 서귀포시 대정읍 형제해안로 284,126.2919107,33.2116197
2063,vegan,고추냉이식당,먹거리_식당,제주특별자치도 제주시,제주특별자치도 제주시 애월읍 광령5길 8,126.435775,33.46141762
2064,vegan,그날의조각,먹거리_카페_디저트,제주특별자치도 제주시,제주특별자치도 제주시 노형1길 39 1층,126.4772219,33.47992158
2065,vegan,그리트 커피,먹거리_카페_디저트,제주특별자치도 제주시,제주특별자치도 제주시 인다6길 57,126.549387,33.47534644
2066,vegan,그린보이즈,먹거리_식당,제주특별자치도 제주시,제주특별자치도 제주시 노형5길 23,126.4757055,33.4806414
2067,vegan,김마리,먹거리_식당,제주특별자치도 제주시,제주특별자치도 제주시 광양14길 17-10,126.5294191,33.49735403
2068,vegan,깃든카페,먹거리_카페_디저트,제주특별자치도 제주시,제주특별자치도 제주시 구좌읍 해맞이해안로 990-2,126.8296383,33.54328991
2069,zero,꽃마리리필스토어,생활용품,제주특별자치도 제주시,제주특별자치도 제주시 인다11길 29,126.550826,33.4740931
2070,vegan,낭뜰에 쉼팡,먹거리_식당,제주특별자치도 제주시,제주특별자치도 제주시 조천읍 남조로 2343,126.6571829,33.47383969
2071,vegan,다담,먹거리_식당,제주특별자치도 제주시,제주특별자치도 제주시 서광로2길 11-18,126.5136293,33.4986828
2072,vegan,다소니,먹거리_식당,제주특별자치도 제주시,제주특별자치도 제주시 오남로6길 24,126.5177399,33.4906721
2073,vegan,더치앤빈 제주시청점,먹거리_카페_디저트,제주특별자치도 제주시,제주특별자치도 제주시 서광로 292,126.5276146,33.5003447
2074,vegan,덕성원,먹거리_식당,제주특별자치도 제주시,제주특별자치도 제주시 신설로11길 8-6,126.5446455,33.491539
2075,vegan,도토리키친,먹거리_식당,제주특별자치도 제주시,제주특별자치도 제주시  북성로 59,126.5186278,33.5155877
2076,vegan,딤아래,먹거리_식당,제주특별자치도 제주시,제주특별자치도 제주시 수목원길 23,126.4874006,33.469609
2077,vegan,라이터스블럭,먹거리_식당,제주특별자치도 제주시,제주특별자치도 제주시 신설로5길,126.5445215,33.49363075
2078,vegan,라지마할,먹거리_식당,제주특별자치도 제주시,제주특별자치도 제주시 신광로 43 2층,126.4901072,33.48841516
2079,vegan,레인보울,먹거리_카페_디저트,제주특별자치도 제주시,제주특별자치도 제주시 구좌읍 해맞이해안로 1240-1,126.8460001,33.53274853
2080,vegan,롱리브,먹거리_카페_디저트,제주특별자치도 제주시,제주특별자치도 제주시 아란3길 13-3,126.5416129,33.47671459
2081,vegan,루루비건,먹거리_카페_디저트,제주특별자치도 제주시,제주특별자치도 제주시 연북로 28,126.484593,33.48238081
2082,zero,메리오가닉,기타,제주특별자치도 제주시,제주특별자치도 제주시 한경면 두신로 73,126.182819,33.3497206
2083,vegan,모앙,먹거리_카페_디저트,제주특별자치도 제주시,제주특별자치도 제주시 인다5길 12 4 1층,126.5473707,33.47610518
2084,vegan,무조리실,먹거리_식당,제주특별자치도 제주시,제주특별자치도 제주시 관덕로6길 14 1층,126.5219218,33.51203807
2085,vegan,물메골,먹거리_식당,제주특별자치도 제주시,제주특별자치도 제주시 애월읍 번대동길 67,126.3913367,33.4729811
2086,vegan,미나마라,먹거리_식당,제주특별자치도 제주시,제주특별자치도 제주시 한림읍 한림로 702,126.2649578,33.4173125
2087,vegan,바그다드,먹거리_식당,제주특별자치도 제주시,제주특별자치도 제주시 서광로32길 38,126.5296932,33.4974851
2088,vegan,밥 짓는 시간,먹거리_식당,제주특별자치도 제주시,제주특별자치도 제주시 구좌읍 평대5길 25,126.8410591,33.5312216
2089,vegan,밥이보약,먹거리_식당,제주특별자치도 제주시,제주특별자치도 제주시 도령로 11,126.4805343,33.48703016
2090,vegan,버터투마이브레드,먹거리_식당,제주특별자치도 제주시,제주특별자치도 제주시 남광북3길 39,126.537768,33.49626927
2091,vegan,보리문디,먹거리_식당,제주특별자치도 제주시,제주특별자치도 제주시 중앙로 598,126.5459666,33.4701725
2092,zero,본조르노베이커리,먹거리_카페_디저트,제주특별자치도 제주시,제주특별자치도 제주시 다랑곶4길 68 1층 본조르노베이커리,126.476556,33.4912104
2093,vegan,브레드앤리프,먹거리_카페_디저트,제주특별자치도 제주시,제주특별자치도 제주시 구남로2길 34,126.5346915,33.48699104
2094,vegan,비건테이블바람,먹거리_카페_디저트,제주특별자치도 제주시,제주특별자치도 제주시 애월읍 납읍동1길 18-14,126.3287523,33.4424316
2095,vegan,비스트로더반,먹거리_식당,제주특별자치도 제주시,제주특별자치도 제주시 관덕로4길 6,126.5211511,33.51260401
2096,vegan,비오는날의숲,먹거리_식당,제주특별자치도 제주시,제주특별자치도 제주시 조천읍 신촌북3길 1,126.6189081,33.5372517
2097,vegan,빌레와너드랑 영양밥한정식,먹거리_식당,제주특별자치도 제주시,제주특별자치도 제주시 조천읍 선흘남4길 286-3,126.6997838,33.4881106
2098,vegan,상춘재,먹거리_식당,제주특별자치도 제주시,제주특별자치도 제주시 조천읍 선진길 26,126.7047966,33.45896968
2099,vegan,소락,먹거리_식당,제주특별자치도 제주시,제주특별자치도 제주시 남광로2길 7-17,126.5381878,33.49268465
2100,zero,소로소로 게스트하우스,기타,제주특별자치도 제주시,제주특별자치도 제주시 구좌읍 송당7길 3 송당리,126.786774,33.4711742
2101,vegan,손심엉,먹거리_식당,제주특별자치도 제주시,제주특별자치도 제주시 승천로 80,126.5431052,33.49197544
2102,vegan,숲속의도토리,먹거리_식당,제주특별자치도 제주시,제주특별자치도 제주시 도근내길 18,126.4330133,33.49260406
2103,vegan,스물다섯,먹거리_카페_디저트,제주특별자치도 제주시,제주특별자치도 제주시 다랑곶6길 19,126.4808149,33.4891209
2104,vegan,스토브온 제주,먹거리_식당,제주특별자치도 제주시,제주특별자치도 제주시 한림읍 중산간서로 4062,126.27152,33.35817195
2105,vegan,신의한모,먹거리_식당,제주특별자치도 제주시,제주특별자치도 제주시 애월읍 하귀14길 11-1,126.4079896,33.48563126
2106,zero,아름다운가게 신제주점,생활용품,제주특별자치도 제주시,제주특별자치도 제주시 원노형9길 10,126.4848254,33.48835801
2107,zero,아름다운가게 제주동문점,생활용품,제주특별자치도 제주시,제주특별자치도 제주시 산지로 37-1,126.5284771,33.51369343
2108,vegan,아살람 레스토랑,먹거리_식당,제주특별자치도 제주시,제주특별자치도 제주시 중앙로2길 7,126.5241326,33.51676828
2109,vegan,애월고사리,먹거리_식당,제주특별자치도 제주시,제주특별자치도 제주시 애월읍 고내로9길 44-2,126.3383146,33.46687181
2110,zero_vegan,앤드유카페,먹거리_카페_디저트,제주특별자치도 제주시,제주특별자치도 제주시 한림읍 한림로 518,126.254314,33.4046453
2111,vegan,에이팩토리베이커리카페,먹거리_카페_디저트,제주특별자치도 제주시,제주특별자치도 제주시 탑동로 11,126.5233915,33.5171408
2112,vegan,연우네,먹거리_식당,제주특별자치도 제주시,제주특별자치도 제주시 은수길 110,126.4877775,33.46699441
2113,vegan,오롯,먹거리_식당,제주특별자치도 제주시,제주특별자치도 제주시 신설로11길 2-10,126.5442705,33.49181267
2114,vegan,오지힐 제주,먹거리_카페_디저트,제주특별자치도 제주시,제주특별자치도 제주시 한경면 일주서로 4469,126.2061063,33.36954098
2115,zero,올바른농민상회,생활용품,제주특별자치도 제주시,제주특별자치도 제주시 애월읍 일주서로 6585,126.3566,33.46772
2116,vegan,와르다 레스토랑,먹거리_식당,제주특별자치도 제주시,제주특별자치도 제주시 관덕로8길 24-1,126.5231251,33.51120102
2117,vegan,외계인방앗간 제주점,먹거리_카페_디저트,제주특별자치도 제주시,제주특별자치도 제주시 연북로 24,126.4839736,33.4816716
2118,zero,유니제로웨이스트,기타,제주특별자치도 제주시,제주특별자치도 제주시 신설로 16 지하1층,126.543209,33.4945854
2119,vegan,인디언키친,먹거리_식당,제주특별자치도 제주시,제주특별자치도 제주시 애월읍 애원로 191,126.3307884,33.45059604
2120,vegan,일품순두부 탑동점,먹거리_식당,제주특별자치도 제주시,제주특별자치도 제주시 탑동로 33,126.5211492,33.51771359
2121,vegan,잇마이피자,먹거리_식당,제주특별자치도 제주시,제주특별자치도 제주시 중앙로 253,126.5317554,33.49763544
2122,vegan,작은부엌,먹거리_식당,제주특별자치도 제주시,제주특별자치도 제주시 조천읍 선흘동2길 1,126.7058744,33.51195959
2123,vegan,정선할매곤드레밥,먹거리_식당,제주특별자치도 제주시,제주특별자치도 제주시 승천로 83,126.543808,33.49184305
2124,vegan,제주특별자치도 탑 해장국,먹거리_식당,제주특별자치도 제주시,제주특별자치도 제주시 월랑로 83,126.472375,33.49201929
2125,zero,지구별가게,생활용품,제주특별자치도 제주시,제주특별자치도 제주시 월랑북2길 16 1층 101호  ,126.47511,33.49296
2126,vegan,채식카페 작은부엌,먹거리_식당,제주특별자치도 제주시,제주특별자치도 제주시 조천읍 선흘동2길 1,126.7058324,33.51172347
2127,vegan,초록펍,먹거리_식당,제주특별자치도 제주시,제주특별자치도 제주시 동광로 97,126.537822,33.50565381
2128,vegan,칠분의오,먹거리_식당,제주특별자치도 제주시,제주특별자치도 제주시 구좌읍 종달로1길 123,126.90845,33.496325
2129,vegan,카고크루즈,먹거리_식당,제주특별자치도 제주시,제주특별자치도 제주시 탑동로 43 2층,126.5204004,33.51776646
2130,vegan,카페901,먹거리_카페_디저트,제주특별자치도 제주시,제주특별자치도 제주시 1100로 2977-10,126.4863363,33.45294064
2131,vegan,커피템플,먹거리_카페_디저트,제주특별자치도 제주시,제주특별자치도 제주시 영평길 269,126.57017,33.47828264
2132,vegan,코시롱,먹거리_식당,제주특별자치도 제주시,제주특별자치도 제주시 노형1길 12-2 1층,126.4746071,33.48115487
2133,vegan,큐티,먹거리_카페_디저트,제주특별자치도 제주시,제주특별자치도 제주시한림읍 한림로 518,126.548789,33.47257699
2134,vegan,타코마씸,먹거리_식당,제주특별자치도 제주시,제주특별자치도 제주시 구좌읍 해맞이해안로 474,126.7971913,33.55522593
2135,vegan,탐라반상,먹거리_식당,제주특별자치도 제주시,제주특별자치도 제주시 한경면 녹차분재로 462,126.2745492,33.31449101
2136,vegan,탑해장국 본점,먹거리_식당,제주특별자치도 제주시,제주특별자치도 제주시 월랑로 83,126.4723965,33.4917822
2137,vegan,탑해장국 삼화점,먹거리_식당,제주특별자치도 제주시,제주특별자치도 제주시 일주동로,126.5765703,33.5167255
2138,vegan,톰톰카레,먹거리_식당,제주특별자치도 제주시,제주특별자치도 제주시 구좌읍 해맞이해안로 1112,126.8373654,33.53751775
2139,vegan,팟타이시암,먹거리_식당,제주특별자치도 제주시,제주특별자치도 제주시 용화로 41-2,126.5082725,33.5100369
2140,vegan,펜고호다,먹거리_카페_디저트,제주특별자치도 제주시,제주특별자치도 제주시 애월읍 애월읍 봉성리 4123-6 봉성로 61,126.3124356,33.41847771
2141,vegan,푸른솔맑은향,먹거리_식당,제주특별자치도 제주시,제주특별자치도 제주시 고사마루길 125,126.4746637,33.47134991
2142,vegan,푸른솔맑은향 채식식당,먹거리_식당,제주특별자치도 제주시,제주특별자치도 제주시 고사마루길 109 제2동,126.4743223,33.4718519
2143,vegan,프리제과,먹거리_카페_디저트,제주특별자치도 제주시,제주특별자치도 제주시 전농로 28,126.5161512,33.50443216
2144,vegan,픽스커피,먹거리_카페_디저트,제주특별자치도 제주시,제주특별자치도 제주시 신설로11길 2,126.5439663,33.49153871
2145,vegan,히포파운드,먹거리_카페_디저트,제주특별자치도 제주시,제주특별자치도 제주시 동광로16길 14,126.5390444,33.50494661
2146,vegan,Tact coffee,먹거리_카페_디저트,제주특별자치도 제주시,제주특별자치도 제주시 고산동산서길 5,126.5313358,33.49466886